{"type":"FeatureCollection","event":"Cyclone Fani","note":"Cones truncated at each of several leads, for siting exclusion. Pick the horizon the evacuation must hold for.","leadsH":[6,12,24],"features":[{"type":"Feature","geometry":{"type":"Polygon","coordinates":[[[83.23538781507563,14.875],[83.25157505066473,14.719025883404282],[83.29889495768718,14.569045764638043],[83.37550152819577,14.430823295555655],[83.47843289380349,14.309670288127895],[83.60372769434949,14.210242584486826],[83.74657802758804,14.136361135523675],[83.9015130468842,14.090865163888902],[84.06260635750178,14.075503054257995],[84.22369966811935,14.090865163888902],[84.37863468741551,14.136361135523675],[84.52148502065407,14.210242584486826],[84.64677982120007,14.309670288127895],[84.74971118680779,14.430823295555655],[84.82631775731637,14.569045764638044],[84.87363766433883,14.719025883404282],[84.88982489992793,14.875],[84.874224306054,15.030974116595718],[84.82740173503284,15.180954235361957],[84.75112748205515,15.319176704444345],[84.64831282103522,15.440329711872105],[84.52290133974893,15.539757415513174],[84.37971869885743,15.613638864476325],[84.224286333682,15.659134836111098],[84.06260635750178,15.674496945742005],[83.90092638132155,15.659134836111098],[83.74549401614613,15.613638864476325],[83.60231137525463,15.539757415513174],[83.47689989396834,15.440329711872105],[83.3740852329484,15.319176704444345],[83.29781097997072,15.180954235361957],[83.25098840894955,15.030974116595718],[83.23538781507563,14.875]]]},"properties":{"kind":"exclusion","issued":"2019-05-01T12:00:00Z","issuedIst":"2019-05-01T17:30:00+05:30","operating":false,"maxLeadH":6,"radiusKm":89.0,"radiusUndecayedKm":89.0,"inlandDecay":1.0}},{"type":"Feature","geometry":{"type":"Polygon","coordinates":[[[82.65502174205884,15.125],[82.6842094296437,14.848102130088499],[82.76866165499233,14.581845290031582],[82.90504643394019,14.336461580874083],[83.08806741583743,14.121380960946151],[83.31067479260774,13.944868857853017],[83.56433781885693,13.813708532727423],[83.83936852617022,13.732940403308387],[84.12528497473173,13.705668343514194],[84.41120142329324,13.732940403308387],[84.68623213060653,13.813708532727423],[84.93989515685571,13.944868857853017],[85.16250253362603,14.121380960946151],[85.34552351552327,14.336461580874083],[85.48190829447113,14.581845290031582],[85.56636051981975,14.848102130088499],[85.59554820740462,15.125],[85.56824415358277,15.401897869911501],[85.48538884828852,15.668154709968418],[85.35007118081536,15.913538419125917],[85.16742502203977,16.12861903905385],[84.94444306415744,16.305131142146983],[84.68971302667724,16.43629146727258],[84.4130852990659,16.517059596691613],[84.12528497473173,16.544331656485806],[83.83748465039756,16.517059596691613],[83.56085692278621,16.43629146727258],[83.30612688530601,16.305131142146983],[83.08314492742369,16.12861903905385],[82.90049876864809,15.913538419125917],[82.76518110117493,15.668154709968418],[82.68232579588069,15.401897869911501],[82.65502174205884,15.125]]]},"properties":{"kind":"exclusion","issued":"2019-05-01T12:00:00Z","issuedIst":"2019-05-01T17:30:00+05:30","operating":false,"maxLeadH":12,"radiusKm":158.0,"radiusUndecayedKm":158.0,"inlandDecay":1.0}},{"type":"Feature","geometry":{"type":"Polygon","coordinates":[[[81.48982833555546,15.625],[81.54627730049506,15.106254623456934],[81.70621874485919,14.60744434081866],[81.9632043028633,14.14773815151094],[82.30717398155993,13.744802306582661],[82.72486402839114,13.414121404585398],[83.20031763716624,13.168403327134918],[83.71548065773652,13.017090882147357],[84.25086307486518,12.96599892202659],[84.78624549199384,13.017090882147357],[85.30140851256412,13.168403327134918],[85.77686212133922,13.414121404585398],[86.19455216817043,13.744802306582661],[86.53852184686706,14.14773815151094],[86.79550740487117,14.607444340818661],[86.9554488492353,15.106254623456936],[87.0118978141749,15.625],[86.96230593892516,16.143745376543066],[86.80817832855934,16.64255565918134],[86.55507852467368,17.10226184848906],[86.21247467033035,17.505197693417337],[85.79342190958859,17.835878595414602],[85.31408383508263,18.081596672865082],[84.79310569212649,18.232909117852643],[84.25086307486518,18.28400107797341],[83.70862045760387,18.232909117852643],[83.18764231464773,18.081596672865082],[82.70830424014177,17.835878595414602],[82.28925147940001,17.505197693417337],[81.94664762505667,17.10226184848906],[81.69354782117102,16.64255565918134],[81.5394202108052,16.143745376543066],[81.48982833555546,15.625]]]},"properties":{"kind":"exclusion","issued":"2019-05-01T12:00:00Z","issuedIst":"2019-05-01T17:30:00+05:30","operating":false,"maxLeadH":24,"radiusKm":296.0,"radiusUndecayedKm":296.0,"inlandDecay":1.0}},{"type":"Feature","geometry":{"type":"Polygon","coordinates":[[[83.08808230089899,15.2085],[83.10430177415783,15.052525883404282],[83.15170159552524,14.902545764638043],[83.2284319814235,14.764323295555656],[83.33152583802094,14.643170288127896],[83.45701540050112,14.543742584486827],[83.60008545210172,14.469861135523676],[83.75525717640444,14.424365163888902],[83.91659578790595,14.409003054257996],[84.07793439940745,14.424365163888902],[84.23310612371017,14.469861135523676],[84.37617617531077,14.543742584486827],[84.50166573779096,14.643170288127896],[84.6047595943884,14.764323295555656],[84.68148998028666,14.902545764638045],[84.72888980165406,15.052525883404282],[84.7451092749129,15.2085],[84.7294911674995,15.36447411659572],[84.68260116479773,15.514454235361958],[84.60621143731815,15.652676704444346],[84.50323721453329,15.773829711872105],[84.37762804277729,15.873257415513175],[84.23421734292145,15.947138864476326],[84.07853578978965,15.9926348361111],[83.91659578790595,16.007996945742004],[83.75465578602224,15.9926348361111],[83.59897423289044,15.947138864476326],[83.4555635330346,15.873257415513175],[83.32995436127861,15.773829711872105],[83.22698013849374,15.652676704444346],[83.15059041101416,15.514454235361958],[83.10370040831239,15.36447411659572],[83.08808230089899,15.2085]]]},"properties":{"kind":"exclusion","issued":"2019-05-01T15:00:00Z","issuedIst":"2019-05-01T20:30:00+05:30","operating":false,"maxLeadH":6,"radiusKm":89.0,"radiusUndecayedKm":89.0,"inlandDecay":1.0}},{"type":"Feature","geometry":{"type":"Polygon","coordinates":[[[82.48505678573893,15.542],[82.51433006445197,15.265102130088499],[82.59897406100988,14.998845290031582],[82.73564664538328,14.753461580874083],[82.91903857638323,14.53838096094615],[83.1420851751751,14.361868857853016],[83.39623950238517,14.230708532727423],[83.67179658629635,14.149940403308387],[83.95825704329252,14.122668343514192],[84.24471750028869,14.149940403308387],[84.52027458419987,14.230708532727423],[84.77442891140994,14.361868857853016],[84.99747551020181,14.538380960946151],[85.18086744120176,14.753461580874083],[85.31754002557516,14.998845290031582],[85.40218402213307,15.265102130088499],[85.4314573008461,15.542],[85.40412606162107,15.8188978699115],[85.3211285009829,16.085154709968418],[85.18555611652828,16.33053841912592],[85.0025506314774,16.54561903905385],[84.77911783743158,16.72213114214698],[84.52386341414407,16.853291467272577],[84.24665979047182,16.934059596691615],[83.95825704329252,16.961331656485807],[83.66985429611321,16.934059596691615],[83.39265067244096,16.853291467272577],[83.13739624915345,16.72213114214698],[82.91396345510763,16.54561903905385],[82.73095797005676,16.33053841912592],[82.59538558560214,16.085154709968418],[82.51238802496397,15.8188978699115],[82.48505678573893,15.542]]]},"properties":{"kind":"exclusion","issued":"2019-05-01T15:00:00Z","issuedIst":"2019-05-01T20:30:00+05:30","operating":false,"maxLeadH":12,"radiusKm":158.0,"radiusUndecayedKm":158.0,"inlandDecay":1.0}},{"type":"Feature","geometry":{"type":"Polygon","coordinates":[[[81.27270870953149,16.209],[81.32945715743739,15.690254623456934],[81.48997816838931,15.19144434081866],[81.74778746930686,14.731738151510939],[82.09278453265331,14.328802306582661],[82.5116632626395,13.998121404585397],[82.98842468918886,13.752403327134918],[83.50497372662043,13.601090882147357],[84.04178081919862,13.549998922026589],[84.57858791177681,13.601090882147357],[85.09513694920838,13.752403327134918],[85.57189837575774,13.998121404585397],[85.99077710574393,14.328802306582661],[86.33577416909039,14.731738151510939],[86.59358347000793,15.191444340818661],[86.75410448095985,15.690254623456935],[86.81085292886576,16.209],[86.76125255154801,16.727745376543066],[86.60679208973843,17.226555659181336],[86.35303344604827,17.68626184848906],[86.00946017927937,18.089197693417336],[85.58916091752286,18.419878595414602],[85.10835018607361,18.66559667286508],[84.58573924717227,18.816909117852642],[84.04178081919862,18.86800107797341],[83.49782239122497,18.816909117852642],[82.97521145232363,18.66559667286508],[82.49440072087438,18.419878595414602],[82.07410145911787,18.089197693417336],[81.73052819234897,17.68626184848906],[81.47676954865881,17.22655565918134],[81.32230908684923,16.727745376543066],[81.27270870953149,16.209]]]},"properties":{"kind":"exclusion","issued":"2019-05-01T15:00:00Z","issuedIst":"2019-05-01T20:30:00+05:30","operating":false,"maxLeadH":24,"radiusKm":296.0,"radiusUndecayedKm":296.0,"inlandDecay":1.0}},{"type":"Feature","geometry":{"type":"Polygon","coordinates":[[[83.31596100831001,15.5835],[83.33221753659573,15.427525883404282],[83.3797094629251,15.277545764638043],[83.45658266573575,15.139323295555656],[83.55986403336252,15.018170288127896],[83.68557841361167,14.918742584486827],[83.82890214295882,14.844861135523676],[83.98434719337928,14.799365163888902],[84.14596907532398,14.784003054257996],[84.30759095726867,14.799365163888902],[84.46303600768913,14.844861135523676],[84.60635973703629,14.918742584486827],[84.73207411728544,15.018170288127896],[84.8353554849122,15.139323295555656],[84.91222868772284,15.277545764638045],[84.95972061405222,15.427525883404282],[84.97597714233794,15.5835],[84.96033866889462,15.73947411659572],[84.91337070965032,15.889454235361958],[84.83684761920247,16.027676704444346],[84.733689205509,16.148829711872107],[84.60785189665206,16.248257415513173],[84.46417806543226,16.322138864476326],[84.3082090374366,16.3676348361111],[84.14596907532398,16.382996945742004],[83.98372911321135,16.3676348361111],[83.82776008521569,16.322138864476326],[83.68408625399589,16.248257415513173],[83.55824894513896,16.148829711872107],[83.45509053144548,16.027676704444346],[83.37856744099763,15.889454235361958],[83.33159948175333,15.73947411659572],[83.31596100831001,15.5835]]]},"properties":{"kind":"exclusion","issued":"2019-05-01T18:00:00Z","issuedIst":"2019-05-01T23:30:00+05:30","operating":false,"maxLeadH":6,"radiusKm":89.0,"radiusUndecayedKm":89.0,"inlandDecay":1.0}},{"type":"Feature","geometry":{"type":"Polygon","coordinates":[[[82.81542084451307,16.042],[82.8447994038475,15.7651021300885],[82.92968041570641,15.498845290031584],[83.06670927902024,15.253461580874085],[83.25056084488001,15.038380960946153],[83.47415202682657,14.861868857853018],[83.72891578845294,14.730708532727425],[84.00512601224986,14.649940403308388],[84.29226158786565,14.622668343514196],[84.57939716348145,14.649940403308388],[84.85560738727837,14.730708532727425],[85.11037114890473,14.861868857853018],[85.33396233085129,15.038380960946153],[85.51781389671106,15.253461580874085],[85.65484276002489,15.498845290031584],[85.7397237718838,15.7651021300885],[85.76910233121824,16.042],[85.74173658503699,16.318897869911503],[85.65856201042402,16.585154709968418],[85.52267344231517,16.83053841912592],[85.33922240655019,17.04561903905385],[85.11523095586134,17.222131142146985],[84.85932700728573,17.35329146727258],[84.58141023798711,17.434059596691615],[84.29226158786565,17.461331656485807],[84.00311293774419,17.434059596691615],[83.72519616844558,17.35329146727258],[83.46929221986997,17.222131142146985],[83.24530076918111,17.04561903905385],[83.06184973341614,16.83053841912592],[82.92596116530729,16.585154709968418],[82.84278659069432,16.318897869911503],[82.81542084451307,16.042]]]},"properties":{"kind":"exclusion","issued":"2019-05-01T18:00:00Z","issuedIst":"2019-05-01T23:30:00+05:30","operating":false,"maxLeadH":12,"radiusKm":158.0,"radiusUndecayedKm":158.0,"inlandDecay":1.0}},{"type":"Feature","geometry":{"type":"Polygon","coordinates":[[[81.80596137731055,16.959],[81.86310690815237,16.440254623456934],[82.0244028066271,15.94144434081866],[82.28331724884909,15.481738151510939],[82.62969567725672,15.078802306582661],[83.05017519985401,14.748121404585397],[83.52869993000047,14.502403327134918],[84.04711918286525,14.351090882147357],[84.58584942324025,14.299998922026589],[85.12457966361525,14.351090882147357],[85.64299891648002,14.502403327134918],[86.12152364662649,14.748121404585397],[86.54200316922378,15.078802306582661],[86.88838159763141,15.481738151510939],[87.1472960398534,15.941444340818661],[87.30859193832812,16.440254623456934],[87.36573746916994,16.959],[87.3161197271624,17.477745376543066],[87.16120633189068,17.976555659181336],[86.90655774061715,18.43626184848906],[86.56167876246572,18.839197693417336],[86.13970325966662,19.169878595414602],[85.65691411591537,19.41559667286508],[85.13211092250401,19.566909117852642],[84.58584942324025,19.61800107797341],[84.03958792397648,19.566909117852642],[83.51478473056513,19.41559667286508],[83.03199558681388,19.169878595414602],[82.61002008401478,18.839197693417336],[82.26514110586335,18.43626184848906],[82.01049251458981,17.97655565918134],[81.8555791193181,17.477745376543066],[81.80596137731055,16.959]]]},"properties":{"kind":"exclusion","issued":"2019-05-01T18:00:00Z","issuedIst":"2019-05-01T23:30:00+05:30","operating":false,"maxLeadH":24,"radiusKm":296.0,"radiusUndecayedKm":296.0,"inlandDecay":1.0}},{"type":"Feature","geometry":{"type":"Polygon","coordinates":[[[83.66969557342003,15.875],[83.68598150053485,15.719025883404282],[83.73354667905927,15.569045764638043],[83.81053354706866,15.430823295555655],[83.91396421021375,15.309670288127895],[84.03985763695992,15.210242584486826],[84.18338343425896,15.136361135523675],[84.33904622942022,15.090865163888902],[84.50089379143121,15.075503054257995],[84.6627413534422,15.090865163888902],[84.81840414860346,15.136361135523675],[84.9619299459025,15.210242584486826],[85.08782337264867,15.309670288127895],[85.19125403579376,15.430823295555655],[85.26824090380315,15.569045764638044],[85.31580608232757,15.719025883404282],[85.33209200944239,15.875],[85.31643720983514,16.03097411659572],[85.26940708100132,16.180954235361956],[85.19277773073041,16.319176704444345],[85.08947262220711,16.440329711872106],[84.96345366678811,16.539757415513172],[84.81957036249902,16.613638864476325],[84.66337250689874,16.6591348361111],[84.50089379143121,16.674496945742003],[84.33841507596368,16.6591348361111],[84.1822172203634,16.613638864476325],[84.03833391607431,16.539757415513172],[83.91231496065531,16.440329711872106],[83.80900985213201,16.319176704444345],[83.7323805018611,16.180954235361956],[83.68535037302728,16.03097411659572],[83.66969557342003,15.875]]]},"properties":{"kind":"exclusion","issued":"2019-05-01T21:00:00Z","issuedIst":"2019-05-02T02:30:00+05:30","operating":false,"maxLeadH":6,"radiusKm":89.0,"radiusUndecayedKm":89.0,"inlandDecay":1.0}},{"type":"Feature","geometry":{"type":"Polygon","coordinates":[[[83.27306753049173,16.375],[83.30251783336671,16.0981021300885],[83.38756102356795,15.831845290031582],[83.52483400681677,15.586461580874083],[83.70900076340693,15.371380960946151],[83.93296559477244,15.194868857853017],[84.18814766478556,15.063708532727423],[84.46480631019116,14.982940403308387],[84.75240545598346,14.955668343514194],[85.04000460177576,14.982940403308387],[85.31666324718137,15.063708532727423],[85.57184531719449,15.194868857853017],[85.79581014856,15.371380960946151],[85.97997690515015,15.586461580874083],[86.11724988839897,15.831845290031582],[86.20229307860022,16.0981021300885],[86.2317433814752,16.375],[86.20435349228087,16.6518978699115],[86.12105709467593,16.918154709968416],[85.98495137372012,17.163538419125917],[85.80119461990495,17.37861903905385],[85.57682005436803,17.555131142146983],[85.32047083332111,17.68629146727258],[85.04206528405997,17.767059596691613],[84.75240545598346,17.794331656485806],[84.46274562790695,17.767059596691613],[84.18434007864582,17.68629146727258],[83.9279908575989,17.555131142146983],[83.70361629206198,17.37861903905385],[83.5198595382468,17.163538419125917],[83.383753817291,16.918154709968416],[83.30045741968605,16.6518978699115],[83.27306753049173,16.375]]]},"properties":{"kind":"exclusion","issued":"2019-05-01T21:00:00Z","issuedIst":"2019-05-02T02:30:00+05:30","operating":false,"maxLeadH":12,"radiusKm":158.0,"radiusUndecayedKm":158.0,"inlandDecay":1.0}},{"type":"Feature","geometry":{"type":"Polygon","coordinates":[[[82.47121901414623,17.375],[82.52859097702957,16.856254623456934],[82.69033175983624,16.35744434081866],[82.94988245100309,15.89773815151094],[83.29705754979383,15.494802306582661],[83.71846147141564,15.164121404585398],[84.1980054001155,14.918403327134918],[84.71750632739145,14.767090882147357],[85.25734921019534,14.71599892202659],[85.79719209299924,14.767090882147357],[86.31669302027518,14.918403327134918],[86.79623694897505,15.164121404585398],[87.21764087059685,15.494802306582661],[87.5648159693876,15.89773815151094],[87.82436666055445,16.357444340818663],[87.98610744336112,16.856254623456934],[88.04347940624446,17.375],[87.99384891312744,17.893745376543066],[87.83867180891907,18.39255565918134],[87.58350806679488,18.85226184848906],[87.23787499243284,19.255197693417337],[86.81493263387686,19.585878595414602],[86.33100324212327,19.831596672865082],[85.80493715026016,19.982909117852643],[85.25734921019534,20.03400107797341],[84.70976127013053,19.982909117852643],[84.18369517826741,19.831596672865082],[83.69976578651382,19.585878595414602],[83.27682342795785,19.255197693417337],[82.93119035359581,18.85226184848906],[82.67602661147161,18.39255565918134],[82.52084950726325,17.893745376543066],[82.47121901414623,17.375]]]},"properties":{"kind":"exclusion","issued":"2019-05-01T21:00:00Z","issuedIst":"2019-05-02T02:30:00+05:30","operating":false,"maxLeadH":24,"radiusKm":296.0,"radiusUndecayedKm":296.0,"inlandDecay":1.0}},{"type":"Feature","geometry":{"type":"Polygon","coordinates":[[[83.91799926863374,16.3125],[83.93433030573698,16.15652588340428],[83.9820081686876,16.006545764638044],[84.05917001874252,15.868323295555655],[84.16283060971482,15.747170288127895],[84.28899985931949,15.647742584486826],[84.43283700367758,15.573861135523675],[84.5888353420159,15.528365163888902],[84.75103069658658,15.513003054257995],[84.91322605115727,15.528365163888902],[85.06922438949559,15.573861135523675],[85.21306153385368,15.647742584486826],[85.33923078345835,15.747170288127895],[85.44289137443064,15.868323295555655],[85.52005322448557,16.006545764638044],[85.56773108743619,16.15652588340428],[85.58406212453943,16.3125],[85.5683820040102,16.46847411659572],[85.5212559673173,16.618454235361956],[85.444462845074,16.756676704444345],[85.34093174558505,16.877829711872106],[85.21463303139936,16.977257415513172],[85.07042717037298,17.051138864476325],[84.91387699463361,17.0966348361111],[84.75103069658658,17.111996945742003],[84.58818439853955,17.0966348361111],[84.43163422280018,17.051138864476325],[84.2874283617738,16.977257415513172],[84.16112964758811,16.877829711872106],[84.05759854809916,16.756676704444345],[83.98080542585586,16.618454235361956],[83.93367938916296,16.46847411659572],[83.91799926863374,16.3125]]]},"properties":{"kind":"exclusion","issued":"2019-05-02T00:00:00Z","issuedIst":"2019-05-02T05:30:00+05:30","operating":false,"maxLeadH":6,"radiusKm":89.0,"radiusUndecayedKm":89.0,"inlandDecay":1.0}},{"type":"Feature","geometry":{"type":"Polygon","coordinates":[[[83.51957894265234,16.875],[83.54913944628693,16.5981021300885],[83.63443272037506,16.33184529003158],[83.77208263237021,16.086461580874083],[83.95673642005366,15.871380960946151],[84.18127891238306,15.694868857853017],[84.43710792330057,15.563708532727423],[84.71446024780208,15.482940403308387],[85.00277659196013,15.455668343514194],[85.29109293611818,15.482940403308387],[85.56844526061968,15.563708532727423],[85.82427427153719,15.694868857853017],[86.0488167638666,15.871380960946151],[86.23347055155004,16.086461580874083],[86.3711204635452,16.331845290031584],[86.45641373763333,16.5981021300885],[86.48597424126791,16.875],[86.45854634815782,17.1518978699115],[86.37506107460679,17.418154709968416],[86.23861932658755,17.663538419125917],[86.05438990919475,17.87861903905385],[85.82942332630626,18.055131142146983],[85.57238626728142,18.18629146727258],[85.29322582637421,18.267059596691613],[85.00277659196013,18.294331656485806],[84.71232735754604,18.267059596691613],[84.43316691663884,18.18629146727258],[84.176129857614,18.055131142146983],[83.9511632747255,17.87861903905385],[83.76693385733269,17.663538419125917],[83.63049210931347,17.418154709968416],[83.54700683576243,17.1518978699115],[83.51957894265234,16.875]]]},"properties":{"kind":"exclusion","issued":"2019-05-02T00:00:00Z","issuedIst":"2019-05-02T05:30:00+05:30","operating":false,"maxLeadH":12,"radiusKm":158.0,"radiusUndecayedKm":158.0,"inlandDecay":1.0}},{"type":"Feature","geometry":{"type":"Polygon","coordinates":[[[82.71266012649721,18.0],[82.77038077041178,17.481254623456934],[82.9328105408809,16.98244434081866],[83.19334885050623,16.52273815151094],[83.54176237692631,16.119802306582663],[83.96460479571058,15.789121404585398],[84.44573596954751,15.543403327134918],[84.96692231101896,15.392090882147357],[85.50849931419509,15.34099892202659],[86.05007631737124,15.392090882147357],[86.57126265884267,15.543403327134918],[87.0523938326796,15.789121404585398],[87.47523625146387,16.119802306582663],[87.82364977788396,16.52273815151094],[88.08418808750929,16.982444340818663],[88.2466178579784,17.481254623456934],[88.30433850189297,18.0],[88.25468467356127,18.518745376543066],[88.09909443589673,19.01755565918134],[87.84312745791331,19.47726184848906],[87.49632078005087,19.880197693417337],[87.07187528175898,20.210878595414602],[86.58617433747185,20.456596672865082],[86.05814690200421,20.607909117852643],[85.50849931419509,20.65900107797341],[84.95885172638597,20.607909117852643],[84.43082429091832,20.456596672865082],[83.9451233466312,20.210878595414602],[83.52067784833932,19.880197693417337],[83.17387117047687,19.47726184848906],[82.91790419249345,19.01755565918134],[82.76231395482891,18.518745376543066],[82.71266012649721,18.0]]]},"properties":{"kind":"exclusion","issued":"2019-05-02T00:00:00Z","issuedIst":"2019-05-02T05:30:00+05:30","operating":false,"maxLeadH":24,"radiusKm":296.0,"radiusUndecayedKm":296.0,"inlandDecay":1.0}},{"type":"Feature","geometry":{"type":"Polygon","coordinates":[[[84.16620132797026,16.9375],[84.18259888898459,16.78152588340428],[84.23044350745025,16.631545764638044],[84.4521368221023,16.181246239244505],[84.46943950722807,16.150185010237227],[84.49271580265813,16.12295961530964],[84.52107085324401,16.100616311120636],[84.5534153662276,16.08401373831993],[84.58850741390613,16.073789924469416],[84.625,16.070337765001796],[84.66149258609387,16.073789924469416],[85.16466177247041,16.1533651638889],[85.32115784753154,16.198861135523675],[85.46545675921153,16.272742584486824],[85.59203498270195,16.372170288127894],[85.69603636891213,16.493323295555655],[85.77345742865725,16.631545764638044],[85.82130204712291,16.78152588340428],[85.83769960813724,16.9375],[85.82198159870036,17.09347411659572],[85.77471308237969,17.243454235361956],[85.69767697155928,17.381676704444345],[85.59381077352819,17.502829711872106],[85.46709739016134,17.602257415513172],[85.32241354128,17.676138864476325],[85.16534135235052,17.7216348361111],[85.00195046805375,17.736996945742003],[84.83855958375698,17.7216348361111],[84.6814873948275,17.676138864476325],[84.53680354594616,17.602257415513172],[84.41009016257931,17.502829711872106],[84.30622396454822,17.381676704444345],[84.22918785372781,17.243454235361956],[84.18191933740714,17.09347411659572],[84.16620132797026,16.9375]]]},"properties":{"kind":"exclusion","issued":"2019-05-02T03:00:00Z","issuedIst":"2019-05-02T08:30:00+05:30","operating":false,"maxLeadH":6,"radiusKm":89.0,"radiusUndecayedKm":89.0,"inlandDecay":1.0}},{"type":"Feature","geometry":{"type":"Polygon","coordinates":[[[83.89102627722941,17.625],[83.92075775706664,17.3481021300885],[84.00644116653224,17.08184529003158],[84.4521368221023,16.181246239244505],[84.46943950722807,16.150185010237227],[84.49271580265813,16.12295961530964],[84.52107085324401,16.100616311120636],[84.5534153662276,16.08401373831993],[84.58850741390613,16.073789924469416],[84.625,16.070337765001796],[84.66149258609387,16.073789924469416],[85.66970515095053,16.232940403308387],[85.94814443187646,16.31370853272742],[86.20498682549638,16.444868857853017],[86.43043371713046,16.62138096094615],[86.61584946083848,16.836461580874083],[86.75408845532287,17.081845290031584],[86.83977186478847,17.3481021300885],[86.8695033446257,17.625],[86.84201447291794,17.9018978699115],[86.75823231919775,18.168154709968416],[86.62126380579087,18.413538419125917],[86.43629432260506,18.62861903905385],[86.21040146744245,18.805131142146983],[85.95228871576381,18.93629146727258],[85.67194805607367,19.017059596691613],[85.38026481092756,19.044331656485806],[85.08858156578144,19.017059596691613],[84.8082409060913,18.93629146727258],[84.55012815441266,18.805131142146983],[84.32423529925005,18.62861903905385],[84.13926581606424,18.413538419125917],[84.00229730265737,18.168154709968416],[83.91851514893717,17.9018978699115],[83.89102627722941,17.625]]]},"properties":{"kind":"exclusion","issued":"2019-05-02T03:00:00Z","issuedIst":"2019-05-02T08:30:00+05:30","operating":false,"maxLeadH":12,"radiusKm":158.0,"radiusUndecayedKm":158.0,"inlandDecay":1.0}},{"type":"Feature","geometry":{"type":"Polygon","coordinates":[[[83.32896452257293,19.0],[83.38726483789328,18.481254623456934],[83.5508495099641,17.98244434081866],[84.4521368221023,16.181246239244505],[84.46943950722807,16.150185010237227],[84.49271580265813,16.12295961530964],[84.52107085324401,16.100616311120636],[84.5534153662276,16.08401373831993],[84.58850741390613,16.073789924469416],[84.625,16.070337765001796],[84.66149258609387,16.073789924469416],[86.68568931468758,16.392090882147357],[87.20972547111765,16.543403327134918],[87.69353849785793,16.789121404585398],[88.1188087733826,17.119802306582663],[88.46930935215684,17.52273815151094],[88.73150859790643,17.982444340818663],[88.89509326997724,18.481254623456934],[88.95339358529759,19.0],[88.90369200009053,19.518745376543066],[88.74739786209095,20.01755565918134],[88.49007140244592,20.47726184848906],[88.14128365890147,20.880197693417337],[87.71430462133043,21.210878595414602],[87.22562049565347,21.456596672865082],[86.6942921179844,21.607909117852643],[86.14117905393526,21.65900107797341],[85.58806598988612,21.607909117852643],[85.05673761221705,21.456596672865082],[84.5680534865401,21.210878595414602],[84.14107444896905,20.880197693417337],[83.7922867054246,20.47726184848906],[83.53496024577957,20.01755565918134],[83.37866610777999,19.518745376543066],[83.32896452257293,19.0]]]},"properties":{"kind":"exclusion","issued":"2019-05-02T03:00:00Z","issuedIst":"2019-05-02T08:30:00+05:30","operating":false,"maxLeadH":24,"radiusKm":296.0,"radiusUndecayedKm":296.0,"inlandDecay":1.0}},{"type":"Feature","geometry":{"type":"Polygon","coordinates":[[[84.10159400286302,17.375],[84.11803960901743,17.21902588340428],[84.16600505372413,17.069045764638044],[84.45180344748611,16.556246239244505],[84.46913980208714,16.525185010237227],[84.49246116587884,16.49795961530964],[84.52087094207864,16.475616311120636],[84.55327774467948,16.45901373831993],[84.5884372800522,16.448789924469416],[84.625,16.445337765001796],[84.6615627199478,16.448789924469416],[84.69672225532052,16.45901373831993],[85.25925910341714,16.636361135523675],[85.40389328662386,16.710242584486824],[85.53076837875786,16.809670288127894],[85.63501705746714,16.930823295555655],[85.71262611043686,17.069045764638044],[85.76059155514356,17.21902588340428],[85.77703716129797,17.375],[85.76129141724174,17.53097411659572],[85.71391929332671,17.680954235361956],[85.63670669476198,17.819176704444345],[85.53259724485008,17.940329711872106],[85.40558295322982,18.039757415513172],[85.26055232775919,18.113638864476325],[85.10310147612917,18.1591348361111],[84.9393155820805,18.174496945742003],[84.77552968803182,18.1591348361111],[84.6180788364018,18.113638864476325],[84.47304821093117,18.039757415513172],[84.34603391931091,17.940329711872106],[84.24192446939901,17.819176704444345],[84.16471187083428,17.680954235361956],[84.11733974691926,17.53097411659572],[84.10159400286302,17.375]]]},"properties":{"kind":"exclusion","issued":"2019-05-02T06:00:00Z","issuedIst":"2019-05-02T11:30:00+05:30","operating":false,"maxLeadH":6,"radiusKm":89.0,"radiusUndecayedKm":89.0,"inlandDecay":1.0}},{"type":"Feature","geometry":{"type":"Polygon","coordinates":[[[83.7614692705854,18.125],[83.79131859283234,17.8481021300885],[83.87727226358746,17.58184529003158],[84.46913980208714,16.525185010237227],[84.49246116587884,16.49795961530964],[84.52087094207864,16.475616311120636],[84.55327774467948,16.45901373831993],[84.5884372800522,16.448789924469416],[84.625,16.445337765001796],[84.6615627199478,16.448789924469416],[84.69672225532052,16.45901373831993],[85.8243226741412,16.81370853272742],[86.0818697200527,16.944868857853017],[86.30794518915175,17.12138096094615],[86.49389015859477,17.336461580874083],[86.63253791325263,17.581845290031584],[86.71849158400775,17.8481021300885],[86.7483409062547,18.125],[86.72080871287051,18.4018978699115],[86.63681947606953,18.668154709968416],[86.49948442093333,18.913538419125917],[86.31400054224756,19.12861903905385],[86.08746429129535,19.305131142146983],[85.82860467381447,19.43629146727258],[85.54744478928099,19.517059596691613],[85.25490508842005,19.544331656485806],[84.9623653875591,19.517059596691613],[84.68120550302562,19.43629146727258],[84.42234588554474,19.305131142146983],[84.19580963459254,19.12861903905385],[84.01032575590676,18.913538419125917],[83.87299070077056,18.668154709968416],[83.78900146396958,18.4018978699115],[83.7614692705854,18.125]]]},"properties":{"kind":"exclusion","issued":"2019-05-02T06:00:00Z","issuedIst":"2019-05-02T11:30:00+05:30","operating":false,"maxLeadH":12,"radiusKm":158.0,"radiusUndecayedKm":158.0,"inlandDecay":1.0}},{"type":"Feature","geometry":{"type":"Polygon","coordinates":[[[83.0671146090279,19.625],[83.12579125083484,19.106254623456934],[83.29013135185629,18.60744434081866],[84.46913980208714,16.525185010237227],[84.49246116587884,16.49795961530964],[84.52087094207864,16.475616311120636],[84.55327774467948,16.45901373831993],[84.5884372800522,16.448789924469416],[84.625,16.445337765001796],[84.6615627199478,16.448789924469416],[84.69672225532052,16.45901373831993],[86.9624595744351,17.168403327134918],[87.4480394174443,17.414121404585398],[87.87490760651339,17.744802306582663],[88.22677995189244,18.14773815151094],[88.49006886086643,18.607444340818663],[88.65440896188788,19.106254623456934],[88.71308560369482,19.625],[88.66334766483293,20.143745376543066],[88.50658635610714,20.64255565918134],[88.24836291004809,21.10226184848906],[87.89827114412743,21.505197693417337],[87.46962664803382,21.835878595414602],[86.97898311180982,22.081596672865082],[86.44548769166754,22.232909117852643],[85.89010010636136,22.28400107797341],[85.33471252105518,22.232909117852643],[84.8012171009129,22.081596672865082],[84.3105735646889,21.835878595414602],[83.88192906859528,21.505197693417337],[83.53183730267463,21.10226184848906],[83.27361385661558,20.64255565918134],[83.11685254788979,20.143745376543066],[83.0671146090279,19.625]]]},"properties":{"kind":"exclusion","issued":"2019-05-02T06:00:00Z","issuedIst":"2019-05-02T11:30:00+05:30","operating":false,"maxLeadH":24,"radiusKm":296.0,"radiusUndecayedKm":296.0,"inlandDecay":1.0}},{"type":"Feature","geometry":{"type":"Polygon","coordinates":[[[84.16110595659131,18.0],[84.17762234685915,17.84402588340428],[84.22576634259076,17.694045764638044],[84.57634534387306,17.056246239244505],[84.59372795649756,17.025185010237227],[84.61711124544951,16.99795961530964],[84.64559622115122,16.975616311120636],[84.678088620965,16.95901373831993],[84.713340899314,16.948789924469416],[84.75,16.945337765001796],[84.786659100686,16.948789924469416],[84.821911379035,16.95901373831993],[84.85440377884878,16.975616311120636],[85.46791099836946,17.335242584486824],[85.59522552758936,17.434670288127894],[85.69984014051192,17.555823295555655],[85.77772724427504,17.694045764638044],[85.82587124000665,17.84402588340428],[85.84238763027449,18.0],[85.82660051465903,18.15597411659572],[85.77907477480007,18.305954235361956],[85.70160078704282,18.444176704444345],[85.59713125432758,18.565329711872106],[85.46967167569474,18.664757415513172],[85.32412799571986,18.738638864476325],[85.16611698822284,18.7841348361111],[85.0017467934329,18.799496945742003],[84.83737659864296,18.7841348361111],[84.67936559114594,18.738638864476325],[84.53382191117106,18.664757415513172],[84.40636233253822,18.565329711872106],[84.30189279982298,18.444176704444345],[84.22441881206574,18.305954235361956],[84.17689307220677,18.15597411659572],[84.16110595659131,18.0]]]},"properties":{"kind":"exclusion","issued":"2019-05-02T09:00:00Z","issuedIst":"2019-05-02T14:30:00+05:30","operating":false,"maxLeadH":6,"radiusKm":89.0,"radiusUndecayedKm":89.0,"inlandDecay":1.0}},{"type":"Feature","geometry":{"type":"Polygon","coordinates":[[[83.7547367965965,18.875],[83.78476880405964,18.5981021300885],[83.87114341931893,18.33184529003158],[84.57634534387306,17.056246239244505],[84.59372795649756,17.025185010237227],[84.61711124544951,16.99795961530964],[84.64559622115122,16.975616311120636],[84.678088620965,16.95901373831993],[84.713340899314,16.948789924469416],[84.75,16.945337765001796],[84.786659100686,16.948789924469416],[84.821911379035,16.95901373831993],[84.85440377884878,16.975616311120636],[86.08519860884876,17.694868857853017],[86.31225608253112,17.87138096094615],[86.49902734126705,18.086461580874083],[86.63831273595335,18.331845290031584],[86.72468735121262,18.5981021300885],[86.75471935867576,18.875],[86.72711814067306,19.1518978699115],[86.64280432018182,19.418154709968416],[86.50489601764896,19.663538419125917],[86.31860846926402,19.87861903905385],[86.09106761264414,20.055131142146983],[85.83104228577447,20.18629146727258],[85.54860406083101,20.267059596691613],[85.25472807763613,20.294331656485806],[84.96085209444125,20.267059596691613],[84.67841386949779,20.18629146727258],[84.41838854262812,20.055131142146983],[84.19084768600824,19.87861903905385],[84.0045601376233,19.663538419125917],[83.86665183509044,19.418154709968416],[83.7823380145992,19.1518978699115],[83.7547367965965,18.875]]]},"properties":{"kind":"exclusion","issued":"2019-05-02T09:00:00Z","issuedIst":"2019-05-02T14:30:00+05:30","operating":false,"maxLeadH":12,"radiusKm":158.0,"radiusUndecayedKm":158.0,"inlandDecay":1.0}},{"type":"Feature","geometry":{"type":"Polygon","coordinates":[[[83.34238200432648,19.75],[83.38664551879788,19.352178376772716],[83.51214174369674,18.96964481542512],[84.57634534387306,17.056246239244505],[84.59372795649756,17.025185010237227],[84.61711124544951,16.99795961530964],[84.64559622115122,16.975616311120636],[84.678088620965,16.95901373831993],[84.713340899314,16.948789924469416],[84.75,16.945337765001796],[84.786659100686,16.948789924469416],[84.821911379035,16.95901373831993],[84.85440377884878,16.975616311120636],[86.70647420472439,18.05449513121921],[87.03425586400637,18.308091633764406],[87.30418776280256,18.61709986619251],[87.50585289169324,18.969644815425124],[87.6313491165921,19.352178376772716],[87.6756126310635,19.75],[87.63664654827144,20.147821623227284],[87.5505909949532,20.544411548579276],[87.4564659588783,20.939634975457544],[87.35990741642989,21.24217870525758],[87.20168148978969,21.521004603532376],[86.98774661922639,21.76539754737859],[86.72627619962581,21.965965653021357],[86.42735337415667,22.11500120064072],[86.1025790841816,22.206776837721755],[85.76460881560818,22.237765677999818],[85.42663854703477,22.206776837721755],[85.1018642570597,22.11500120064072],[84.80294143159055,21.965965653021357],[84.54147101198998,21.76539754737859],[84.25249785629899,21.481129400351982],[83.96989396660099,21.191908366235594],[83.70101668660014,20.88290013380749],[83.50235304300672,20.530355184574876],[83.38134808711854,20.147821623227284],[83.34238200432648,19.75]]]},"properties":{"kind":"exclusion","issued":"2019-05-02T09:00:00Z","issuedIst":"2019-05-02T14:30:00+05:30","operating":false,"maxLeadH":24,"radiusKm":181.0,"radiusUndecayedKm":296.0,"inlandDecay":0.61}},{"type":"Feature","geometry":{"type":"Polygon","coordinates":[[[84.03259294477127,18.5625],[84.04917523811723,18.40652588340428],[84.09748599658327,18.256545764638044],[84.17563302960504,18.118323295555655],[84.59330196383881,17.525185010237227],[84.61674929803603,17.49795961530964],[84.64531205332999,17.475616311120636],[84.67789299147067,17.45901373831993],[84.71324120238278,17.448789924469416],[84.75,17.445337765001796],[84.78675879761722,17.448789924469416],[84.82210700852933,17.45901373831993],[84.85468794667001,17.475616311120636],[84.88325070196397,17.49795961530964],[85.47133939267671,17.997170288127894],[85.57629626181672,18.118323295555655],[85.65444329483849,18.256545764638044],[85.70275405330453,18.40652588340428],[85.7193363466505,18.5625],[85.70351021659869,18.71847411659572],[85.65584050939424,18.868454235361956],[85.57812182424709,19.006676704444345],[85.47331538462505,19.127829711872106],[85.34543931778718,19.227257415513172],[85.19941587021438,19.301138864476325],[85.04088112120874,19.3466348361111],[84.87596464571088,19.361996945742003],[84.71104817021302,19.3466348361111],[84.55251342120738,19.301138864476325],[84.40648997363458,19.227257415513172],[84.2786139067967,19.127829711872106],[84.17380746717467,19.006676704444345],[84.09608878202752,18.868454235361956],[84.04841907482307,18.71847411659572],[84.03259294477127,18.5625]]]},"properties":{"kind":"exclusion","issued":"2019-05-02T12:00:00Z","issuedIst":"2019-05-02T17:30:00+05:30","operating":true,"maxLeadH":6,"radiusKm":89.0,"radiusUndecayedKm":89.0,"inlandDecay":1.0}},{"type":"Feature","geometry":{"type":"Polygon","coordinates":[[[83.49691684310848,19.5],[83.52710663715648,19.2231021300885],[83.61384656326098,18.95684529003158],[83.75368618221388,18.711461580874083],[84.59330196383881,17.525185010237227],[84.61674929803603,17.49795961530964],[84.64531205332999,17.475616311120636],[84.67789299147067,17.45901373831993],[84.71324120238278,17.448789924469416],[84.75,17.445337765001796],[84.78675879761722,17.448789924469416],[84.82210700852933,17.45901373831993],[84.85468794667001,17.475616311120636],[84.88325070196397,17.49795961530964],[86.06404969475822,18.49638096094615],[86.25153978812865,18.711461580874083],[86.39137940708156,18.956845290031584],[86.47811933318606,19.2231021300885],[86.50830912723406,19.5],[86.48064664830555,19.7768978699115],[86.39604935095063,20.043154709968416],[86.25764150941467,20.288538419125917],[86.07065433616428,20.50361903905385],[85.84223946430436,20.680131142146983],[85.58120035899398,20.81129146727258],[85.29765067278284,20.892059596691613],[85.00261298517127,20.919331656485806],[84.7075752975597,20.892059596691613],[84.42402561134855,20.81129146727258],[84.16298650603818,20.680131142146983],[83.93457163417825,20.50361903905385],[83.74758446092787,20.288538419125917],[83.6091766193919,20.043154709968416],[83.52457932203698,19.7768978699115],[83.49691684310848,19.5]]]},"properties":{"kind":"exclusion","issued":"2019-05-02T12:00:00Z","issuedIst":"2019-05-02T17:30:00+05:30","operating":true,"maxLeadH":12,"radiusKm":158.0,"radiusUndecayedKm":158.0,"inlandDecay":1.0}},{"type":"Feature","geometry":{"type":"Polygon","coordinates":[[[83.49691684310848,19.5],[83.52710663715648,19.2231021300885],[83.61384656326098,18.95684529003158],[83.75368618221388,18.711461580874083],[84.59330196383881,17.525185010237227],[84.61674929803603,17.49795961530964],[84.64531205332999,17.475616311120636],[84.67789299147067,17.45901373831993],[84.71324120238278,17.448789924469416],[84.75,17.445337765001796],[84.78675879761722,17.448789924469416],[84.82210700852933,17.45901373831993],[84.85468794667001,17.475616311120636],[84.88325070196397,17.49795961530964],[86.06404969475822,18.49638096094615],[86.25153978812865,18.711461580874083],[86.39137940708156,18.956845290031584],[86.47811933318606,19.2231021300885],[86.50830912723406,19.5],[86.49909028545889,19.96875],[86.4727332339702,20.231486034805013],[86.42553383578803,20.678791011583996],[86.35978376809376,21.122727797018847],[86.28902186309666,21.565835759232932],[86.22981960542388,21.74933780726047],[86.13313437528446,21.918454263286048],[86.00263627543558,22.066686076746205],[85.84332314806365,22.18833678217903],[85.66133147644535,22.27873141119723],[85.46369860040187,22.33439614890154],[85.2580856154977,22.353191830639123],[85.05247263059354,22.33439614890154],[84.85483975455006,22.27873141119723],[84.67284808293176,22.18833678217903],[84.51353495555983,22.066686076746205],[84.38303685571096,21.918454263286048],[84.28635162557153,21.74933780726047],[84.09496185755563,21.330886473700406],[83.90865747437142,20.910809344910376],[83.74020789692443,20.484125271136534],[83.65967323179619,20.231486034805013],[83.52457932203698,19.7768978699115],[83.49691684310848,19.5]]]},"properties":{"kind":"exclusion","issued":"2019-05-02T12:00:00Z","issuedIst":"2019-05-02T17:30:00+05:30","operating":true,"maxLeadH":24,"radiusKm":110.0,"radiusUndecayedKm":296.0,"inlandDecay":0.37}},{"type":"Feature","geometry":{"type":"Polygon","coordinates":[[[83.9689329836131,18.6875],[83.98553020871121,18.53152588340428],[84.03387881573202,18.381545764638044],[84.11208487155614,18.243323295555655],[84.21711947881012,18.122170288127894],[84.61656376635611,17.74795961530964],[84.64516638926898,17.725616311120636],[84.67779271119784,17.70901373831993],[84.71319009716773,17.698789924469416],[84.75,17.695337765001796],[84.78680990283227,17.698789924469416],[84.82220728880216,17.70901373831993],[84.85483361073102,17.725616311120636],[85.280911488486,18.022742584486824],[85.40873055894424,18.122170288127894],[85.51376516619823,18.243323295555655],[85.59197122202234,18.381545764638044],[85.64031982904315,18.53152588340428],[85.65691705414126,18.6875],[85.64108202314559,18.84347411659572],[85.59337958012658,18.993454235361956],[85.51560528850891,19.131676704444345],[85.41072231056273,19.252829711872106],[85.28275164328389,19.352257415513172],[85.13661923506538,19.426138864476325],[84.9779655472576,19.4716348361111],[84.81292501887718,19.486996945742003],[84.64788449049676,19.4716348361111],[84.48923080268898,19.426138864476325],[84.34309839447047,19.352257415513172],[84.21512772719163,19.252829711872106],[84.11024474924545,19.131676704444345],[84.03247045762778,18.993454235361956],[83.98476801460878,18.84347411659572],[83.9689329836131,18.6875]]]},"properties":{"kind":"exclusion","issued":"2019-05-02T15:00:00Z","issuedIst":"2019-05-02T20:30:00+05:30","operating":false,"maxLeadH":6,"radiusKm":89.0,"radiusUndecayedKm":89.0,"inlandDecay":1.0}},{"type":"Feature","geometry":{"type":"Polygon","coordinates":[[[83.3704525488004,19.5],[83.4006423428484,19.2231021300885],[83.4873822689529,18.95684529003158],[83.6272218879058,18.711461580874083],[83.81471198127623,18.49638096094615],[84.61656376635611,17.74795961530964],[84.64516638926898,17.725616311120636],[84.67779271119784,17.70901373831993],[84.71319009716773,17.698789924469416],[84.75,17.695337765001796],[84.78680990283227,17.698789924469416],[84.82220728880216,17.70901373831993],[84.85483361073102,17.725616311120636],[85.70967310524553,18.319868857853017],[85.93758540045015,18.49638096094615],[86.12507549382057,18.711461580874083],[86.26491511277348,18.956845290031584],[86.35165503887798,19.2231021300885],[86.38184483292598,19.5],[86.35418235399747,19.7768978699115],[86.26958505664255,20.043154709968416],[86.13117721510659,20.288538419125917],[85.9441900418562,20.50361903905385],[85.71577516999628,20.680131142146983],[85.4547360646859,20.81129146727258],[85.17118637847476,20.892059596691613],[84.87614869086319,20.919331656485806],[84.58111100325162,20.892059596691613],[84.29756131704048,20.81129146727258],[84.0365222117301,20.680131142146983],[83.80810733987018,20.50361903905385],[83.62112016661979,20.288538419125917],[83.48271232508382,20.043154709968416],[83.3981150277289,19.7768978699115],[83.3704525488004,19.5]]]},"properties":{"kind":"exclusion","issued":"2019-05-02T15:00:00Z","issuedIst":"2019-05-02T20:30:00+05:30","operating":false,"maxLeadH":12,"radiusKm":158.0,"radiusUndecayedKm":158.0,"inlandDecay":1.0}},{"type":"Feature","geometry":{"type":"Polygon","coordinates":[[[83.3704525488004,19.5],[83.4006423428484,19.2231021300885],[83.4873822689529,18.95684529003158],[83.6272218879058,18.711461580874083],[83.81471198127623,18.49638096094615],[84.61656376635611,17.74795961530964],[84.64516638926898,17.725616311120636],[84.67779271119784,17.70901373831993],[84.71319009716773,17.698789924469416],[84.75,17.695337765001796],[84.78680990283227,17.698789924469416],[84.82220728880216,17.70901373831993],[84.85483361073102,17.725616311120636],[85.70967310524553,18.319868857853017],[85.93758540045015,18.49638096094615],[86.12507549382057,18.711461580874083],[86.26491511277348,18.956845290031584],[86.35165503887798,19.2231021300885],[86.38184483292598,19.5],[86.35418235399747,19.7768978699115],[86.31384575688989,20.168986034805013],[86.23418434181863,20.553791011583996],[86.13596043360738,20.935227797018847],[86.03271874596994,21.315835759232932],[85.9736095343983,21.49933780726047],[85.87708331094278,21.668454263286048],[85.74680471256431,21.816686076746205],[85.5877633815739,21.93833678217903],[85.40608514376014,22.02873141119723],[85.20879466421059,22.08439614890154],[85.00353892971125,22.103191830639123],[84.79828319521192,22.08439614890154],[84.60099271566237,22.02873141119723],[84.41931447784862,21.93833678217903],[84.2602731468582,21.816686076746205],[84.12999454847971,21.668454263286048],[84.0334683250242,21.49933780726047],[83.87397753182074,21.143386473700406],[83.7193658078456,20.785809344910376],[83.58241277256512,20.421625271136534],[83.50190657930932,20.168986034805013],[83.3981150277289,19.7768978699115],[83.3704525488004,19.5]]]},"properties":{"kind":"exclusion","issued":"2019-05-02T15:00:00Z","issuedIst":"2019-05-02T20:30:00+05:30","operating":false,"maxLeadH":24,"radiusKm":110.0,"radiusUndecayedKm":296.0,"inlandDecay":0.37}},{"type":"Feature","geometry":{"type":"Polygon","coordinates":[[[84.15586527521285,18.875],[84.1724850951956,18.71902588340428],[84.22089101831048,18.569045764638044],[84.29918647491185,18.430823295555655],[84.40433884473862,18.309670288127894],[84.7413751697343,17.99795961530964],[84.77001831780093,17.975616311120636],[84.8026907730334,17.95901373831993],[84.83813814687959,17.948789924469416],[84.875,17.945337765001796],[84.91186185312041,17.948789924469416],[84.9473092269666,17.95901373831993],[85.323434165109,18.136361135523675],[85.46929472942914,18.210242584486824],[85.59725530078236,18.309670288127894],[85.70240767060913,18.430823295555655],[85.7807031272105,18.569045764638044],[85.82910905032539,18.71902588340428],[85.84572887030814,18.875],[85.82988032938259,19.03097411659572],[85.78212827222485,19.180954235361956],[85.70426972627553,19.319176704444345],[85.59927079315018,19.440329711872106],[85.4711568180561,19.539757415513172],[85.32485935673667,19.613638864476325],[85.16602550682329,19.6591348361111],[85.00079707276049,19.674496945742003],[84.8355686386977,19.6591348361111],[84.67673478878432,19.613638864476325],[84.53043732746488,19.539757415513172],[84.4023233523708,19.440329711872106],[84.29732441924546,19.319176704444345],[84.21946587329613,19.180954235361956],[84.17171381613839,19.03097411659572],[84.15586527521285,18.875]]]},"properties":{"kind":"exclusion","issued":"2019-05-02T18:00:00Z","issuedIst":"2019-05-02T23:30:00+05:30","operating":false,"maxLeadH":6,"radiusKm":89.0,"radiusUndecayedKm":89.0,"inlandDecay":1.0}},{"type":"Feature","geometry":{"type":"Polygon","coordinates":[[[83.62028785435658,19.625],[83.65050982197279,19.3481021300885],[83.73732441886233,19.08184529003158],[83.87727741243087,18.836461580874083],[84.06491462043299,18.62138096094615],[84.7413751697343,17.99795961530964],[84.77001831780093,17.975616311120636],[84.8026907730334,17.95901373831993],[84.83813814687959,17.948789924469416],[84.875,17.945337765001796],[84.91186185312041,17.948789924469416],[84.9473092269666,17.95901373831993],[85.70149769381581,18.31370853272742],[85.9613015542165,18.444868857853017],[86.18938884894696,18.62138096094615],[86.37702605694908,18.836461580874083],[86.51697905051762,19.081845290031584],[86.60379364740716,19.3481021300885],[86.63401561502337,19.625],[86.6063404726398,19.9018978699115],[86.5216850450865,20.168154709968416],[86.38317488213536,20.413538419125917],[86.1960444770234,20.62861903905385],[85.9674507261495,20.805131142146983],[85.70620417875857,20.93629146727258],[85.4224270902366,21.017059596691613],[85.12715173468997,21.044331656485806],[84.83187637914335,21.017059596691613],[84.54809929062138,20.93629146727258],[84.28685274323045,20.805131142146983],[84.05825899235654,20.62861903905385],[83.87112858724458,20.413538419125917],[83.73261842429345,20.168154709968416],[83.64796299674015,19.9018978699115],[83.62028785435658,19.625]]]},"properties":{"kind":"exclusion","issued":"2019-05-02T18:00:00Z","issuedIst":"2019-05-02T23:30:00+05:30","operating":false,"maxLeadH":12,"radiusKm":158.0,"radiusUndecayedKm":158.0,"inlandDecay":1.0}},{"type":"Feature","geometry":{"type":"Polygon","coordinates":[[[83.62028785435658,19.625],[83.65050982197279,19.3481021300885],[83.73732441886233,19.08184529003158],[83.87727741243087,18.836461580874083],[84.06491462043299,18.62138096094615],[84.7413751697343,17.99795961530964],[84.77001831780093,17.975616311120636],[84.8026907730334,17.95901373831993],[84.83813814687959,17.948789924469416],[84.875,17.945337765001796],[84.91186185312041,17.948789924469416],[84.9473092269666,17.95901373831993],[85.70149769381581,18.31370853272742],[85.9613015542165,18.444868857853017],[86.18938884894696,18.62138096094615],[86.37702605694908,18.836461580874083],[86.51697905051762,19.081845290031584],[86.60379364740716,19.3481021300885],[86.63401561502337,19.625],[86.62371568669668,20.0],[86.59735540044586,20.262736034805013],[86.5491126752399,20.616291011583996],[86.48240546135014,20.966477797018847],[86.41079388284764,21.315835759232932],[86.351684671276,21.49933780726047],[86.25515844782048,21.668454263286048],[86.12487984944201,21.816686076746205],[85.96583851845159,21.93833678217903],[85.78416028063783,22.02873141119723],[85.58686980108828,22.08439614890154],[85.38161406658895,22.103191830639123],[85.17635833208962,22.08439614890154],[84.97906785254007,22.02873141119723],[84.79738961472631,21.93833678217903],[84.6383482837359,21.816686076746205],[84.50806968535741,21.668454263286048],[84.32912433847525,21.366476608836535],[84.15460430339408,21.062138665546787],[84.03326714516488,20.848309344910376],[83.86428233946184,20.515375271136534],[83.73261842429345,20.168154709968416],[83.64796299674015,19.9018978699115],[83.62028785435658,19.625]]]},"properties":{"kind":"exclusion","issued":"2019-05-02T18:00:00Z","issuedIst":"2019-05-02T23:30:00+05:30","operating":false,"maxLeadH":24,"radiusKm":110.0,"radiusUndecayedKm":296.0,"inlandDecay":0.37}},{"type":"Feature","geometry":{"type":"Polygon","coordinates":[[[84.09041791100852,19.375],[84.10709915148246,19.21902588340428],[84.15566112986858,19.069045764638044],[84.2342001114519,18.930823295555655],[84.33967334431921,18.809670288127894],[84.76971488886706,18.475616311120636],[84.80248187912822,18.45901373831993],[84.83803168871218,18.448789924469416],[84.875,18.445337765001796],[84.91196831128782,18.448789924469416],[84.94751812087178,18.45901373831993],[84.98028511113294,18.475616311120636],[85.40780143508803,18.710242584486824],[85.53614761354919,18.809670288127894],[85.6416208464165,18.930823295555655],[85.72015982799982,19.069045764638044],[85.76872180638594,19.21902588340428],[85.78540304685988,19.375],[85.76951754407965,19.53097411659572],[85.72163016696068,19.680954235361956],[85.64354195136552,19.819176704444345],[85.53822702109697,19.940329711872106],[85.40972257428552,20.039757415513172],[85.26297544168071,20.113638864476325],[85.1036507914036,20.1591348361111],[84.9379104789342,20.174496945742003],[84.7721701664648,20.1591348361111],[84.61284551618769,20.113638864476325],[84.46609838358287,20.039757415513172],[84.33759393677143,19.940329711872106],[84.23227900650288,19.819176704444345],[84.15419079090772,19.680954235361956],[84.10630341378875,19.53097411659572],[84.09041791100852,19.375]]]},"properties":{"kind":"exclusion","issued":"2019-05-02T21:00:00Z","issuedIst":"2019-05-03T02:30:00+05:30","operating":false,"maxLeadH":6,"radiusKm":89.0,"radiusUndecayedKm":89.0,"inlandDecay":1.0}},{"type":"Feature","geometry":{"type":"Polygon","coordinates":[[[84.05145871079444,19.75],[84.09041791100852,19.375],[84.10709915148246,19.21902588340428],[84.15566112986858,19.069045764638044],[84.2342001114519,18.930823295555655],[84.33967334431921,18.809670288127894],[84.76971488886706,18.475616311120636],[84.80248187912822,18.45901373831993],[84.83803168871218,18.448789924469416],[84.875,18.445337765001796],[84.91196831128782,18.448789924469416],[84.94751812087178,18.45901373831993],[84.98028511113294,18.475616311120636],[85.40780143508803,18.710242584486824],[85.53614761354919,18.809670288127894],[85.6416208464165,18.930823295555655],[85.72015982799982,19.069045764638044],[85.76872180638594,19.21902588340428],[85.8693729698934,19.58143947896925],[85.88748664277011,19.75],[85.91795483591106,20.125],[85.90082204849891,20.292947047710445],[85.84906082719299,20.45443998456317],[85.76461263182516,20.6032727275612],[85.65069020490814,20.73372571785749],[85.51165932666802,20.840785720193832],[85.35287313188294,20.92033847872038],[85.1804649573918,20.969326825540666],[85.00110785591475,20.98586816595936],[84.8217507544377,20.969326825540666],[84.64934257994656,20.92033847872038],[84.49055638516148,20.840785720193832],[84.35152550692136,20.73372571785749],[84.23760308000435,20.6032727275612],[84.15315488463652,20.45443998456317],[84.1013936633306,20.292947047710445],[84.08426087591845,20.125],[84.05145871079444,19.75]]]},"properties":{"kind":"exclusion","issued":"2019-05-02T21:00:00Z","issuedIst":"2019-05-03T02:30:00+05:30","operating":false,"maxLeadH":12,"radiusKm":96.0,"radiusUndecayedKm":158.0,"inlandDecay":0.61}},{"type":"Feature","geometry":{"type":"Polygon","coordinates":[[[84.05145871079444,19.75],[84.09041791100852,19.375],[84.10709915148246,19.21902588340428],[84.15566112986858,19.069045764638044],[84.2342001114519,18.930823295555655],[84.33967334431921,18.809670288127894],[84.76971488886706,18.475616311120636],[84.80248187912822,18.45901373831993],[84.83803168871218,18.448789924469416],[84.875,18.445337765001796],[84.91196831128782,18.448789924469416],[84.94751812087178,18.45901373831993],[84.98028511113294,18.475616311120636],[85.40780143508803,18.710242584486824],[85.53614761354919,18.809670288127894],[85.6416208464165,18.930823295555655],[85.72015982799982,19.069045764638044],[85.76872180638594,19.21902588340428],[85.8693729698934,19.58143947896925],[86.10966559902852,21.443439118209927],[86.12951681683366,21.625],[86.11089906551463,21.806560881790073],[86.05445708559805,21.981144480713468],[85.96229895394374,22.142041646971172],[85.83792461847251,22.28306919269607],[85.68609808378571,22.39880750839511],[85.51266702388865,22.48480883550278],[85.32433623861724,22.537768191248425],[85.12840387902281,22.555650377290693],[84.93247151942839,22.537768191248425],[84.74414073415697,22.48480883550278],[84.57070967425992,22.39880750839511],[84.41888313957311,22.28306919269607],[84.29450880410188,22.142041646971172],[84.20235067244758,21.981144480713468],[84.145908692531,21.806560881790073],[84.12729094121197,21.625],[84.05145871079444,19.75]]]},"properties":{"kind":"exclusion","issued":"2019-05-02T21:00:00Z","issuedIst":"2019-05-03T02:30:00+05:30","operating":false,"maxLeadH":24,"radiusKm":104.0,"radiusUndecayedKm":296.0,"inlandDecay":0.35}},{"type":"Feature","geometry":{"type":"Polygon","coordinates":[[[84.65240518508433,19.6875],[84.66912568518752,19.53152588340428],[84.71778759429527,19.381545764638044],[84.79648259919199,19.243323295555655],[85.09205603288271,18.900185010237227],[85.11569064972386,18.87295961530964],[85.14448087742772,18.850616311120636],[85.17732077392665,18.83401373831993],[85.21294958457185,18.823789924469416],[85.25,18.820337765001796],[85.28705041542815,18.823789924469416],[85.66679609641487,18.9033651638889],[85.8257475036343,18.948861135523675],[85.9723232758164,19.022742584486824],[86.10091662520344,19.122170288127894],[86.2065954895175,19.243323295555655],[86.28529049441421,19.381545764638044],[86.33395240352196,19.53152588340428],[86.35067290362515,19.6875],[86.33476360373196,19.84347411659572],[86.2867894045584,19.993454235361956],[86.20855392486598,20.131676704444345],[86.10303643933062,20.252829711872106],[85.9742817462378,20.352257415513172],[85.82724646337911,20.426138864476325],[85.6676073316978,20.4716348361111],[85.50153904435474,20.486996945742003],[85.33547075701169,20.4716348361111],[85.17583162533037,20.426138864476325],[85.02879634247168,20.352257415513172],[84.90004164937886,20.252829711872106],[84.7945241638435,20.131676704444345],[84.71628868415108,19.993454235361956],[84.66831448497753,19.84347411659572],[84.65240518508433,19.6875]]]},"properties":{"kind":"exclusion","issued":"2019-05-03T00:00:00Z","issuedIst":"2019-05-03T05:30:00+05:30","operating":false,"maxLeadH":6,"radiusKm":89.0,"radiusUndecayedKm":89.0,"inlandDecay":1.0}},{"type":"Feature","geometry":{"type":"Polygon","coordinates":[[[84.65240518508433,19.6875],[84.66912568518752,19.53152588340428],[84.71778759429527,19.381545764638044],[84.79648259919199,19.243323295555655],[85.09205603288271,18.900185010237227],[85.11569064972386,18.87295961530964],[85.14448087742772,18.850616311120636],[85.17732077392665,18.83401373831993],[85.21294958457185,18.823789924469416],[85.25,18.820337765001796],[85.28705041542815,18.823789924469416],[85.66679609641487,18.9033651638889],[85.8257475036343,18.948861135523675],[85.9723232758164,19.022742584486824],[86.10091662520344,19.122170288127894],[86.2065954895175,19.243323295555655],[86.39120624474629,19.551230248229757],[86.47646064985432,19.700606644231886],[86.60166832763653,20.04556001543683],[86.65433863789481,20.207052952289555],[86.67247300932607,20.375],[86.65531917157259,20.542947047710445],[86.6034801283927,20.70443998456317],[86.51889961573728,20.8532727275612],[86.40479497844517,20.98372571785749],[86.26553882383058,21.090785720193832],[86.10649310459439,21.17033847872038],[85.93380160397419,21.219326825540666],[85.75414897593559,21.23586816595936],[85.574496347897,21.219326825540666],[85.4018048472768,21.17033847872038],[85.2427591280406,21.090785720193832],[85.10350297342602,20.98372571785749],[84.9893983361339,20.8532727275612],[84.90481782347848,20.70443998456317],[84.77716776010692,20.361893355768114],[84.72524795777662,20.19981052103075],[84.66831448497753,19.84347411659572],[84.65240518508433,19.6875]]]},"properties":{"kind":"exclusion","issued":"2019-05-03T00:00:00Z","issuedIst":"2019-05-03T05:30:00+05:30","operating":false,"maxLeadH":12,"radiusKm":96.0,"radiusUndecayedKm":158.0,"inlandDecay":0.61}},{"type":"Feature","geometry":{"type":"Polygon","coordinates":[[[84.65240518508433,19.6875],[84.66912568518752,19.53152588340428],[84.71778759429527,19.381545764638044],[84.79648259919199,19.243323295555655],[85.09205603288271,18.900185010237227],[85.11569064972386,18.87295961530964],[85.14448087742772,18.850616311120636],[85.17732077392665,18.83401373831993],[85.21294958457185,18.823789924469416],[85.25,18.820337765001796],[85.28705041542815,18.823789924469416],[85.66679609641487,18.9033651638889],[85.8257475036343,18.948861135523675],[85.9723232758164,19.022742584486824],[86.10091662520344,19.122170288127894],[86.2065954895175,19.243323295555655],[86.39120624474629,19.551230248229757],[86.47646064985432,19.700606644231886],[87.18728735732346,21.393855519286532],[87.24482825824474,21.568439118209927],[87.26470063647909,21.75],[87.24607066389419,21.931560881790073],[87.18958303991334,22.106144480713468],[87.09734715853651,22.267041646971172],[86.9728656600087,22.40806919269607],[86.82090655934653,22.52380750839511],[86.647322722601,22.60980883550278],[86.45882510958198,22.662768191248425],[86.2627187184281,22.680650377290693],[86.06661232727423,22.662768191248425],[85.8781147142552,22.60980883550278],[85.70453087750968,22.52380750839511],[85.55257177684751,22.40806919269607],[85.4280902783197,22.267041646971172],[85.33585439694286,22.106144480713468],[85.27936677296202,21.931560881790073],[84.72524795777662,20.19981052103075],[84.66831448497753,19.84347411659572],[84.65240518508433,19.6875]]]},"properties":{"kind":"exclusion","issued":"2019-05-03T00:00:00Z","issuedIst":"2019-05-03T05:30:00+05:30","operating":false,"maxLeadH":24,"radiusKm":104.0,"radiusUndecayedKm":296.0,"inlandDecay":0.35}},{"type":"Feature","geometry":{"type":"Polygon","coordinates":[[[85.01195896868876,19.75],[85.0221065074752,19.65448776006217],[85.05183650614892,19.562646001941275],[85.09999192682866,19.47800415289644],[85.21669689914955,19.275185010237227],[85.2403854910078,19.24795961530964],[85.26924128297912,19.225616311120636],[85.30215582396362,19.20901373831993],[85.33786552066591,19.198789924469416],[85.375,19.195337765001796],[85.41213447933409,19.198789924469416],[85.44784417603638,19.20901373831993],[85.73092109165282,19.2976874369218],[85.82076695839721,19.34292944780373],[85.89956247220466,19.40381495171877],[86.15789565116181,19.684720777700473],[86.2404143268888,19.779074834756667],[86.30183639190744,19.886722601916095],[86.33978567763958,20.003527235856385],[86.35277985446355,20.125],[86.34029096725962,20.246472764143615],[86.30277004827431,20.363277398083905],[86.24163421337275,20.470925165243333],[86.15921605399502,20.565279222299527],[86.05867665766587,20.642713595754184],[85.94388516100675,20.700252526061135],[85.81926927683544,20.73568482439689],[85.68964264261513,20.74764884740707],[85.56001600839481,20.73568482439689],[85.4354001242235,20.700252526061135],[85.32060862756438,20.642713595754184],[85.22006923123523,20.565279222299527],[85.1376510718575,20.470925165243333],[85.07651523695594,20.363277398083905],[85.03899431797063,20.246472764143615],[85.0265054307667,20.125],[85.01195896868876,19.75]]]},"properties":{"kind":"exclusion","issued":"2019-05-03T03:00:00Z","issuedIst":"2019-05-03T08:30:00+05:30","operating":false,"maxLeadH":6,"radiusKm":69.0,"radiusUndecayedKm":89.0,"inlandDecay":0.78}},{"type":"Feature","geometry":{"type":"Polygon","coordinates":[[[85.01195896868876,19.75],[85.0221065074752,19.65448776006217],[85.05183650614892,19.562646001941275],[85.09999192682866,19.47800415289644],[85.21669689914955,19.275185010237227],[85.2403854910078,19.24795961530964],[85.26924128297912,19.225616311120636],[85.30215582396362,19.20901373831993],[85.33786552066591,19.198789924469416],[85.375,19.195337765001796],[85.41213447933409,19.198789924469416],[85.44784417603638,19.20901373831993],[85.73092109165282,19.2976874369218],[85.82076695839721,19.34292944780373],[85.89956247220466,19.40381495171877],[86.15789565116181,19.684720777700473],[86.2404143268888,19.779074834756667],[86.44411471194394,20.126160241431595],[86.51066989296957,20.242494695610436],[86.66814171690132,20.618431882047172],[86.70923227071734,20.744202707728576],[86.72332543606862,20.875],[86.709844956682,21.005797292271424],[86.66927381705767,21.131568117952828],[86.60314105536916,21.24747917474636],[86.51396768169955,21.349076065743116],[86.40517303490819,21.432454479398288],[86.28094464097762,21.494410230034255],[86.146076343626,21.532562392899266],[86.00578105077089,21.545444801770394],[85.86548575791578,21.532562392899266],[85.73061746056416,21.494410230034255],[85.6063890666336,21.432454479398288],[85.49759441984223,21.349076065743116],[85.40842104617262,21.24747917474636],[85.34228828448411,21.131568117952828],[85.18325820325238,20.757505304389564],[85.14263521085465,20.63127506577367],[85.03899431797063,20.246472764143615],[85.0265054307667,20.125],[85.01195896868876,19.75]]]},"properties":{"kind":"exclusion","issued":"2019-05-03T03:00:00Z","issuedIst":"2019-05-03T08:30:00+05:30","operating":false,"maxLeadH":12,"radiusKm":74.0,"radiusUndecayedKm":158.0,"inlandDecay":0.47}},{"type":"Feature","geometry":{"type":"Polygon","coordinates":[[[85.01195896868876,19.75],[85.0221065074752,19.65448776006217],[85.05183650614892,19.562646001941275],[85.09999192682866,19.47800415289644],[85.21669689914955,19.275185010237227],[85.2403854910078,19.24795961530964],[85.26924128297912,19.225616311120636],[85.30215582396362,19.20901373831993],[85.33786552066591,19.198789924469416],[85.375,19.195337765001796],[85.41213447933409,19.198789924469416],[85.44784417603638,19.20901373831993],[85.73092109165282,19.2976874369218],[85.82076695839721,19.34292944780373],[85.89956247220466,19.40381495171877],[86.15789565116181,19.684720777700473],[86.2404143268888,19.779074834756667],[87.47801766060456,21.857958353028828],[87.57138032344506,22.018855519286532],[87.62919295626175,22.193439118209927],[87.64917322487874,22.375],[87.63048059252526,22.556560881790073],[87.5737595820802,22.731144480713468],[87.4811263451746,22.892041646971172],[87.3560972961533,23.03306919269607],[87.20346094610349,23.14880750839511],[87.02909668099008,23.23480883550278],[86.83974691361145,23.287768191248425],[86.64275159633992,23.305650377290693],[86.44575627906839,23.287768191248425],[86.25640651168976,23.23480883550278],[86.08204224657635,23.14880750839511],[85.92940589652655,23.03306919269607],[85.80437684750524,22.892041646971172],[85.71174361059964,22.731144480713468],[85.65502260015458,22.556560881790073],[85.03899431797063,20.246472764143615],[85.0265054307667,20.125],[85.01195896868876,19.75]]]},"properties":{"kind":"exclusion","issued":"2019-05-03T03:00:00Z","issuedIst":"2019-05-03T08:30:00+05:30","operating":false,"maxLeadH":24,"radiusKm":104.0,"radiusUndecayedKm":296.0,"inlandDecay":0.35}},{"type":"Feature","geometry":{"type":"Polygon","coordinates":[[[85.2913010166793,20.46875],[85.30150134461539,20.37323776006217],[85.33137335130245,20.281396001941275],[85.44839964369935,19.931246239244505],[85.4660795219912,19.900185010237227],[85.48986089342011,19.87295961530964],[85.51882939196311,19.850616311120636],[85.5518722531338,19.83401373831993],[85.58772100290764,19.823789924469416],[85.625,19.820337765001796],[85.66227899709236,19.823789924469416],[85.6981277468662,19.83401373831993],[85.73117060803689,19.850616311120636],[86.10381781256888,20.06167944780373],[86.18297485871335,20.12256495171877],[86.24799467829644,20.19675415289644],[86.5569997461475,20.591574834756667],[86.61875520556457,20.699222601916095],[86.65691605072317,20.816027235856385],[86.66999062092705,20.9375],[86.6574464468044,21.058972764143615],[86.61973525280435,21.175777398083905],[86.55828024558305,21.283425165243333],[86.47542545970204,21.377779222299527],[86.37434846605012,21.455213595754184],[86.25893933866593,21.512752526061135],[86.13365033612367,21.54818482439689],[86.00332218308492,21.56014884740707],[85.87299403004617,21.54818482439689],[85.74770502750391,21.512752526061135],[85.63229590011971,21.455213595754184],[85.5312189064678,21.377779222299527],[85.44836412058679,21.283425165243333],[85.38690911336549,21.175777398083905],[85.34919791936544,21.058972764143615],[85.33665374524278,20.9375],[85.2913010166793,20.46875]]]},"properties":{"kind":"exclusion","issued":"2019-05-03T06:00:00Z","issuedIst":"2019-05-03T11:30:00+05:30","operating":false,"maxLeadH":6,"radiusKm":69.0,"radiusUndecayedKm":89.0,"inlandDecay":0.78}},{"type":"Feature","geometry":{"type":"Polygon","coordinates":[[[85.2913010166793,20.46875],[85.30150134461539,20.37323776006217],[85.33137335130245,20.281396001941275],[85.44839964369935,19.931246239244505],[85.4660795219912,19.900185010237227],[85.48986089342011,19.87295961530964],[85.51882939196311,19.850616311120636],[85.5518722531338,19.83401373831993],[85.58772100290764,19.823789924469416],[85.625,19.820337765001796],[85.66227899709236,19.823789924469416],[85.6981277468662,19.83401373831993],[85.73117060803689,19.850616311120636],[86.10381781256888,20.06167944780373],[86.18297485871335,20.12256495171877],[86.24799467829644,20.19675415289644],[86.5569997461475,20.591574834756667],[86.61875520556457,20.699222601916095],[86.86050569094625,21.148744695610436],[87.05085840519888,21.618431882047172],[87.0922443840508,21.744202707728576],[87.1064504179856,21.875],[87.0928938279447,22.005797292271424],[87.052058425469,22.131568117952828],[86.98548161426645,22.24747917474636],[86.89570026251681,22.349076065743116],[86.78615663800444,22.432454479398288],[86.66106745520253,22.494410230034255],[86.52526082439407,22.532562392899266],[86.38398750023646,22.545444801770394],[86.24271417607885,22.532562392899266],[86.10690754527039,22.494410230034255],[85.98181836246847,22.432454479398288],[85.8722747379561,22.349076065743116],[85.78249338620647,22.24747917474636],[85.71591657500392,22.131568117952828],[85.52502951289328,21.663755304389564],[85.48417224473276,21.53752506577367],[85.34919791936544,21.058972764143615],[85.33665374524278,20.9375],[85.2913010166793,20.46875]]]},"properties":{"kind":"exclusion","issued":"2019-05-03T06:00:00Z","issuedIst":"2019-05-03T11:30:00+05:30","operating":false,"maxLeadH":12,"radiusKm":74.0,"radiusUndecayedKm":158.0,"inlandDecay":0.47}},{"type":"Feature","geometry":{"type":"Polygon","coordinates":[[[85.2913010166793,20.46875],[85.30150134461539,20.37323776006217],[85.33137335130245,20.281396001941275],[85.44839964369935,19.931246239244505],[85.4660795219912,19.900185010237227],[85.48986089342011,19.87295961530964],[85.51882939196311,19.850616311120636],[85.5518722531338,19.83401373831993],[85.58772100290764,19.823789924469416],[85.625,19.820337765001796],[85.66227899709236,19.823789924469416],[85.6981277468662,19.83401373831993],[85.73117060803689,19.850616311120636],[86.10381781256888,20.06167944780373],[86.18297485871335,20.12256495171877],[86.24799467829644,20.19675415289644],[86.5569997461475,20.591574834756667],[86.61875520556457,20.699222601916095],[88.09082719507634,23.393855519286532],[88.14927141183466,23.568439118209927],[88.16950162267581,23.75],[88.15066186200406,23.931560881790073],[88.09339643084354,24.106144480713468],[87.99983737335093,24.267041646971172],[87.87353327833821,24.40806919269607],[87.71932041187755,24.52380750839511],[87.54313986483707,24.60980883550278],[87.35180717134169,24.662768191248425],[87.15274350424163,24.680650377290693],[86.95367983714156,24.662768191248425],[86.76234714364618,24.60980883550278],[86.58616659660571,24.52380750839511],[86.43195373014504,24.40806919269607],[86.30564963513233,24.267041646971172],[86.21209057763971,24.106144480713468],[86.1548251464792,23.931560881790073],[85.34919791936544,21.058972764143615],[85.33665374524278,20.9375],[85.2913010166793,20.46875]]]},"properties":{"kind":"exclusion","issued":"2019-05-03T06:00:00Z","issuedIst":"2019-05-03T11:30:00+05:30","operating":false,"maxLeadH":24,"radiusKm":104.0,"radiusUndecayedKm":296.0,"inlandDecay":0.35}},{"type":"Feature","geometry":{"type":"Polygon","coordinates":[[[85.44566629114138,21.125],[85.45591670895159,21.02948776006217],[85.56174411295707,20.589949636720064],[85.57268643437261,20.556246239244505],[85.59043824988736,20.525185010237227],[85.61431598287959,20.49795961530964],[85.64340154633405,20.475616311120636],[85.67657769522039,20.45901373831993],[85.71257088481266,20.448789924469416],[85.75,20.445337765001796],[85.78742911518734,20.448789924469416],[85.82342230477961,20.45901373831993],[85.85659845366595,20.475616311120636],[86.2617118581913,20.71792944780373],[86.34121288206039,20.77881495171877],[86.40651727641153,20.85300415289644],[86.74802316526444,21.279074834756667],[86.81007335927525,21.386722601916095],[86.84842111625315,21.503527235856385],[86.86156655332567,21.625],[86.84897324456715,21.746472764143615],[86.81109356260617,21.863277398083905],[86.74935613147642,21.970925165243333],[86.66611512679489,22.065279222299527],[86.56456270510638,22.142713595754184],[86.44860745120896,22.200252526061135],[86.32272331266772,22.23568482439689],[86.19177494085473,22.24764884740707],[86.06082656904174,22.23568482439689],[85.9349424305005,22.200252526061135],[85.81898717660307,22.142713595754184],[85.71743475491456,22.065279222299527],[85.63419375023304,21.970925165243333],[85.57245631910328,21.863277398083905],[85.53457663714231,21.746472764143615],[85.45558515846534,21.22051223993783],[85.44566629114138,21.125]]]},"properties":{"kind":"exclusion","issued":"2019-05-03T09:00:00Z","issuedIst":"2019-05-03T14:30:00+05:30","operating":false,"maxLeadH":6,"radiusKm":69.0,"radiusUndecayedKm":89.0,"inlandDecay":0.78}},{"type":"Feature","geometry":{"type":"Polygon","coordinates":[[[85.44566629114138,21.125],[85.45591670895159,21.02948776006217],[85.56174411295707,20.589949636720064],[85.57268643437261,20.556246239244505],[85.59043824988736,20.525185010237227],[85.61431598287959,20.49795961530964],[85.64340154633405,20.475616311120636],[85.67657769522039,20.45901373831993],[85.71257088481266,20.448789924469416],[85.75,20.445337765001796],[85.78742911518734,20.448789924469416],[85.82342230477961,20.45901373831993],[85.85659845366595,20.475616311120636],[86.2617118581913,20.71792944780373],[86.34121288206039,20.77881495171877],[86.40651727641153,20.85300415289644],[86.74802316526444,21.279074834756667],[86.81007335927525,21.386722601916095],[87.08426574639559,21.867494695610436],[87.30700175224445,22.368431882047172],[87.34862046511016,22.494202707728576],[87.36291519527093,22.625],[87.34929824763294,22.755797292271424],[87.30825413572428,22.881568117952828],[87.24132690339657,22.99747917474636],[87.15106595455252,23.099076065743116],[87.04093165144499,23.182454479398288],[86.91516372046704,23.244410230034255],[86.77861727094162,23.282562392899266],[86.63657286652418,23.295444801770394],[86.49452846210673,23.282562392899266],[86.35798201258132,23.244410230034255],[86.23221408160336,23.182454479398288],[86.12207977849583,23.099076065743116],[86.03181882965178,22.99747917474636],[85.96489159732407,22.881568117952828],[85.7420835606079,22.382505304389564],[85.57245631910328,21.863277398083905],[85.53457663714231,21.746472764143615],[85.45558515846534,21.22051223993783],[85.44566629114138,21.125]]]},"properties":{"kind":"exclusion","issued":"2019-05-03T09:00:00Z","issuedIst":"2019-05-03T14:30:00+05:30","operating":false,"maxLeadH":12,"radiusKm":74.0,"radiusUndecayedKm":158.0,"inlandDecay":0.47}},{"type":"Feature","geometry":{"type":"Polygon","coordinates":[[[85.44566629114138,21.125],[85.45591670895159,21.02948776006217],[85.56174411295707,20.589949636720064],[85.57268643437261,20.556246239244505],[85.59043824988736,20.525185010237227],[85.61431598287959,20.49795961530964],[85.64340154633405,20.475616311120636],[85.67657769522039,20.45901373831993],[85.71257088481266,20.448789924469416],[85.75,20.445337765001796],[85.78742911518734,20.448789924469416],[85.82342230477961,20.45901373831993],[85.85659845366595,20.475616311120636],[86.2617118581913,20.71792944780373],[86.34121288206039,20.77881495171877],[86.40651727641153,20.85300415289644],[86.74802316526444,21.279074834756667],[88.48025974907321,24.268855519286532],[88.53913088626952,24.443439118209927],[88.55952949959496,24.625],[88.54058930281784,24.806560881790073],[88.4829545715728,24.981144480713468],[88.38876821531164,25.142041646971172],[88.26160067647102,25.28306919269607],[88.1063205778379,25.39880750839511],[87.9289107626947,25.48480883550278],[87.73623620196715,25.537768191248425],[87.5357729544526,25.555650377290693],[87.33530970693805,25.537768191248425],[87.1426351462105,25.48480883550278],[86.96522533106729,25.39880750839511],[86.80994523243417,25.28306919269607],[86.68277769359355,25.142041646971172],[86.58859133733239,24.981144480713468],[86.53095660608736,24.806560881790073],[85.57245631910328,21.863277398083905],[85.53457663714231,21.746472764143615],[85.45558515846534,21.22051223993783],[85.44566629114138,21.125]]]},"properties":{"kind":"exclusion","issued":"2019-05-03T09:00:00Z","issuedIst":"2019-05-03T14:30:00+05:30","operating":false,"maxLeadH":24,"radiusKm":104.0,"radiusUndecayedKm":296.0,"inlandDecay":0.35}},{"type":"Feature","geometry":{"type":"Polygon","coordinates":[[[86.13237560348254,21.5],[86.18255569643604,21.0],[86.1862756096931,20.964949636720064],[86.19724555421553,20.931246239244505],[86.21504183321854,20.900185010237227],[86.23897913016133,20.87295961530964],[86.26813705813845,20.850616311120636],[86.30139560227401,20.83401373831993],[86.33747808278481,20.823789924469416],[86.375,20.820337765001796],[86.41252191721519,20.823789924469416],[86.44860439772599,20.83401373831993],[86.48186294186156,20.850616311120636],[86.9504997454176,21.09292944780373],[87.03020338270844,21.15381495171877],[87.41723133372746,21.559720777700473],[87.50080183710989,21.654074834756667],[87.56301777172268,21.761722601916095],[87.60147059413944,21.878527235856385],[87.61465580767936,22.0],[87.6020347740167,22.121472764143615],[87.5640602435297,22.238277398083905],[87.5021638986657,22.345925165243333],[87.4187056268319,22.440279222299527],[87.31688579164346,22.517713595754184],[87.20062338764986,22.575252526061135],[87.07440455513806,22.61068482439689],[86.94310739326268,22.62264884740707],[86.8118102313873,22.61068482439689],[86.6855913988755,22.575252526061135],[86.5693289948819,22.517713595754184],[86.46750915969346,22.440279222299527],[86.38405088785966,22.345925165243333],[86.32215454299566,22.238277398083905],[86.28418001250866,22.121472764143615],[86.1423165843817,21.59551223993783],[86.13237560348254,21.5]]]},"properties":{"kind":"exclusion","issued":"2019-05-03T12:00:00Z","issuedIst":"2019-05-03T17:30:00+05:30","operating":false,"maxLeadH":6,"radiusKm":69.0,"radiusUndecayedKm":89.0,"inlandDecay":0.78}},{"type":"Feature","geometry":{"type":"Polygon","coordinates":[[[86.13237560348254,21.5],[86.18255569643604,21.0],[86.1862756096931,20.964949636720064],[86.19724555421553,20.931246239244505],[86.21504183321854,20.900185010237227],[86.23897913016133,20.87295961530964],[86.26813705813845,20.850616311120636],[86.30139560227401,20.83401373831993],[86.33747808278481,20.823789924469416],[86.375,20.820337765001796],[86.41252191721519,20.823789924469416],[86.44860439772599,20.83401373831993],[86.48186294186156,20.850616311120636],[86.9504997454176,21.09292944780373],[87.03020338270844,21.15381495171877],[87.41723133372746,21.559720777700473],[87.50080183710989,21.654074834756667],[87.8334107940623,22.126160241431595],[87.90090614127554,22.242494695610436],[88.18744303356559,22.743431882047172],[88.22918178736965,22.869202707728576],[88.24352219920547,23.0],[88.22987399998189,23.130797292271424],[88.1887220805044,23.256568117952828],[88.12161392452686,23.37247917474636],[88.03110541459473,23.474076065743116],[87.92066625522965,23.557454479398288],[87.7945480472935,23.619410230034255],[87.65761982706111,23.657562392899266],[87.51517753132477,23.670444801770394],[87.37273523558842,23.657562392899266],[87.23580701535603,23.619410230034255],[87.10968880741989,23.557454479398288],[86.9992496480548,23.474076065743116],[86.90874113812268,23.37247917474636],[86.84163298214513,23.256568117952828],[86.55511400145524,22.757505304389564],[86.32215454299566,22.238277398083905],[86.28418001250866,22.121472764143615],[86.1423165843817,21.59551223993783],[86.13237560348254,21.5]]]},"properties":{"kind":"exclusion","issued":"2019-05-03T12:00:00Z","issuedIst":"2019-05-03T17:30:00+05:30","operating":false,"maxLeadH":12,"radiusKm":74.0,"radiusUndecayedKm":158.0,"inlandDecay":0.47}},{"type":"Feature","geometry":{"type":"Polygon","coordinates":[[[85.73801779193107,25.0],[86.1862756096931,20.964949636720064],[86.19724555421553,20.931246239244505],[86.21504183321854,20.900185010237227],[86.23897913016133,20.87295961530964],[86.26813705813845,20.850616311120636],[86.30139560227401,20.83401373831993],[86.33747808278481,20.823789924469416],[86.375,20.820337765001796],[86.41252191721519,20.823789924469416],[86.44860439772599,20.83401373831993],[86.48186294186156,20.850616311120636],[90.2876441771081,22.789121404585398],[90.73099305342735,23.119802306582663],[91.09695934889258,23.52273815151094],[91.3713841065021,23.982444340818663],[91.54337815414253,24.481254623456934],[91.60578394379772,25.0],[91.55552686644867,25.518745376543066],[91.39383337643015,26.01755565918134],[91.12629342578558,26.47726184848906],[90.76274746734597,26.880197693417337],[90.31698460693705,27.210878595414602],[89.80624875793552,27.456596672865082],[89.25056336197758,27.607909117852643],[88.6719008678644,27.65900107797341],[88.0932383737512,27.607909117852643],[87.53755297779327,27.456596672865082],[87.02681712879173,27.210878595414602],[86.58105426838281,26.880197693417337],[86.21750830994321,26.47726184848906],[85.94996835929864,26.01755565918134],[85.78827486928012,25.518745376543066],[85.73801779193107,25.0]]]},"properties":{"kind":"exclusion","issued":"2019-05-03T12:00:00Z","issuedIst":"2019-05-03T17:30:00+05:30","operating":false,"maxLeadH":24,"radiusKm":104.0,"radiusUndecayedKm":296.0,"inlandDecay":0.35}}]}