{"type":"FeatureCollection","event":"Cyclone Fani","note":"Persistence-extrapolated cones. Each uses only data up to its own issue time.","features":[{"type":"Feature","geometry":{"type":"Polygon","coordinates":[[[79.1404273123282,16.625],[79.25696804986917,15.622559610193806],[79.57315523955296,14.658642442392816],[80.07572659972303,13.770291292784652],[80.74475345586562,12.991644997855683],[81.55445086645186,12.352626498050162],[82.47413768547064,11.87779291594991],[83.4693279342004,11.585391839825299],[84.50293155711691,11.486660079051383],[85.53653518003343,11.585391839825299],[86.53172542876318,11.877792915949911],[87.45141224778196,12.352626498050162],[88.2611096583682,12.991644997855685],[88.93013651451079,13.770291292784654],[89.43270787468086,14.65864244239282],[89.74889506436465,15.622559610193807],[89.86543580190562,16.625],[89.77637278446049,17.627440389806193],[89.48349029011237,18.591357557607182],[88.99650690828886,19.479708707215348],[88.33297396542257,20.258355002144317],[87.51782979160392,20.897373501949836],[86.5825745244371,21.37220708405009],[85.56406005018856,21.6646081601747],[84.50293155711691,21.763339920948617],[83.44180306404526,21.6646081601747],[82.4232885897967,21.37220708405009],[81.4880333226299,20.897373501949836],[80.67288914881125,20.258355002144313],[80.00935620594495,19.479708707215345],[79.52237282412145,18.591357557607182],[79.22949032977333,17.627440389806193],[79.1404273123282,16.625]]]},"properties":{"kind":"display","issued":"2019-05-01T12:00:00Z","issuedIst":"2019-05-01T17:30:00+05:30","operating":false,"centreLon":84.0,"centreLat":14.625,"mslpHpa":973.9,"speedKmh":4.8,"headingDeg":14.0,"leadsH":[3,6,9,12,15,18,21,24,27,30,33,36,39,42,45,48],"maxRadiusKm":572.0}},{"type":"Feature","geometry":{"type":"Polygon","coordinates":[[[78.8206920511404,17.543],[78.93861459421339,16.540559610193803],[79.2570389545915,15.576642442392815],[79.76253716978175,14.688291292784651],[80.4350175688975,13.909644997855683],[81.24854776617887,13.270626498050161],[82.17232179263814,12.795792915949908],[83.17175248523851,12.503391839825298],[84.20966781905481,12.404660079051382],[85.24758315287112,12.503391839825298],[86.24701384547149,12.79579291594991],[87.17078787193076,13.270626498050161],[87.98431806921212,13.909644997855684],[88.65679846832788,14.688291292784653],[89.16229668351814,15.576642442392819],[89.48072104389624,16.540559610193807],[89.59864358696923,17.543],[89.5099561515345,18.545440389806192],[89.21632710761247,19.50935755760718],[88.72741411567749,20.397708707215347],[88.0607793548401,21.176355002144316],[87.24145427221184,21.815373501949836],[86.30111604506197,22.29020708405009],[85.27686901345801,22.5826081601747],[84.20966781905481,22.681339920948616],[83.14246662465162,22.5826081601747],[82.11821959304764,22.29020708405009],[81.17788136589779,21.815373501949836],[80.35855628326954,21.176355002144312],[79.69192152243214,20.397708707215344],[79.20300853049716,19.50935755760718],[78.90937948657513,18.545440389806192],[78.8206920511404,17.543]]]},"properties":{"kind":"display","issued":"2019-05-01T15:00:00Z","issuedIst":"2019-05-01T20:30:00+05:30","operating":false,"centreLon":83.875,"centreLat":14.875,"mslpHpa":975.6,"speedKmh":6.2,"headingDeg":7.0,"leadsH":[3,6,9,12,15,18,21,24,27,30,33,36,39,42,45,48],"maxRadiusKm":572.0}},{"type":"Feature","geometry":{"type":"Polygon","coordinates":[[[79.7495691704891,18.793],[79.86945812203149,17.790559610193803],[80.19110824925816,16.826642442392817],[80.7008564155435,15.938291292784651],[81.37837739734759,15.159644997855683],[82.19752492843217,14.520626498050161],[83.12730886884475,14.045792915949908],[84.13298930481389,13.753391839825298],[85.1772671315639,13.654660079051382],[86.2215449583139,13.753391839825298],[87.22722539428304,14.04579291594991],[88.15700933469562,14.520626498050161],[88.9761568657802,15.159644997855684],[89.65367784758429,15.938291292784653],[90.16342601386962,16.826642442392817],[90.4850761410963,17.790559610193807],[90.6049650926387,18.793],[90.51677240750949,19.795440389806192],[90.22200519408226,20.75935755760718],[89.73023893736844,21.647708707215347],[89.05905627046961,22.426355002144316],[88.23362638719584,23.065373501949836],[87.28588371774184,23.54020708405009],[86.2532971874631,23.8326081601747],[85.1772671315639,23.931339920948616],[84.10123707566468,23.8326081601747],[83.06865054538595,23.54020708405009],[82.12090787593195,23.065373501949836],[81.29547799265818,22.426355002144312],[80.62429532575935,21.647708707215344],[80.13252906904553,20.75935755760718],[79.8377618556183,19.795440389806192],[79.7495691704891,18.793]]]},"properties":{"kind":"display","issued":"2019-05-01T18:00:00Z","issuedIst":"2019-05-01T23:30:00+05:30","operating":false,"centreLon":84.0,"centreLat":15.125,"mslpHpa":975.3,"speedKmh":8.9,"headingDeg":17.0,"leadsH":[3,6,9,12,15,18,21,24,27,30,33,36,39,42,45,48],"maxRadiusKm":572.0}},{"type":"Feature","geometry":{"type":"Polygon","coordinates":[[[80.82858745342033,19.375],[80.9494268331815,18.372559610193804],[81.27265178528444,17.408642442392818],[81.78448573845182,16.520291292784652],[82.4644899993966,15.741644997855683],[83.28641342060602,15.102626498050162],[84.21917440946964,14.62779291594991],[85.22795595183747,14.335391839825299],[86.2753936203135,14.236660079051383],[87.32283128878952,14.335391839825299],[88.33161283115734,14.627792915949911],[89.26437382002096,15.102626498050162],[90.08629724123038,15.741644997855685],[90.76630150217517,16.520291292784655],[91.27813545534255,17.408642442392818],[91.60136040744548,18.372559610193807],[91.72219978720666,19.375],[91.63423141466727,20.377440389806193],[91.33888582683028,21.341357557607182],[90.84570047253447,22.229708707215348],[90.17226972868451,23.008355002144317],[89.3438313093898,23.647373501949836],[88.39244596103713,24.12220708405009],[87.3557608150422,24.4146081601747],[86.2753936203135,24.513339920948617],[85.19502642558479,24.4146081601747],[84.15834127958986,24.12220708405009],[83.20695593123719,23.647373501949836],[82.37851751194248,23.008355002144313],[81.70508676809251,22.229708707215345],[81.21190141379671,21.341357557607182],[80.91655582595972,20.377440389806193],[80.82858745342033,19.375]]]},"properties":{"kind":"display","issued":"2019-05-01T21:00:00Z","issuedIst":"2019-05-02T02:30:00+05:30","operating":false,"centreLon":84.25,"centreLat":15.375,"mslpHpa":973.4,"speedKmh":10.3,"headingDeg":26.0,"leadsH":[3,6,9,12,15,18,21,24,27,30,33,36,39,42,45,48],"maxRadiusKm":572.0}},{"type":"Feature","geometry":{"type":"Polygon","coordinates":[[[81.05261987569844,20.25],[81.17493170008991,19.247559610193804],[81.50061433651044,18.283642442392818],[82.01571575133971,17.395291292784652],[82.69962080341212,16.616644997855683],[83.52591415217319,15.977626498050162],[84.46336974890013,15.50279291594991],[85.47704739993532,15.210391839825299],[86.52947702008498,15.111660079051383],[87.58190664023465,15.210391839825299],[88.59558429126983,15.502792915949911],[89.53303988799678,15.977626498050162],[90.35933323675785,16.616644997855683],[91.04323828883025,17.395291292784655],[91.55833970365953,18.283642442392818],[91.88402234008005,19.247559610193807],[92.00633416447153,20.25],[91.91869643079677,21.252440389806193],[91.62242260769348,22.216357557607182],[91.12699312227967,23.104708707215348],[90.45002264775495,23.883355002144317],[89.61685725397071,24.522373501949836],[88.65975562966482,24.99720708405009],[87.6166432634996,25.2896081601747],[86.52947702008498,25.388339920948617],[85.44231077667035,25.2896081601747],[84.39919841050515,24.99720708405009],[83.44209678619926,24.522373501949836],[82.60893139241502,23.883355002144313],[81.9319609178903,23.104708707215345],[81.43653143247649,22.216357557607182],[81.1402576093732,21.252440389806193],[81.05261987569844,20.25]]]},"properties":{"kind":"display","issued":"2019-05-02T00:00:00Z","issuedIst":"2019-05-02T05:30:00+05:30","operating":false,"centreLon":84.5,"centreLat":15.75,"mslpHpa":975.2,"speedKmh":11.4,"headingDeg":23.0,"leadsH":[3,6,9,12,15,18,21,24,27,30,33,36,39,42,45,48],"maxRadiusKm":572.0}},{"type":"Feature","geometry":{"type":"Polygon","coordinates":[[[82.14936158567698,21.75],[82.27432528604729,20.747559610193804],[82.60448208516246,19.783642442392818],[84.4521368221023,16.181246239244505],[84.46943950722807,16.150185010237227],[84.49271580265813,16.12295961530964],[84.52107085324401,16.100616311120636],[84.5534153662276,16.08401373831993],[84.58850741390613,16.073789924469416],[84.625,16.070337765001796],[84.66149258609387,16.073789924469416],[88.74321871942597,16.7103918398253],[89.76596008894587,17.00279291594991],[90.71209151189447,17.477626498050164],[91.5464409472862,18.116644997855683],[92.23751477184135,18.895291292784655],[92.75859740134916,19.783642442392818],[93.08875420046434,20.747559610193807],[93.21371790083464,21.75],[93.12663052846543,22.752440389806193],[92.82859887067849,23.716357557607182],[92.32900571838853,24.604708707215348],[91.64550787207291,25.383355002144317],[90.80365239461905,26.022373501949836],[89.83606046298586,26.49720708405009],[88.78116498363285,26.7896081601747],[87.68153974325581,26.888339920948617],[86.58191450287877,26.7896081601747],[85.52701902352577,26.49720708405009],[84.55942709189257,26.022373501949836],[83.71757161443871,25.383355002144313],[83.0340737681231,24.604708707215345],[82.53448061583313,23.716357557607182],[82.2364489580462,22.752440389806193],[82.14936158567698,21.75]]]},"properties":{"kind":"display","issued":"2019-05-02T03:00:00Z","issuedIst":"2019-05-02T08:30:00+05:30","operating":false,"centreLon":84.625,"centreLat":16.25,"mslpHpa":976.6,"speedKmh":14.4,"headingDeg":28.0,"leadsH":[3,6,9,12,15,18,21,24,27,30,33,36,39,42,45,48],"maxRadiusKm":572.0}},{"type":"Feature","geometry":{"type":"Polygon","coordinates":[[[81.61120741083747,22.625],[81.73779663928502,21.622559610193804],[82.0707220525868,20.658642442392818],[84.46913980208714,16.525185010237227],[84.49246116587884,16.49795961530964],[84.52087094207864,16.475616311120636],[84.55327774467948,16.45901373831993],[84.5884372800522,16.448789924469416],[84.625,16.445337765001796],[84.6615627199478,16.448789924469416],[84.69672225532052,16.45901373831993],[89.27387156416562,17.87779291594991],[90.22544156705405,18.352626498050164],[91.0648305533603,18.991644997855683],[91.76037685521446,19.770291292784655],[92.28517840196614,20.658642442392818],[92.61810381526792,21.622559610193807],[92.74469304371547,22.625],[92.65791846250852,23.627440389806193],[92.35876242615387,24.591357557607182],[91.85655060723808,25.479708707215348],[91.16896862986184,26.258355002144317],[90.32168991268615,26.897373501949836],[89.34756107966847,27.37220708405009],[88.28532940339467,27.6646081601747],[87.17795022727647,27.763339920948617],[86.07057105115827,27.6646081601747],[85.00833937488447,27.37220708405009],[84.03421054186678,26.897373501949836],[83.1869318246911,26.258355002144313],[82.49934984731486,25.479708707215345],[81.99713802839906,24.591357557607182],[81.69798199204442,23.627440389806193],[81.61120741083747,22.625]]]},"properties":{"kind":"display","issued":"2019-05-02T06:00:00Z","issuedIst":"2019-05-02T11:30:00+05:30","operating":false,"centreLon":84.625,"centreLat":16.625,"mslpHpa":975.5,"speedKmh":15.0,"headingDeg":22.0,"leadsH":[3,6,9,12,15,18,21,24,27,30,33,36,39,42,45,48],"maxRadiusKm":572.0}},{"type":"Feature","geometry":{"type":"Polygon","coordinates":[[[81.17149936409403,24.125],[81.30101907121636,23.122559610193804],[81.63897702545759,22.158642442392818],[84.59372795649756,17.025185010237227],[84.61711124544951,16.99795961530964],[84.64559622115122,16.975616311120636],[84.678088620965,16.95901373831993],[84.713340899314,16.948789924469416],[84.75,16.945337765001796],[84.786659100686,16.948789924469416],[84.821911379035,16.95901373831993],[84.85440377884878,16.975616311120636],[89.88025449605666,19.852626498050164],[90.72888977861149,20.491644997855683],[91.43262314997388,21.270291292784655],[91.96421252357007,22.158642442392818],[92.3021704778113,23.122559610193807],[92.43169018493363,24.125],[92.34544059387714,25.127440389806193],[92.04418329152068,26.091357557607182],[91.53714524343646,26.979708707215348],[90.84206870945903,27.758355002144317],[89.98485982436365,28.397373501949836],[88.99877676686631,28.87220708405009],[87.92313885533123,29.1646081601747],[86.80159477451383,29.263339920948617],[85.68005069369643,29.1646081601747],[84.60441278216133,28.87220708405009],[83.61832972466401,28.397373501949836],[82.76112083956863,27.758355002144313],[82.0660443055912,26.979708707215345],[81.55900625750698,26.091357557607182],[81.25774895515052,25.127440389806193],[81.17149936409403,24.125]]]},"properties":{"kind":"display","issued":"2019-05-02T09:00:00Z","issuedIst":"2019-05-02T14:30:00+05:30","operating":false,"centreLon":84.75,"centreLat":17.125,"mslpHpa":974.2,"speedKmh":16.8,"headingDeg":15.0,"leadsH":[3,6,9,12,15,18,21,24,27,30,33,36,39,42,45,48],"maxRadiusKm":572.0}},{"type":"Feature","geometry":{"type":"Polygon","coordinates":[[[80.10332229495857,25.125],[80.2349026633044,24.122559610193804],[80.57642611894927,23.158642442392818],[81.11284252845037,22.270291292784652],[84.59330196383881,17.525185010237227],[84.61674929803603,17.49795961530964],[84.64531205332999,17.475616311120636],[84.67789299147067,17.45901373831993],[84.71324120238278,17.448789924469416],[84.75,17.445337765001796],[84.78675879761722,17.448789924469416],[84.82210700852933,17.45901373831993],[84.85468794667001,17.475616311120636],[84.88325070196397,17.49795961530964],[89.73486722225616,21.491644997855683],[90.44443797390451,22.270291292784655],[90.9808543834056,23.158642442392818],[91.32237783905047,24.122559610193807],[91.4539582073963,25.125],[91.36805265537821,26.127440389806193],[91.0652698157874,27.091357557607182],[90.55476995781426,27.979708707215348],[89.8543381276357,28.758355002144317],[88.99004723243016,29.397373501949836],[87.99544813723692,29.87220708405009],[86.91026586616665,30.1646081601747],[85.77864025117744,30.263339920948617],[84.64701463618822,30.1646081601747],[83.56183236511795,29.87220708405009],[82.56723326992471,29.397373501949836],[81.70294237471917,28.758355002144313],[81.0025105445406,27.979708707215345],[80.49201068656747,27.091357557607182],[80.18922784697666,26.127440389806193],[80.10332229495857,25.125]]]},"properties":{"kind":"display","issued":"2019-05-02T12:00:00Z","issuedIst":"2019-05-02T17:30:00+05:30","operating":true,"centreLon":84.75,"centreLat":17.625,"mslpHpa":975.4,"speedKmh":17.5,"headingDeg":7.0,"leadsH":[3,6,9,12,15,18,21,24,27,30,33,36,39,42,45,48],"maxRadiusKm":572.0}},{"type":"Feature","geometry":{"type":"Polygon","coordinates":[[[79.62125731470302,24.375],[79.75128391514868,23.372559610193804],[80.09011707113653,22.408642442392818],[80.62289006557717,21.520291292784652],[81.32805374311675,20.741644997855683],[84.61656376635611,17.74795961530964],[84.64516638926898,17.725616311120636],[84.67779271119784,17.70901373831993],[84.71319009716773,17.698789924469416],[84.75,17.695337765001796],[84.78680990283227,17.698789924469416],[84.82220728880216,17.70901373831993],[84.85483361073102,17.725616311120636],[88.34655276936,20.102626498050164],[89.19680579968679,20.741644997855683],[89.90196947722637,21.520291292784655],[90.43474247166701,22.408642442392818],[90.77357562765486,23.372559610193807],[90.90360222810052,24.375],[90.81743901552277,25.377440389806193],[90.5158097935912,26.341357557607182],[90.00792493438946,27.229708707215348],[89.31153701879619,28.008355002144317],[88.45259298931842,28.647373501949836],[87.46442279318133,29.12220708405009],[86.38644530509455,29.4146081601747],[85.26242977140177,29.513339920948617],[84.13841423770899,29.4146081601747],[83.06043674962221,29.12220708405009],[82.07226655348512,28.647373501949836],[81.21332252400735,28.008355002144313],[80.51693460841408,27.229708707215345],[80.00904974921234,26.341357557607182],[79.70742052728077,25.377440389806193],[79.62125731470302,24.375]]]},"properties":{"kind":"display","issued":"2019-05-02T15:00:00Z","issuedIst":"2019-05-02T20:30:00+05:30","operating":false,"centreLon":84.75,"centreLat":17.875,"mslpHpa":977.2,"speedKmh":15.1,"headingDeg":4.0,"leadsH":[3,6,9,12,15,18,21,24,27,30,33,36,39,42,45,48],"maxRadiusKm":572.0}},{"type":"Feature","geometry":{"type":"Polygon","coordinates":[[[80.26803327211054,24.125],[80.39755297923287,23.122559610193804],[80.7355109334741,22.158642442392818],[81.2671003070703,21.270291292784652],[81.97083367843268,20.491644997855683],[84.7413751697343,17.99795961530964],[84.77001831780093,17.975616311120636],[84.8026907730334,17.95901373831993],[84.83813814687959,17.948789924469416],[84.875,17.945337765001796],[84.91186185312041,17.948789924469416],[84.9473092269666,17.95901373831993],[88.01522219505955,19.37779291594991],[88.97678840407318,19.852626498050164],[89.825423686628,20.491644997855683],[90.52915705799039,21.270291292784655],[91.06074643158658,22.158642442392818],[91.39870438582781,23.122559610193807],[91.52822409295014,24.125],[91.44197450189365,25.127440389806193],[91.14071719953719,26.091357557607182],[90.63367915145297,26.979708707215348],[89.93860261747554,27.758355002144317],[89.08139373238016,28.397373501949836],[88.09531067488282,28.87220708405009],[87.01967276334774,29.1646081601747],[85.89812868253034,29.263339920948617],[84.77658460171294,29.1646081601747],[83.70094669017784,28.87220708405009],[82.71486363268052,28.397373501949836],[81.85765474758514,27.758355002144313],[81.16257821360772,26.979708707215345],[80.65554016552349,26.091357557607182],[80.35428286316703,25.127440389806193],[80.26803327211054,24.125]]]},"properties":{"kind":"display","issued":"2019-05-02T18:00:00Z","issuedIst":"2019-05-02T23:30:00+05:30","operating":false,"centreLon":84.875,"centreLat":18.125,"mslpHpa":978.3,"speedKmh":14.1,"headingDeg":9.0,"leadsH":[3,6,9,12,15,18,21,24,27,30,33,36,39,42,45,48],"maxRadiusKm":572.0}},{"type":"Feature","geometry":{"type":"Polygon","coordinates":[[[79.73449243320158,24.625],[79.86503139305287,23.622559610193804],[80.2047504566337,22.658642442392818],[80.73872239831152,21.770291292784652],[81.44533562504371,20.991644997855683],[84.76971488886706,18.475616311120636],[84.80248187912822,18.45901373831993],[84.83803168871218,18.448789924469416],[84.875,18.445337765001796],[84.91196831128782,18.448789924469416],[84.94751812087178,18.45901373831993],[84.98028511113294,18.475616311120636],[88.4765580613725,20.352626498050164],[89.32845124563413,20.991644997855683],[90.03506447236632,21.770291292784655],[90.56903641404413,22.658642442392818],[90.90875547762496,23.622559610193807],[91.03929443747626,24.625],[90.95321734224382,25.627440389806193],[90.65120991321015,26.591357557607182],[90.14246587794172,27.479708707215348],[89.44474838905117,28.258355002144317],[88.58404578441461,28.897373501949836],[87.59376070936153,29.37220708405009],[86.5134128329019,29.6646081601747],[85.38689343533892,29.763339920948617],[84.26037403777593,29.6646081601747],[83.18002616131629,29.37220708405009],[82.18974108626323,28.897373501949836],[81.32903848162667,28.258355002144313],[80.63132099273612,27.479708707215345],[80.12257695746769,26.591357557607182],[79.82056952843402,25.627440389806193],[79.73449243320158,24.625]]]},"properties":{"kind":"display","issued":"2019-05-02T21:00:00Z","issuedIst":"2019-05-03T02:30:00+05:30","operating":false,"centreLon":84.875,"centreLat":18.625,"mslpHpa":977.8,"speedKmh":14.0,"headingDeg":5.0,"leadsH":[3,6,9,12,15,18,21,24,27,30,33,36,39,42,45,48],"maxRadiusKm":572.0}},{"type":"Feature","geometry":{"type":"Polygon","coordinates":[[[81.64747688241836,24.5],[81.77775897480288,23.497559610193804],[82.11703373925896,22.533642442392818],[82.65040428233907,21.645291292784652],[85.11569064972386,18.87295961530964],[85.14448087742772,18.850616311120636],[85.17732077392665,18.83401373831993],[85.21294958457185,18.823789924469416],[85.25,18.820337765001796],[85.28705041542815,18.823789924469416],[88.37526047990275,19.4603918398253],[89.4169266349818,19.75279291594991],[90.38112857019586,20.227626498050164],[91.23219886478294,20.866644997855683],[91.93808490076655,21.645291292784655],[92.47145544384666,22.533642442392818],[92.81073020830274,23.497559610193807],[92.94101230068726,24.5],[92.8548921780026,25.502440389806193],[92.55307464052669,26.466357557607182],[92.04476174471424,27.354708707215348],[91.34771132600503,28.133355002144317],[90.48789095089393,28.772373501949836],[89.49866679892243,29.24720708405009],[88.41950798639276,29.5396081601747],[87.29424459155281,29.638339920948617],[86.16898119671285,29.5396081601747],[85.0898223841832,29.24720708405009],[84.1005982322117,28.772373501949836],[83.2407778571006,28.133355002144313],[82.54372743839139,27.354708707215345],[82.03541454257893,26.466357557607182],[81.73359700510302,25.502440389806193],[81.64747688241836,24.5]]]},"properties":{"kind":"display","issued":"2019-05-03T00:00:00Z","issuedIst":"2019-05-03T05:30:00+05:30","operating":false,"centreLon":85.25,"centreLat":19.0,"mslpHpa":977.2,"speedKmh":13.5,"headingDeg":19.0,"leadsH":[3,6,9,12,15,18,21,24,27,30,33,36,39,42,45,48],"maxRadiusKm":572.0}},{"type":"Feature","geometry":{"type":"Polygon","coordinates":[[[82.24994781131022,25.375],[82.3820573777143,24.372559610193804],[82.72449955267113,23.408642442392818],[85.21669689914955,19.275185010237227],[85.2403854910078,19.24795961530964],[85.26924128297912,19.225616311120636],[85.30215582396362,19.20901373831993],[85.33786552066591,19.198789924469416],[85.375,19.195337765001796],[85.41213447933409,19.198789924469416],[85.44784417603638,19.20901373831993],[90.07315195996416,20.62779291594991],[91.04372294688505,21.102626498050164],[91.90067297062274,21.741644997855683],[92.61175205469821,22.520291292784655],[93.1494142886066,23.408642442392818],[93.49185646356342,24.372559610193807],[93.6239660299675,25.375],[93.53814595076702,26.377440389806193],[93.23496583926601,27.341357557607182],[92.72356914247909,28.229708707215348],[92.02175222739312,29.008355002144317],[91.15563118311127,29.647373501949836],[90.15883241402256,30.12220708405009],[89.07118553195454,30.4146081601747],[87.93695692063886,30.513339920948617],[86.80272830932319,30.4146081601747],[85.71508142725517,30.12220708405009],[84.71828265816646,29.647373501949836],[83.8521616138846,29.008355002144313],[83.15034469879863,28.229708707215345],[82.63894800201172,27.341357557607182],[82.33576789051071,26.377440389806193],[82.24994781131022,25.375]]]},"properties":{"kind":"display","issued":"2019-05-03T03:00:00Z","issuedIst":"2019-05-03T08:30:00+05:30","operating":false,"centreLon":85.375,"centreLat":19.375,"mslpHpa":979.3,"speedKmh":15.0,"headingDeg":22.0,"leadsH":[3,6,9,12,15,18,21,24,27,30,33,36,39,42,45,48],"maxRadiusKm":572.0}},{"type":"Feature","geometry":{"type":"Polygon","coordinates":[[[82.92996845383126,27.5],[83.06681702461539,26.497559610193804],[85.44839964369935,19.931246239244505],[85.4660795219912,19.900185010237227],[85.48986089342011,19.87295961530964],[85.51882939196311,19.850616311120636],[85.5518722531338,19.83401373831993],[85.58772100290764,19.823789924469416],[85.625,19.820337765001796],[85.66227899709236,19.823789924469416],[85.6981277468662,19.83401373831993],[85.73117060803689,19.850616311120636],[91.88208059217047,23.227626498050164],[92.75451128331869,23.866644997855683],[93.47923633901107,24.645291292784655],[94.02814794051599,25.533642442392818],[94.37886321052734,26.497559610193807],[94.51571178131147,27.5],[94.43061402030322,28.502440389806193],[94.12379398713136,29.466357557607182],[93.60424895422919,30.354708707215348],[92.88988149626536,31.133355002144317],[92.00719955170021,31.772373501949836],[90.99051153826372,32.24720708405009],[89.88058968392443,32.5396081601747],[88.72284011757137,32.63833992094862],[87.5650905512183,32.5396081601747],[86.45516869687901,32.24720708405009],[85.43848068344252,31.772373501949836],[84.55579873887737,31.133355002144313],[83.84143128091354,30.354708707215345],[83.32188624801137,29.466357557607182],[83.0150662148395,28.502440389806193],[82.92996845383126,27.5]]]},"properties":{"kind":"display","issued":"2019-05-03T06:00:00Z","issuedIst":"2019-05-03T11:30:00+05:30","operating":false,"centreLon":85.625,"centreLat":20.0,"mslpHpa":982.0,"speedKmh":18.6,"headingDeg":21.0,"leadsH":[3,6,9,12,15,18,21,24,27,30,33,36,39,42,45,48],"maxRadiusKm":572.0}},{"type":"Feature","geometry":{"type":"Polygon","coordinates":[[[83.52267301438802,28.625],[83.66221650402883,27.622559610193804],[85.56174411295707,20.589949636720064],[85.57268643437261,20.556246239244505],[85.59043824988736,20.525185010237227],[85.61431598287959,20.49795961530964],[85.64340154633405,20.475616311120636],[85.67657769522039,20.45901373831993],[85.71257088481266,20.448789924469416],[85.75,20.445337765001796],[85.78742911518734,20.448789924469416],[85.82342230477961,20.45901373831993],[85.85659845366595,20.475616311120636],[92.56604520690799,24.352626498050164],[93.44739635429407,24.991644997855683],[94.17997124699356,25.770291292784655],[94.73534003483803,26.658642442392818],[95.09078955008923,27.622559610193807],[95.23033303973004,28.625],[95.14561829004101,29.627440389806193],[94.8366753179425,30.591357557607182],[94.31242104919384,31.479708707215348],[93.59082142922011,32.25835500214431],[92.6986104280637,32.897373501949836],[91.67048783070851,33.37220708405009],[90.54776583587595,33.6646081601747],[89.37650302705903,33.76333992094862],[88.2052402182421,33.6646081601747],[87.08251822340955,33.37220708405009],[86.05439562605436,32.897373501949836],[85.16218462489793,32.25835500214431],[84.44058500492422,31.479708707215345],[83.91633073617557,30.591357557607182],[83.60738776407705,29.627440389806193],[83.52267301438802,28.625]]]},"properties":{"kind":"display","issued":"2019-05-03T09:00:00Z","issuedIst":"2019-05-03T14:30:00+05:30","operating":false,"centreLon":85.75,"centreLat":20.625,"mslpHpa":981.5,"speedKmh":20.1,"headingDeg":22.0,"leadsH":[3,6,9,12,15,18,21,24,27,30,33,36,39,42,45,48],"maxRadiusKm":572.0}},{"type":"Feature","geometry":{"type":"Polygon","coordinates":[[[85.16582054700977,29.0],[86.1862756096931,20.964949636720064],[86.19724555421553,20.931246239244505],[86.21504183321854,20.900185010237227],[86.23897913016133,20.87295961530964],[86.26813705813845,20.850616311120636],[86.30139560227401,20.83401373831993],[86.33747808278481,20.823789924469416],[86.375,20.820337765001796],[86.41252191721519,20.823789924469416],[86.44860439772599,20.83401373831993],[86.48186294186156,20.850616311120636],[94.24081036277039,24.727626498050164],[95.12525175551707,25.366644997855683],[95.86054422767099,26.145291292784655],[96.41814661924052,27.033642442392818],[96.77523185257283,27.997559610193807],[96.91570424847471,29.0],[96.83111788971436,30.002440389806193],[96.52143622573593,30.966357557607182],[95.99554883233242,31.854708707215348],[95.27144386144802,32.63335500214431],[94.37593358967013,33.272373501949836],[93.34385315404158,33.74720708405009],[92.21670139980036,34.0396081601747],[91.04076239774224,34.13833992094862],[89.86482339568413,34.0396081601747],[88.7376716414429,33.74720708405009],[87.70559120581436,33.272373501949836],[86.81008093403646,32.63335500214431],[86.08597596315207,31.854708707215345],[85.56008856974856,30.966357557607182],[85.25040690577012,30.002440389806193],[85.16582054700977,29.0]]]},"properties":{"kind":"display","issued":"2019-05-03T12:00:00Z","issuedIst":"2019-05-03T17:30:00+05:30","operating":false,"centreLon":86.375,"centreLat":21.0,"mslpHpa":985.0,"speedKmh":21.0,"headingDeg":28.0,"leadsH":[3,6,9,12,15,18,21,24,27,30,33,36,39,42,45,48],"maxRadiusKm":572.0}}]}