{"type":"FeatureCollection","case":"kendrapara","event":"Cyclone Fani, 2-3 May 2019","window":["2019-05-02","2019-05-04"],"note":"IMD 24 h category ratios scaled by 0.6 and applied to GPM IMERG V07 observed rainfall. NOT IMD categories and NOT the warning IMD issued.","features":[{"type":"Feature","geometry":{"type":"Polygon","coordinates":[[[93.0447,23.4105],[92.9468,23.5136],[92.881,23.5191],[92.7816,23.2992],[92.6899,23.328],[92.6731,23.383],[92.6547,23.5178],[92.6746,23.6236],[92.6257,23.7968],[92.6608,23.8326],[92.6272,23.9536],[92.8474,24.0264],[92.9024,24.2216],[92.8612,24.3137],[92.8963,24.3907],[93.0095,24.4127],[93.0233,24.234],[92.9759,24.1158],[93.2068,24.047],[93.1502,23.8106],[93.0447,23.7652],[93.0462,23.6662],[93.0447,23.4105]]]},"properties":{"name":"Aizawl","state":"Mizoram","warning":"YELLOW","category":"Lowest band, 39-68 mm/24h observed","maxMm24h":45.8}},{"type":"Feature","geometry":{"type":"Polygon","coordinates":[[[92.8963,24.3907],[92.8612,24.3137],[92.9024,24.2216],[92.8474,24.0264],[92.6272,23.9536],[92.6318,24.0292],[92.5385,24.1103],[92.5324,24.1776],[92.5507,24.2478],[92.6119,24.256],[92.6257,24.3316],[92.6899,24.3536],[92.7618,24.5131],[92.8,24.4196],[92.8963,24.3907]]]},"properties":{"name":"Kolasib","state":"Mizoram","warning":"YELLOW","category":"Lowest band, 39-68 mm/24h observed","maxMm24h":45.8}},{"type":"Feature","geometry":{"type":"Polygon","coordinates":[[[86.6221,20.7957],[86.5991,20.8549],[86.4952,20.8672],[86.3606,20.848],[86.2811,20.9085],[86.2857,21.0157],[86.3667,21.237],[86.515,21.1353],[86.6527,21.1078],[86.6725,21.1697],[86.801,21.2302],[86.8591,21.2137],[86.853,21.0941],[86.9768,20.8604],[86.9677,20.7916],[86.8652,20.7834],[86.8056,20.7353],[86.7597,20.7669],[86.6221,20.7957]]]},"properties":{"name":"Bhadrak","state":"Odisha","warning":"ORANGE","category":"Middle band, 69-122 mm/24h observed","maxMm24h":92.3}},{"type":"Feature","geometry":{"type":"Polygon","coordinates":[[[85.7122,21.1381],[85.7504,20.9923],[85.8452,20.9332],[85.9171,20.9277],[85.8988,20.8466],[86.0303,20.8095],[85.9156,20.7009],[85.8881,20.6583],[85.7871,20.672],[85.7061,20.6239],[85.6556,20.5497],[85.5853,20.5139],[85.5042,20.5359],[85.4568,20.485],[85.2519,20.518],[85.1265,20.6156],[85.1143,20.683],[85.1892,20.7009],[85.255,20.7957],[85.2305,21.0721],[85.2718,21.1752],[85.3941,21.1834],[85.4981,21.1147],[85.5455,21.1669],[85.7061,21.1683],[85.7122,21.1381]]]},"properties":{"name":"Dhenkanal","state":"Odisha","warning":"RED","category":"Highest band, >= 123 mm/24h observed","maxMm24h":128.0}},{"type":"Feature","geometry":{"type":"Polygon","coordinates":[[[86.2857,21.0157],[86.2811,20.9085],[86.3606,20.848],[86.4952,20.8672],[86.5991,20.8549],[86.6221,20.7957],[86.564,20.7751],[86.5257,20.6885],[86.4523,20.6748],[86.3774,20.5937],[86.2795,20.5813],[86.145,20.6418],[86.041,20.5923],[85.9156,20.7009],[86.0303,20.8095],[85.8988,20.8466],[85.9171,20.9277],[85.8452,20.9332],[85.7504,20.9923],[85.7122,21.1381],[85.8223,21.0913],[85.9171,21.0927],[86.0272,21.1381],[86.0502,21.0212],[86.1343,21.0762],[86.2857,21.0157]]]},"properties":{"name":"Jajpur","state":"Odisha","warning":"RED","category":"Highest band, >= 123 mm/24h observed","maxMm24h":128.0}},{"type":"Feature","geometry":{"type":"Polygon","coordinates":[[[83.6019,20.5304],[83.6845,20.5593],[83.7579,20.7174],[83.7625,20.7806],[83.8374,20.826],[83.9368,20.8425],[84.0408,20.8205],[84.1922,20.8892],[84.2671,20.881],[84.3482,20.8329],[84.3604,20.7655],[84.5607,20.6899],[84.6387,20.6239],[84.7672,20.6033],[84.6815,20.4328],[84.5103,20.3957],[84.3879,20.5304],[84.3696,20.6514],[84.2763,20.672],[84.2258,20.5813],[83.8741,20.5827],[83.7961,20.5084],[83.8145,20.4356],[83.6662,20.4218],[83.5836,20.4878],[83.6019,20.5304]]]},"properties":{"name":"Boudh","state":"Odisha","warning":"YELLOW","category":"Lowest band, 39-68 mm/24h observed","maxMm24h":65.6}},{"type":"Feature","geometry":{"type":"Polygon","coordinates":[[[85.1265,20.6156],[85.2519,20.518],[85.4568,20.485],[85.5042,20.5359],[85.5853,20.5139],[85.6556,20.5497],[85.7061,20.6239],[85.7871,20.672],[85.8881,20.6583],[85.9156,20.7009],[86.041,20.5923],[86.145,20.6418],[86.2795,20.5813],[86.249,20.5387],[86.2734,20.3874],[86.249,20.3654],[86.0104,20.3778],[86.0395,20.2871],[86.1511,20.2142],[86.1419,20.1441],[86.1817,20.0534],[86.1251,20.0369],[86.0807,20.1042],[85.8789,20.3572],[85.7856,20.4342],[85.7168,20.4039],[85.6235,20.2926],[85.5241,20.3063],[85.3299,20.2788],[85.3666,20.3668],[85.1586,20.3792],[84.8482,20.5277],[84.8972,20.5827],[85.0745,20.5813],[85.1265,20.6156]]]},"properties":{"name":"Cuttack","state":"Odisha","warning":"RED","category":"Highest band, >= 123 mm/24h observed","maxMm24h":125.1}},{"type":"Feature","geometry":{"type":"Polygon","coordinates":[[[83.6509,20.3888],[83.6662,20.4218],[83.8145,20.4356],[83.7961,20.5084],[83.8741,20.5827],[84.2258,20.5813],[84.2763,20.672],[84.3696,20.6514],[84.3879,20.5304],[84.5103,20.3957],[84.5424,20.2513],[84.5867,20.1744],[84.4873,20.1414],[84.4537,20.1675],[84.3635,20.0259],[84.3895,19.9558],[84.4629,19.953],[84.4613,19.8568],[84.3788,19.8458],[84.2748,19.8802],[84.1845,19.8609],[84.1601,19.7386],[84.2396,19.6657],[84.2335,19.5736],[84.1295,19.63],[83.9399,19.6354],[83.8451,19.7097],[83.7671,19.7166],[83.6478,19.6574],[83.6187,19.8142],[83.5285,19.8554],[83.5606,19.9296],[83.4964,19.9599],[83.5882,20.0987],[83.7105,20.1015],[83.7824,20.2128],[83.7197,20.2376],[83.7059,20.3682],[83.6509,20.3888]]]},"properties":{"name":"Kandhamal","state":"Odisha","warning":"YELLOW","category":"Lowest band, 39-68 mm/24h observed","maxMm24h":60.0}},{"type":"Feature","geometry":{"type":"Polygon","coordinates":[[[84.5103,20.3957],[84.6815,20.4328],[84.7672,20.6033],[84.8482,20.5277],[85.1586,20.3792],[85.3666,20.3668],[85.3299,20.2788],[85.3223,20.2293],[85.2229,20.2211],[85.2122,20.1317],[85.362,20.1881],[85.3804,20.0712],[85.4553,19.9709],[85.4186,19.9241],[85.1617,19.9049],[85.1235,19.9338],[84.94,19.898],[84.9017,19.9915],[84.7978,20.0905],[84.8314,20.217],[84.7045,20.2788],[84.5867,20.1744],[84.5424,20.2513],[84.5103,20.3957]]]},"properties":{"name":"Nayagarh","state":"Odisha","warning":"RED","category":"Highest band, >= 123 mm/24h observed","maxMm24h":126.2}},{"type":"Feature","geometry":{"type":"Polygon","coordinates":[[[85.3299,20.2788],[85.5241,20.3063],[85.6235,20.2926],[85.7168,20.4039],[85.7856,20.4342],[85.8789,20.3572],[86.0807,20.1042],[85.8988,20.1097],[85.8865,20.184],[85.703,20.1427],[85.6786,20.0671],[85.5516,19.9626],[85.5639,19.8527],[85.4385,19.8829],[85.3299,19.7853],[85.2519,19.7674],[85.1831,19.6726],[85.1372,19.7386],[85.0042,19.8045],[84.94,19.898],[85.1235,19.9338],[85.1617,19.9049],[85.4186,19.9241],[85.4553,19.9709],[85.3804,20.0712],[85.362,20.1881],[85.2122,20.1317],[85.2229,20.2211],[85.3223,20.2293],[85.3299,20.2788]]]},"properties":{"name":"Khordha","state":"Odisha","warning":"RED","category":"Highest band, >= 123 mm/24h observed","maxMm24h":126.1}},{"type":"Feature","geometry":{"type":"Polygon","coordinates":[[[86.1817,20.0534],[86.1419,20.1441],[86.1511,20.2142],[86.0395,20.2871],[86.0104,20.3778],[86.249,20.3654],[86.3942,20.3654],[86.4523,20.3297],[86.6037,20.3407],[86.723,20.2981],[86.7765,20.3352],[86.6802,20.2637],[86.5334,20.1812],[86.3698,19.9819],[86.2704,20.041],[86.1817,20.0534]]]},"properties":{"name":"Jagatsinghpur","state":"Odisha","warning":"ORANGE","category":"Middle band, 69-122 mm/24h observed","maxMm24h":100.8}},{"type":"Feature","geometry":{"type":"Polygon","coordinates":[[[86.0807,20.1042],[86.1251,20.0369],[86.1817,20.0534],[86.2704,20.041],[86.3698,19.9819],[86.2275,19.9008],[85.885,19.8128],[85.6786,19.7454],[85.3528,19.5887],[85.1724,19.4677],[85.1831,19.6726],[85.2519,19.7674],[85.3299,19.7853],[85.4385,19.8829],[85.5639,19.8527],[85.5516,19.9626],[85.6786,20.0671],[85.703,20.1427],[85.8865,20.184],[85.8988,20.1097],[86.0807,20.1042]]]},"properties":{"name":"Puri","state":"Odisha","warning":"RED","category":"Highest band, >= 123 mm/24h observed","maxMm24h":126.3}},{"type":"Feature","geometry":{"type":"Polygon","coordinates":[[[83.4964,19.9599],[83.5606,19.9296],[83.5285,19.8554],[83.6187,19.8142],[83.6478,19.6574],[83.7671,19.7166],[83.8451,19.7097],[83.9399,19.6354],[83.9796,19.531],[83.9475,19.3962],[84.0148,19.377],[84.0209,19.2904],[83.9796,19.2134],[84.0332,19.1323],[83.9506,18.9976],[83.7931,19.0182],[83.7472,18.9934],[83.7564,18.911],[83.6631,19.0993],[83.608,19.0965],[83.4811,19.0347],[83.4597,18.9563],[83.3481,19.0182],[83.2793,19.1227],[83.2349,19.0264],[83.1355,19.1364],[83.0224,19.0608],[83.0055,19.1213],[82.871,19.1955],[82.9184,19.2381],[82.9795,19.4499],[83.0698,19.5612],[83.186,19.4567],[83.264,19.5475],[83.3695,19.6203],[83.4536,19.7372],[83.4047,19.9214],[83.4964,19.9599]]]},"properties":{"name":"Rayagada","state":"Odisha","warning":"YELLOW","category":"Lowest band, 39-68 mm/24h observed","maxMm24h":58.7}},{"type":"Feature","geometry":{"type":"Polygon","coordinates":[[[82.8557,19.2052],[82.871,19.1955],[83.0055,19.1213],[83.0224,19.0608],[83.1355,19.1364],[83.2349,19.0264],[83.2793,19.1227],[83.3481,19.0182],[83.3175,18.9742],[83.4123,18.8738],[83.2043,18.7529],[83.1355,18.7859],[82.9994,18.6085],[83.0438,18.5453],[83.0193,18.4573],[83.0774,18.4037],[82.9688,18.3611],[82.8939,18.3817],[82.8068,18.4518],[82.7731,18.3418],[82.5865,18.2772],[82.6064,18.3666],[82.4856,18.5288],[82.4275,18.4862],[82.4153,18.5631],[82.3633,18.6236],[82.3128,18.5755],[82.1706,18.6388],[82.0911,18.7377],[82.1584,18.7886],[82.1767,18.9027],[82.2455,18.9192],[82.2058,19.1213],[82.3526,19.1845],[82.4015,19.1653],[82.5177,19.2024],[82.6156,19.1584],[82.7012,19.1914],[82.8037,19.1515],[82.8557,19.2052]]]},"properties":{"name":"Koraput","state":"Odisha","warning":"YELLOW","category":"Lowest band, 39-68 mm/24h observed","maxMm24h":50.0}},{"type":"Feature","geometry":{"type":"Polygon","coordinates":[[[83.7564,18.911],[83.7472,18.9934],[83.7931,19.0182],[83.8909,18.8161],[84.0362,18.8175],[84.0897,18.7584],[84.2243,18.7996],[84.3191,18.7886],[84.4353,18.9247],[84.4231,18.9494],[84.5149,19.0498],[84.5913,19.0237],[84.6234,19.0855],[84.7014,19.1185],[84.7641,19.0745],[84.6035,18.8903],[84.5516,18.79],[84.4934,18.7405],[84.3543,18.5549],[84.1478,18.3734],[84.128,18.3129],[83.9353,18.2085],[83.6631,18.0792],[83.6035,18.1576],[83.6738,18.2827],[83.5851,18.3542],[83.5805,18.4999],[83.6325,18.5563],[83.5484,18.5961],[83.5377,18.7102],[83.6891,18.8065],[83.813,18.8367],[83.7564,18.911]]]},"properties":{"name":"Srikakulam","state":"Andhra Pradesh","warning":"ORANGE","category":"Middle band, 69-122 mm/24h observed","maxMm24h":111.3}},{"type":"Feature","geometry":{"type":"Polygon","coordinates":[[[83.3481,19.0182],[83.4597,18.9563],[83.4811,19.0347],[83.608,19.0965],[83.6631,19.0993],[83.7564,18.911],[83.813,18.8367],[83.6891,18.8065],[83.5377,18.7102],[83.5484,18.5961],[83.6325,18.5563],[83.5805,18.4999],[83.5851,18.3542],[83.6738,18.2827],[83.6035,18.1576],[83.6631,18.0792],[83.5194,17.95],[83.4062,17.9637],[83.4031,18.0572],[83.2732,18.0077],[83.2059,17.8469],[83.1462,17.8455],[83.1111,17.939],[83.0071,17.9775],[83.0071,18.0352],[83.1523,18.1906],[83.267,18.2167],[83.0774,18.4037],[83.0193,18.4573],[83.0438,18.5453],[82.9994,18.6085],[83.1355,18.7859],[83.2043,18.7529],[83.4123,18.8738],[83.3175,18.9742],[83.3481,19.0182]]]},"properties":{"name":"Vizianagaram","state":"Andhra Pradesh","warning":"ORANGE","category":"Middle band, 69-122 mm/24h observed","maxMm24h":86.8}},{"type":"Feature","geometry":{"type":"Polygon","coordinates":[[[82.4275,18.4862],[82.4856,18.5288],[82.6064,18.3666],[82.5865,18.2772],[82.7731,18.3418],[82.8068,18.4518],[82.8939,18.3817],[82.9688,18.3611],[83.0774,18.4037],[83.267,18.2167],[83.1523,18.1906],[83.0071,18.0352],[83.0071,17.9775],[83.1111,17.939],[83.1462,17.8455],[83.2059,17.8469],[83.2732,18.0077],[83.4031,18.0572],[83.4062,17.9637],[83.5194,17.95],[83.42,17.8565],[83.3466,17.7259],[83.1615,17.5596],[83.0208,17.5073],[82.9918,17.473],[82.7028,17.3437],[82.5422,17.2489],[82.5177,17.2984],[82.6034,17.4551],[82.4657,17.517],[82.4107,17.4675],[82.3449,17.495],[82.3036,17.5898],[82.2287,17.6393],[82.0024,17.6393],[82.0162,17.7534],[81.9611,17.818],[82.0299,17.939],[81.9795,18.0132],[82.0315,18.0696],[82.1676,18.0531],[82.2501,17.9926],[82.3189,18.0449],[82.3511,18.1727],[82.3144,18.1851],[82.3832,18.3679],[82.3618,18.4215],[82.4275,18.4862]]]},"properties":{"name":"Visakhapatnam","state":"Andhra Pradesh","warning":"ORANGE","category":"Middle band, 69-122 mm/24h observed","maxMm24h":73.3}},{"type":"Feature","geometry":{"type":"MultiPolygon","coordinates":[[[[88.1253,21.6742],[88.032,21.688],[88.1039,21.8419],[88.1666,21.8227],[88.1711,21.7374],[88.1253,21.6742]]],[[[89.0153,21.7787],[89.0932,21.6522],[89.0382,21.611],[89.0153,21.7787]]],[[[88.0824,22.2612],[88.0901,22.363],[88.1696,22.4826],[88.2384,22.5444],[88.3424,22.5046],[88.4143,22.5568],[88.5213,22.5623],[88.5611,22.6242],[88.6238,22.5802],[88.7033,22.4344],[88.8226,22.3712],[88.8042,22.3286],[89.055,22.1279],[89.0688,21.9492],[89.0076,21.9024],[88.9327,21.9423],[88.8532,21.923],[88.7629,21.9547],[88.7629,22.0151],[88.633,21.9547],[88.532,21.8529],[88.4449,21.9175],[88.3913,21.8969],[88.3592,21.8048],[88.2675,21.7278],[88.3027,21.6701],[88.2598,21.556],[88.2124,21.7828],[88.1451,21.9547],[88.2078,22.0261],[88.2185,22.1031],[88.1834,22.187],[88.0824,22.2612]]],[[[88.7767,21.8681],[88.8088,21.6687],[88.7461,21.6618],[88.6911,21.7512],[88.7155,21.9052],[88.7767,21.8681]]],[[[88.9434,21.9148],[88.948,21.7691],[88.821,21.9272],[88.8822,21.9134],[88.9434,21.9148]]]]},"properties":{"name":"South 24 Parganas","state":"West Bengal","warning":"ORANGE","category":"Middle band, 69-122 mm/24h observed","maxMm24h":101.2}},{"type":"Feature","geometry":{"type":"Polygon","coordinates":[[[85.3941,21.1834],[85.2718,21.1752],[85.2305,21.0721],[85.255,20.7957],[85.1892,20.7009],[85.1143,20.683],[85.1265,20.6156],[85.0745,20.5813],[84.8972,20.5827],[84.8482,20.5277],[84.7672,20.6033],[84.6387,20.6239],[84.5607,20.6899],[84.3604,20.7655],[84.3482,20.8329],[84.2671,20.881],[84.2794,20.9222],[84.3742,20.9552],[84.4812,21.0803],[84.5852,21.0611],[84.6678,21.0927],[84.7442,21.1697],[84.8773,21.1642],[84.94,21.1958],[84.8972,21.2604],[85.0118,21.2975],[84.992,21.4116],[85.0256,21.4474],[85.1541,21.4625],[85.203,21.5216],[85.1449,21.5945],[85.1908,21.6605],[85.255,21.6742],[85.3345,21.4817],[85.3039,21.4158],[85.3421,21.3663],[85.284,21.2989],[85.3941,21.1834]]]},"properties":{"name":"Angul","state":"Odisha","warning":"ORANGE","category":"Middle band, 69-122 mm/24h observed","maxMm24h":107.2}},{"type":"Feature","geometry":{"type":"Polygon","coordinates":[[[86.6221,20.7957],[86.7597,20.7669],[86.8056,20.7353],[86.8606,20.7751],[87.0227,20.771],[87.0564,20.7146],[86.7888,20.5345],[86.7368,20.4617],[86.7765,20.3352],[86.723,20.2981],[86.6037,20.3407],[86.4523,20.3297],[86.3942,20.3654],[86.249,20.3654],[86.2734,20.3874],[86.249,20.5387],[86.2795,20.5813],[86.3774,20.5937],[86.4523,20.6748],[86.5257,20.6885],[86.564,20.7751],[86.6221,20.7957]]]},"properties":{"name":"Kendrapara","state":"Odisha","warning":"ORANGE","category":"Middle band, 69-122 mm/24h observed","maxMm24h":92.1}},{"type":"Feature","geometry":{"type":"Polygon","coordinates":[[[84.2335,19.5736],[84.2396,19.6657],[84.1601,19.7386],[84.1845,19.8609],[84.2748,19.8802],[84.3788,19.8458],[84.4613,19.8568],[84.4629,19.953],[84.3895,19.9558],[84.3635,20.0259],[84.4537,20.1675],[84.4873,20.1414],[84.5867,20.1744],[84.7045,20.2788],[84.8314,20.217],[84.7978,20.0905],[84.9017,19.9915],[84.94,19.898],[85.0042,19.8045],[85.1372,19.7386],[85.1831,19.6726],[85.1724,19.4677],[85.0791,19.3756],[84.9813,19.3165],[84.8115,19.157],[84.7656,19.0773],[84.7014,19.1185],[84.6234,19.0855],[84.5913,19.0237],[84.5149,19.0498],[84.4231,18.9494],[84.3543,19.0086],[84.3864,19.1213],[84.3604,19.1887],[84.4262,19.2601],[84.4216,19.3481],[84.3788,19.3852],[84.3742,19.4884],[84.4017,19.575],[84.3359,19.5942],[84.2335,19.5736]]]},"properties":{"name":"Ganjam","state":"Odisha","warning":"RED","category":"Highest band, >= 123 mm/24h observed","maxMm24h":136.8}},{"type":"Feature","geometry":{"type":"Polygon","coordinates":[[[83.9399,19.6354],[84.1295,19.63],[84.2335,19.5736],[84.3359,19.5942],[84.4017,19.575],[84.3742,19.4884],[84.3788,19.3852],[84.4216,19.3481],[84.4262,19.2601],[84.3604,19.1887],[84.3864,19.1213],[84.3543,19.0086],[84.4231,18.9494],[84.4353,18.9247],[84.3191,18.7886],[84.2243,18.7996],[84.0897,18.7584],[84.0362,18.8175],[83.8909,18.8161],[83.7931,19.0182],[83.9506,18.9976],[84.0332,19.1323],[83.9796,19.2134],[84.0209,19.2904],[84.0148,19.377],[83.9475,19.3962],[83.9796,19.531],[83.9399,19.6354]]]},"properties":{"name":"Gajapati","state":"Odisha","warning":"ORANGE","category":"Middle band, 69-122 mm/24h observed","maxMm24h":93.1}},{"type":"Feature","geometry":{"type":"Polygon","coordinates":[[[87.5228,22.928],[87.5105,22.8977],[87.6298,22.8125],[87.7414,22.7768],[87.8133,22.6145],[87.8531,22.5953],[87.8928,22.5197],[87.6466,22.4358],[87.6466,22.3327],[87.7231,22.319],[87.7017,22.1265],[87.5381,22.0825],[87.4601,22.0083],[87.4769,21.8997],[87.4417,21.7677],[87.2827,21.8034],[87.249,21.8543],[87.2429,21.9643],[87.1374,22.1265],[87.1818,22.1911],[87.2047,22.3038],[87.1619,22.4248],[87.0824,22.4716],[87.0992,22.6943],[87.0762,22.7259],[87.064,22.851],[87.2705,22.9032],[87.3576,22.9541],[87.457,22.9129],[87.5228,22.928]]]},"properties":{"name":"Paschim Medinipur","state":"West Bengal","warning":"ORANGE","category":"Middle band, 69-122 mm/24h observed","maxMm24h":96.7}},{"type":"Feature","geometry":{"type":"Polygon","coordinates":[[[87.4417,21.7677],[87.4769,21.8997],[87.4601,22.0083],[87.5381,22.0825],[87.7017,22.1265],[87.7231,22.319],[87.6466,22.3327],[87.6466,22.4358],[87.8928,22.5197],[87.9372,22.4221],[87.9525,22.2764],[87.9983,22.2447],[88.0152,22.2021],[88.136,22.1856],[88.1864,22.1045],[88.0641,22.0179],[87.9555,21.8309],[87.7888,21.699],[87.6742,21.6508],[87.4845,21.6151],[87.4417,21.7677]]]},"properties":{"name":"Purba Medinipur","state":"West Bengal","warning":"ORANGE","category":"Middle band, 69-122 mm/24h observed","maxMm24h":76.0}},{"type":"Feature","geometry":{"type":"Polygon","coordinates":[[[86.7276,22.2159],[86.8377,22.0976],[86.9646,22.0853],[87.0288,22.0385],[87.0013,21.9134],[87.1007,21.8639],[87.1588,21.7718],[87.0457,21.7141],[87.0059,21.6013],[86.7398,21.6055],[86.6481,21.5807],[86.5823,21.523],[86.5303,21.4268],[86.3606,21.303],[86.2688,21.38],[86.2092,21.281],[86.1159,21.2728],[86.1067,21.3498],[86.1648,21.424],[86.1312,21.4707],[86.0089,21.534],[86.0807,21.6288],[86.0257,21.6948],[85.8758,21.7952],[85.8116,21.8103],[85.7963,21.9505],[85.6709,22.0138],[85.6832,22.0578],[85.7489,22.0743],[85.7841,21.9849],[85.8972,21.9835],[86.0089,22.1155],[86.0318,22.1897],[85.9737,22.2475],[86.0287,22.3341],[86.018,22.4262],[85.963,22.4853],[86.067,22.5568],[86.119,22.4867],[86.2826,22.4482],[86.3591,22.3492],[86.4294,22.3162],[86.4967,22.3465],[86.5548,22.2983],[86.7276,22.2159]]]},"properties":{"name":"Mayurbhanj","state":"Odisha","warning":"ORANGE","category":"Middle band, 69-122 mm/24h observed","maxMm24h":113.7}},{"type":"Feature","geometry":{"type":"Polygon","coordinates":[[[85.1908,21.6605],[85.1449,21.5945],[85.0485,21.5903],[85.0256,21.6728],[84.7901,21.6687],[84.6907,21.71],[84.6617,21.7608],[84.5883,21.7581],[84.5256,21.8144],[84.5103,22.0578],[84.4766,22.1897],[84.2671,22.1045],[84.2702,22.0151],[84.0699,21.989],[83.9781,21.9052],[83.8971,21.945],[83.7197,21.7856],[83.5912,21.8254],[83.5392,21.9657],[83.5377,22.0454],[83.6279,22.2035],[83.8023,22.2942],[83.8634,22.3437],[84.0102,22.3712],[84.0469,22.4688],[84.0118,22.5279],[84.1111,22.4771],[84.1968,22.3781],[84.2916,22.3423],[84.4292,22.352],[84.5347,22.4276],[84.7503,22.4193],[84.81,22.4537],[84.9583,22.4454],[85.0699,22.4908],[85.0776,22.2571],[85.0287,22.1224],[85.1801,22.0729],[85.2382,22.0096],[85.2794,21.9588],[85.3773,21.9354],[85.3406,21.8254],[85.2902,21.8378],[85.1999,21.7622],[85.1908,21.6605]]]},"properties":{"name":"Sundargarh","state":"Odisha","warning":"ORANGE","category":"Middle band, 69-122 mm/24h observed","maxMm24h":74.3}},{"type":"Feature","geometry":{"type":"Polygon","coordinates":[[[86.3667,21.237],[86.2857,21.0157],[86.1343,21.0762],[86.0502,21.0212],[86.0272,21.1381],[85.9171,21.0927],[85.8223,21.0913],[85.7122,21.1381],[85.7061,21.1683],[85.5455,21.1669],[85.4981,21.1147],[85.3941,21.1834],[85.284,21.2989],[85.3421,21.3663],[85.3039,21.4158],[85.3345,21.4817],[85.255,21.6742],[85.1908,21.6605],[85.1999,21.7622],[85.2902,21.8378],[85.3406,21.8254],[85.3773,21.9354],[85.2794,21.9588],[85.2382,22.0096],[85.2749,22.0825],[85.3972,22.1636],[85.6832,22.0578],[85.6709,22.0138],[85.7963,21.9505],[85.8116,21.8103],[85.8758,21.7952],[86.0257,21.6948],[86.0807,21.6288],[86.0089,21.534],[86.1312,21.4707],[86.1648,21.424],[86.1067,21.3498],[86.1159,21.2728],[86.2092,21.281],[86.2688,21.38],[86.3606,21.303],[86.3667,21.237]]]},"properties":{"name":"Kendujhar","state":"Odisha","warning":"ORANGE","category":"Middle band, 69-122 mm/24h observed","maxMm24h":118.1}},{"type":"Feature","geometry":{"type":"Polygon","coordinates":[[[86.8591,21.2137],[86.801,21.2302],[86.6725,21.1697],[86.6527,21.1078],[86.515,21.1353],[86.3667,21.237],[86.3606,21.303],[86.5303,21.4268],[86.5823,21.523],[86.6481,21.5807],[86.7398,21.6055],[87.0059,21.6013],[87.0457,21.7141],[87.1588,21.7718],[87.1007,21.8639],[87.1084,21.9244],[87.2429,21.9643],[87.249,21.8543],[87.2827,21.8034],[87.4417,21.7677],[87.4845,21.6151],[87.4081,21.545],[87.22,21.5354],[87.1481,21.5092],[86.9493,21.358],[86.8591,21.2137]]]},"properties":{"name":"Balasore","state":"Odisha","warning":"ORANGE","category":"Middle band, 69-122 mm/24h observed","maxMm24h":91.2}},{"type":"Feature","geometry":{"type":"Polygon","coordinates":[[[87.0762,22.7259],[87.0992,22.6943],[87.0824,22.4716],[87.1619,22.4248],[87.2047,22.3038],[87.1818,22.1911],[87.1374,22.1265],[87.2429,21.9643],[87.1084,21.9244],[87.1007,21.8639],[87.0013,21.9134],[87.0288,22.0385],[86.9646,22.0853],[86.8377,22.0976],[86.7276,22.2159],[86.8331,22.3258],[86.8453,22.4001],[86.7643,22.4262],[86.801,22.4881],[86.7658,22.576],[86.6588,22.576],[86.642,22.6572],[86.5594,22.7135],[86.6098,22.7988],[86.6955,22.7685],[86.8943,22.6517],[87.0151,22.6503],[87.0762,22.7259]]]},"properties":{"name":"Jhargram","state":"West Bengal","warning":"ORANGE","category":"Middle band, 69-122 mm/24h observed","maxMm24h":101.0}},{"type":"Feature","geometry":{"type":"Polygon","coordinates":[[[85.1449,21.5945],[85.203,21.5216],[85.1541,21.4625],[85.0256,21.4474],[84.992,21.4116],[85.0118,21.2975],[84.8972,21.2604],[84.94,21.1958],[84.8773,21.1642],[84.7442,21.1697],[84.7611,21.2769],[84.7106,21.3181],[84.5668,21.2494],[84.547,21.3731],[84.4032,21.3786],[84.4093,21.4762],[84.5363,21.567],[84.5026,21.6825],[84.6311,21.6976],[84.6617,21.7608],[84.6907,21.71],[84.7901,21.6687],[85.0256,21.6728],[85.0485,21.5903],[85.1449,21.5945]]]},"properties":{"name":"Deogarh","state":"Odisha","warning":"ORANGE","category":"Middle band, 69-122 mm/24h observed","maxMm24h":74.3}},{"type":"Feature","geometry":{"type":"Polygon","coordinates":[[[84.2794,20.9222],[84.2381,20.9222],[84.1433,21.0336],[84.0179,21.0514],[83.9842,21.1312],[83.894,21.1752],[83.9108,21.2384],[83.8726,21.3044],[83.8864,21.4378],[83.7992,21.5629],[83.9674,21.5807],[83.9812,21.7801],[84.0897,21.7704],[84.2381,21.8062],[84.2885,21.7718],[84.3742,21.956],[84.3589,22.0371],[84.2702,22.0151],[84.2671,22.1045],[84.4766,22.1897],[84.5103,22.0578],[84.5256,21.8144],[84.5883,21.7581],[84.6617,21.7608],[84.6311,21.6976],[84.5026,21.6825],[84.5363,21.567],[84.4093,21.4762],[84.4032,21.3786],[84.547,21.3731],[84.5668,21.2494],[84.7106,21.3181],[84.7611,21.2769],[84.7442,21.1697],[84.6678,21.0927],[84.5852,21.0611],[84.4812,21.0803],[84.3742,20.9552],[84.2794,20.9222]]]},"properties":{"name":"Sambalpur","state":"Odisha","warning":"YELLOW","category":"Lowest band, 39-68 mm/24h observed","maxMm24h":50.9}},{"type":"Feature","geometry":{"type":"Polygon","coordinates":[[[94.4011,28.339],[94.3567,28.1988],[94.3919,28.0833],[94.4852,28.0215],[94.5953,27.8702],[94.3185,27.7726],[94.1931,27.8111],[94.1487,27.8661],[94.0738,27.8496],[94.0677,27.939],[93.9622,27.9788],[93.8551,28.0819],[93.8918,28.1287],[93.8398,28.2373],[93.6793,28.3225],[93.612,28.2717],[93.456,28.2717],[93.3367,28.3528],[93.2236,28.3418],[93.1823,28.4325],[93.2786,28.504],[93.3398,28.6401],[93.4927,28.6841],[93.6227,28.6566],[93.846,28.7075],[93.9622,28.713],[94.0233,28.6511],[94.0019,28.5782],[94.109,28.5219],[94.1487,28.4394],[94.242,28.4462],[94.3292,28.3583],[94.4011,28.339]]]},"properties":{"name":"Upper Subansiri","state":"Arunachal Pradesh","warning":"ORANGE","category":"Middle band, 69-122 mm/24h observed","maxMm24h":81.6}},{"type":"Feature","geometry":{"type":"Polygon","coordinates":[[[95.7743,27.7328],[95.7804,27.6214],[95.8737,27.5444],[95.8828,27.4358],[95.9409,27.4372],[96.0159,27.3684],[95.9593,27.3107],[95.8568,27.2708],[95.7422,27.2667],[95.6336,27.231],[95.5342,27.264],[95.4837,27.242],[95.4455,27.2942],[95.4745,27.3671],[95.3094,27.3891],[95.2207,27.4441],[95.2283,27.499],[95.3186,27.587],[95.2696,27.6805],[95.392,27.7273],[95.5143,27.8799],[95.5189,27.884],[95.6061,27.9555],[95.8186,27.972],[95.97,27.9596],[95.7743,27.7328]]]},"properties":{"name":"Tinsukia","state":"Assam","warning":"YELLOW","category":"Lowest band, 39-68 mm/24h observed","maxMm24h":50.3}},{"type":"Feature","geometry":{"type":"Polygon","coordinates":[[[96.6994,27.6599],[96.8615,27.631],[96.9349,27.5087],[96.9028,27.4523],[96.9624,27.4014],[97.0909,27.2131],[97.1643,27.1416],[97.0634,27.0921],[96.9839,27.154],[96.86,27.1897],[96.8845,27.2598],[96.7973,27.3464],[96.6061,27.3657],[96.5083,27.2983],[96.3064,27.2942],[96.0893,27.2227],[96.022,27.1801],[95.9455,27.0509],[95.8018,27.0151],[95.7452,26.8955],[95.684,26.9038],[95.681,26.9849],[95.629,27.0275],[95.6672,27.1719],[95.6336,27.231],[95.7422,27.2667],[95.8568,27.2708],[95.9593,27.3107],[96.0159,27.3684],[95.9409,27.4372],[95.8828,27.4358],[95.8737,27.5444],[96.0021,27.5568],[96.0618,27.6063],[96.2254,27.5678],[96.311,27.5705],[96.3722,27.6448],[96.6413,27.6283],[96.6994,27.6599]]]},"properties":{"name":"Changlang","state":"Arunachal Pradesh","warning":"YELLOW","category":"Lowest band, 39-68 mm/24h observed","maxMm24h":50.3}},{"type":"Feature","geometry":{"type":"Polygon","coordinates":[[[92.014,27.4894],[91.9406,27.4606],[91.6546,27.4825],[91.5644,27.5843],[91.5598,27.6338],[91.6256,27.7053],[91.6302,27.8015],[91.8259,27.8097],[91.881,27.7218],[91.9865,27.7699],[92.0568,27.7589],[92.1577,27.8372],[92.2571,27.862],[92.3091,27.7795],[92.4682,27.8152],[92.4605,27.7822],[92.3932,27.6723],[92.222,27.6269],[92.1119,27.5252],[92.014,27.4894]]]},"properties":{"name":"Tawang","state":"Arunachal Pradesh","warning":"YELLOW","category":"Lowest band, 39-68 mm/24h observed","maxMm24h":39.4}},{"type":"Feature","geometry":{"type":"Polygon","coordinates":[[[93.9423,27.5114],[94.1059,27.4935],[94.2191,27.5045],[93.9912,27.3286],[93.8062,27.1485],[93.8291,27.0674],[93.6976,26.9945],[93.6655,26.9684],[93.4713,26.9368],[93.3979,26.9574],[93.3398,26.9931],[93.3123,27.0797],[93.2144,27.1375],[93.3123,27.1732],[93.2251,27.2516],[93.3306,27.3547],[93.3704,27.4152],[93.2297,27.6035],[93.3291,27.6695],[93.5141,27.6503],[93.5432,27.6214],[93.6181,27.532],[93.5676,27.4715],[93.5998,27.3671],[93.6655,27.3368],[93.8353,27.3629],[93.8521,27.4647],[93.9423,27.5114]]]},"properties":{"name":"Papum Pare","state":"Arunachal Pradesh","warning":"YELLOW","category":"Lowest band, 39-68 mm/24h observed","maxMm24h":53.0}},{"type":"Feature","geometry":{"type":"Polygon","coordinates":[[[93.0615,26.9216],[93.0676,26.7471],[93.1441,26.5945],[93.0967,26.5766],[92.9514,26.6206],[92.722,26.5367],[92.5752,26.4996],[92.4192,26.5147],[92.3412,26.5023],[92.3596,26.5835],[92.3275,26.813],[92.3596,26.9258],[92.4468,26.9588],[92.563,26.9574],[92.6562,27.0083],[92.6731,27.0316],[92.8872,27],[93.0217,26.9134],[93.0615,26.9216]]]},"properties":{"name":"Sonitpur","state":"Assam","warning":"YELLOW","category":"Lowest band, 39-68 mm/24h observed","maxMm24h":42.1}},{"type":"Feature","geometry":{"type":"Polygon","coordinates":[[[92.3596,26.9258],[92.3275,26.813],[92.3596,26.5835],[92.2418,26.6027],[92.1776,26.6508],[92.0721,26.6467],[92.0033,26.5436],[91.8274,26.545],[91.7785,26.5133],[91.7372,26.6055],[91.7449,26.6879],[91.7036,26.813],[91.8932,26.9189],[91.9834,26.8584],[92.0568,26.846],[92.1134,26.8928],[92.1944,26.89],[92.3596,26.9258]]]},"properties":{"name":"Udalguri","state":"Assam","warning":"YELLOW","category":"Lowest band, 39-68 mm/24h observed","maxMm24h":41.5}},{"type":"Feature","geometry":{"type":"Polygon","coordinates":[[[90.8747,26.5628],[90.8472,26.5285],[90.7448,26.4652],[90.6821,26.4996],[90.52,26.5092],[90.5047,26.4267],[90.3992,26.4419],[90.3548,26.5697],[90.3778,26.7182],[90.3365,26.8625],[90.4175,26.9052],[90.546,26.8172],[90.7172,26.769],[90.9512,26.7773],[90.8992,26.6893],[90.8747,26.5628]]]},"properties":{"name":"Chirang","state":"Assam","warning":"YELLOW","category":"Lowest band, 39-68 mm/24h observed","maxMm24h":44.3}},{"type":"Feature","geometry":{"type":"Polygon","coordinates":[[[91.7036,26.813],[91.7449,26.6879],[91.7372,26.6055],[91.7785,26.5133],[91.78,26.479],[91.725,26.5037],[91.6256,26.4474],[91.5782,26.5285],[91.5782,26.5725],[91.3121,26.5175],[91.2494,26.523],[91.2341,26.6082],[91.1515,26.6384],[91.1102,26.5615],[90.991,26.5243],[90.9894,26.5903],[90.8747,26.5628],[90.8992,26.6893],[90.9512,26.7773],[91.0537,26.7814],[91.098,26.8227],[91.2372,26.8117],[91.3366,26.78],[91.4084,26.8405],[91.4956,26.791],[91.6256,26.8213],[91.7036,26.813]]]},"properties":{"name":"Baksa","state":"Assam","warning":"YELLOW","category":"Lowest band, 39-68 mm/24h observed","maxMm24h":48.3}},{"type":"Feature","geometry":{"type":"Polygon","coordinates":[[[90.3365,26.8625],[90.3778,26.7182],[90.3548,26.5697],[90.3992,26.4419],[90.4252,26.3635],[90.2875,26.2521],[90.2677,26.3305],[90.1163,26.3388],[90.1361,26.215],[90.0245,26.127],[89.8823,26.1353],[89.8594,26.2205],[89.9037,26.3374],[89.8425,26.3827],[89.8349,26.4144],[89.8701,26.6137],[89.8517,26.6976],[89.8594,26.7347],[90.049,26.7306],[90.1943,26.7732],[90.231,26.8584],[90.3365,26.8625]]]},"properties":{"name":"Kokrajhar","state":"Assam","warning":"YELLOW","category":"Lowest band, 39-68 mm/24h observed","maxMm24h":56.8}},{"type":"Feature","geometry":{"type":"Polygon","coordinates":[[[92.3596,26.5835],[92.3412,26.5023],[92.2189,26.4157],[92.1577,26.4116],[92.04,26.2728],[91.9803,26.2741],[91.8794,26.2164],[91.7479,26.2095],[91.8228,26.3704],[91.78,26.479],[91.7785,26.5133],[91.8274,26.545],[92.0033,26.5436],[92.0721,26.6467],[92.1776,26.6508],[92.2418,26.6027],[92.3596,26.5835]]]},"properties":{"name":"Darrang","state":"Assam","warning":"YELLOW","category":"Lowest band, 39-68 mm/24h observed","maxMm24h":49.0}},{"type":"Feature","geometry":{"type":"Polygon","coordinates":[[[90.8472,26.5285],[90.8747,26.5628],[90.9894,26.5903],[90.991,26.5243],[91.1102,26.5615],[91.1515,26.6384],[91.2341,26.6082],[91.2494,26.523],[91.231,26.4391],[91.2769,26.3415],[91.2158,26.2673],[91.2234,26.1793],[91.0812,26.1614],[90.9436,26.094],[90.7142,26.1298],[90.6698,26.2027],[90.653,26.237],[90.7891,26.3291],[90.861,26.4309],[90.8472,26.5285]]]},"properties":{"name":"Barpeta","state":"Assam","warning":"YELLOW","category":"Lowest band, 39-68 mm/24h observed","maxMm24h":41.5}},{"type":"Feature","geometry":{"type":"Polygon","coordinates":[[[91.2494,26.523],[91.3121,26.5175],[91.5782,26.5725],[91.5782,26.5285],[91.5247,26.336],[91.413,26.2659],[91.3534,26.1669],[91.2234,26.1793],[91.2158,26.2673],[91.2769,26.3415],[91.231,26.4391],[91.2494,26.523]]]},"properties":{"name":"Nalbari","state":"Assam","warning":"YELLOW","category":"Lowest band, 39-68 mm/24h observed","maxMm24h":41.2}},{"type":"Feature","geometry":{"type":"Polygon","coordinates":[[[92.3412,26.5023],[92.4192,26.5147],[92.4406,26.3704],[92.5507,26.3827],[92.5676,26.3374],[92.5049,26.2728],[92.4192,26.27],[92.4315,26.1903],[92.3948,26.1133],[92.274,26.0652],[92.173,26.0762],[92.1669,26.1642],[92.0599,26.1958],[91.9803,26.2741],[92.04,26.2728],[92.1577,26.4116],[92.2189,26.4157],[92.3412,26.5023]]]},"properties":{"name":"Morigaon","state":"Assam","warning":"YELLOW","category":"Lowest band, 39-68 mm/24h observed","maxMm24h":41.9}},{"type":"Feature","geometry":{"type":"Polygon","coordinates":[[[91.5782,26.5285],[91.6256,26.4474],[91.725,26.5037],[91.78,26.479],[91.8228,26.3704],[91.7479,26.2095],[91.569,26.1504],[91.5644,26.1037],[91.7234,26.0349],[91.7219,25.9662],[91.5797,26.0336],[91.4451,25.8397],[91.335,25.8411],[91.2219,25.7229],[91.1469,25.8507],[91.0078,25.8246],[91.0261,25.8865],[91.0995,26.0102],[90.9436,26.094],[91.0812,26.1614],[91.2234,26.1793],[91.3534,26.1669],[91.413,26.2659],[91.5247,26.336],[91.5782,26.5285]]]},"properties":{"name":"Kamrup","state":"Assam","warning":"YELLOW","category":"Lowest band, 39-68 mm/24h observed","maxMm24h":50.1}},{"type":"Feature","geometry":{"type":"Polygon","coordinates":[[[91.7479,26.2095],[91.8794,26.2164],[91.9803,26.2741],[92.0599,26.1958],[92.1669,26.1642],[92.173,26.0762],[92.1333,26.0446],[91.8672,26.0418],[91.8259,26.1188],[91.7234,26.0349],[91.5644,26.1037],[91.569,26.1504],[91.7479,26.2095]]]},"properties":{"name":"Kamrup Metropolitan","state":"Assam","warning":"YELLOW","category":"Lowest band, 39-68 mm/24h observed","maxMm24h":51.5}},{"type":"Feature","geometry":{"type":"Polygon","coordinates":[[[92.173,26.0762],[92.274,26.0652],[92.1639,25.9703],[92.2021,25.9071],[92.1516,25.8163],[92.1516,25.672],[92.1317,25.6404],[91.8335,25.6445],[91.829,25.6734],[91.7877,25.7902],[91.5873,25.8122],[91.4589,25.7888],[91.335,25.8411],[91.4451,25.8397],[91.5797,26.0336],[91.7219,25.9662],[91.7234,26.0349],[91.8259,26.1188],[91.8672,26.0418],[92.1333,26.0446],[92.173,26.0762]]]},"properties":{"name":"Ribhoi","state":"Meghalaya","warning":"YELLOW","category":"Lowest band, 39-68 mm/24h observed","maxMm24h":51.5}},{"type":"Feature","geometry":{"type":"Polygon","coordinates":[[[93.0645,25.7751],[93.1425,25.7187],[93.2083,25.5428],[93.3291,25.5428],[93.456,25.4342],[93.4698,25.3063],[93.3811,25.2403],[93.3444,25.1235],[93.2465,24.9722],[93.1792,25.0011],[93.0615,25.0025],[93.0141,25.0616],[92.8979,25.0795],[92.8352,25.052],[92.722,25.1125],[92.54,25.0987],[92.6211,25.1152],[92.6639,25.1771],[92.7434,25.2073],[92.7923,25.2829],[92.6532,25.4342],[92.5691,25.4658],[92.6608,25.5716],[92.7342,25.5936],[92.8214,25.7407],[93.0187,25.8012],[93.0645,25.7751]]]},"properties":{"name":"Dima Hasao","state":"Assam","warning":"YELLOW","category":"Lowest band, 39-68 mm/24h observed","maxMm24h":52.0}},{"type":"Feature","geometry":{"type":"Polygon","coordinates":[[[94.1732,24.6313],[94.187,24.7165],[94.1396,24.8705],[94.1671,24.9269],[94.3322,24.986],[94.531,25.0341],[94.6534,25.1152],[94.7359,25.1138],[94.7436,25.0369],[94.687,24.8898],[94.632,24.8389],[94.6289,24.7564],[94.5448,24.711],[94.5341,24.6423],[94.3751,24.4938],[94.2818,24.6011],[94.1732,24.6313]]]},"properties":{"name":"Kamjong","state":"Manipur","warning":"YELLOW","category":"Lowest band, 39-68 mm/24h observed","maxMm24h":39.0}},{"type":"Feature","geometry":{"type":"Polygon","coordinates":[[[91.0078,25.8246],[91.1469,25.8507],[91.2219,25.7229],[91.335,25.8411],[91.4589,25.7888],[91.5873,25.8122],[91.7877,25.7902],[91.829,25.6734],[91.7999,25.6101],[91.5415,25.5111],[91.5461,25.4823],[91.517,25.4562],[91.309,25.4438],[91.1684,25.4658],[91.1378,25.3998],[91.0246,25.3379],[90.9237,25.3517],[90.8396,25.3077],[90.7478,25.3792],[90.7906,25.507],[90.7616,25.5524],[90.8747,25.6074],[90.9833,25.7435],[90.942,25.7545],[91.0078,25.8246]]]},"properties":{"name":"West Khasi Hills","state":"Meghalaya","warning":"YELLOW","category":"Lowest band, 39-68 mm/24h observed","maxMm24h":43.4}},{"type":"Feature","geometry":{"type":"Polygon","coordinates":[[[91.829,25.6734],[91.8335,25.6445],[92.1317,25.6404],[92.095,25.4507],[92.1119,25.3063],[91.988,25.2816],[92.017,25.1895],[91.7464,25.1716],[91.6424,25.1248],[91.6026,25.1743],[91.4925,25.1345],[91.3794,25.1771],[91.3549,25.2334],[91.5476,25.2871],[91.5247,25.3489],[91.5461,25.4823],[91.5415,25.5111],[91.7999,25.6101],[91.829,25.6734]]]},"properties":{"name":"East Khasi Hills","state":"Meghalaya","warning":"YELLOW","category":"Lowest band, 39-68 mm/24h observed","maxMm24h":57.0}},{"type":"Feature","geometry":{"type":"Polygon","coordinates":[[[90.7616,25.5524],[90.7906,25.507],[90.7478,25.3792],[90.8396,25.3077],[90.9589,25.2472],[90.9696,25.173],[90.8549,25.1592],[90.7799,25.184],[90.6928,25.1592],[90.5108,25.1688],[90.445,25.1441],[90.3319,25.1922],[90.234,25.2032],[90.2615,25.3214],[90.3089,25.3654],[90.3197,25.4644],[90.442,25.4603],[90.6438,25.4163],[90.7616,25.5524]]]},"properties":{"name":"South Garo Hills","state":"Meghalaya","warning":"ORANGE","category":"Middle band, 69-122 mm/24h observed","maxMm24h":70.8}},{"type":"Feature","geometry":{"type":"Polygon","coordinates":[[[92.7618,24.5131],[92.6899,24.3536],[92.6257,24.3316],[92.6119,24.256],[92.5507,24.2478],[92.5324,24.1776],[92.436,24.1543],[92.4223,24.2505],[92.4636,24.3],[92.5094,24.4553],[92.5064,24.6643],[92.5798,24.8719],[92.6287,24.8554],[92.6685,24.5914],[92.7618,24.5131]]]},"properties":{"name":"Hailakandi","state":"Assam","warning":"YELLOW","category":"Lowest band, 39-68 mm/24h observed","maxMm24h":39.4}},{"type":"Feature","geometry":{"type":"Polygon","coordinates":[[[93.8628,24.2079],[93.9025,24.2546],[93.8918,24.3509],[93.9836,24.4856],[94.0386,24.4485],[94.1472,24.3825],[94.1533,24.3014],[94.2114,24.245],[94.1961,24.1336],[94.2527,24.1144],[94.2374,24.036],[94.1701,23.9288],[94.1564,23.8477],[94.0172,23.9274],[93.8934,23.9536],[93.8077,23.9261],[93.7404,24.0058],[93.7802,24.1364],[93.8628,24.2079]]]},"properties":{"name":"Chandel","state":"Manipur","warning":"YELLOW","category":"Lowest band, 39-68 mm/24h observed","maxMm24h":42.5}},{"type":"Feature","geometry":{"type":"Polygon","coordinates":[[[94.372,26.1958],[94.583,26.2191],[94.7054,26.1724],[94.7054,26.0487],[94.6687,26.0198],[94.5693,25.8892],[94.6106,25.8177],[94.713,25.7586],[94.6075,25.7779],[94.4561,25.8535],[94.2726,25.7943],[94.2145,25.8755],[94.2833,25.9401],[94.2757,26.0047],[94.3582,26.0212],[94.3873,26.116],[94.372,26.1958]]]},"properties":{"name":"Zunheboto","state":"Nagaland","warning":"YELLOW","category":"Lowest band, 39-68 mm/24h observed","maxMm24h":45.9}},{"type":"Feature","geometry":{"type":"Polygon","coordinates":[[[93.9362,25.5593],[93.9285,25.6706],[93.9637,25.694],[94.0172,25.8452],[93.9775,25.8823],[94.0019,25.9909],[94.2757,26.0047],[94.2833,25.9401],[94.2145,25.8755],[94.2726,25.7943],[94.213,25.672],[94.19,25.5483],[94.1074,25.5221],[94.0065,25.5675],[93.9362,25.5593]]]},"properties":{"name":"Kohima","state":"Nagaland","warning":"YELLOW","category":"Lowest band, 39-68 mm/24h observed","maxMm24h":45.9}},{"type":"Feature","geometry":{"type":"Polygon","coordinates":[[[95.5189,27.884],[95.5143,27.8799],[95.3797,27.8386],[95.3094,27.8675],[95.1366,27.8152],[95.0678,28.0228],[95.2406,28.0476],[95.2956,28.1204],[95.2283,28.1562],[95.3415,28.2442],[95.3828,28.3115],[95.4654,28.2579],[95.5632,28.2552],[95.5602,28.0517],[95.5005,27.95],[95.5189,27.884]]]},"properties":{"name":"East Siang","state":"Arunachal Pradesh","warning":"YELLOW","category":"Lowest band, 39-68 mm/24h observed","maxMm24h":48.5}},{"type":"Feature","geometry":{"type":"Polygon","coordinates":[[[93.9423,27.5114],[93.8521,27.4647],[93.8353,27.3629],[93.6655,27.3368],[93.5998,27.3671],[93.5676,27.4715],[93.6181,27.532],[93.5432,27.6214],[93.5768,27.6173],[93.768,27.73],[93.768,27.7891],[93.8903,27.8207],[93.9408,27.6379],[94.0524,27.6076],[94.0723,27.5155],[93.9423,27.5114]]]},"properties":{"name":"Lower Subansiri","state":"Arunachal Pradesh","warning":"YELLOW","category":"Lowest band, 39-68 mm/24h observed","maxMm24h":40.4}},{"type":"Feature","geometry":{"type":"Polygon","coordinates":[[[92.014,27.4894],[92.1119,27.5252],[92.222,27.6269],[92.3932,27.6723],[92.4605,27.7822],[92.5156,27.7341],[92.5309,27.6283],[92.5951,27.631],[92.6608,27.4825],[92.8031,27.4482],[92.8229,27.4001],[92.8,27.2598],[92.8092,27.1774],[92.7526,27.1938],[92.615,27.143],[92.5981,27.0536],[92.6562,27.0083],[92.563,26.9574],[92.4468,26.9588],[92.3596,26.9258],[92.1944,26.89],[92.1134,26.8928],[92.1042,27.0069],[92.0339,27.0646],[92.0247,27.1622],[92.0706,27.2763],[92.0553,27.4001],[92.014,27.4894]]]},"properties":{"name":"West Kameng","state":"Arunachal Pradesh","warning":"YELLOW","category":"Lowest band, 39-68 mm/24h observed","maxMm24h":42.1}},{"type":"Feature","geometry":{"type":"Polygon","coordinates":[[[90.8396,25.3077],[90.9237,25.3517],[91.0246,25.3379],[91.1378,25.3998],[91.1684,25.4658],[91.309,25.4438],[91.517,25.4562],[91.5461,25.4823],[91.5247,25.3489],[91.5476,25.2871],[91.3549,25.2334],[91.2525,25.1977],[91.0812,25.2018],[90.9696,25.173],[90.9589,25.2472],[90.8396,25.3077]]]},"properties":{"name":"South West Khasi Hills","state":"Meghalaya","warning":"YELLOW","category":"Lowest band, 39-68 mm/24h observed","maxMm24h":57.9}},{"type":"Feature","geometry":{"type":"Polygon","coordinates":[[[91.7556,24.1419],[91.7479,23.9948],[91.7846,23.8188],[91.7678,23.6882],[91.7173,23.768],[91.569,23.7597],[91.5644,23.7872],[91.5506,23.9096],[91.4696,24.0622],[91.6302,24.1034],[91.6562,24.1859],[91.7556,24.1419]]]},"properties":{"name":"Khowai","state":"Tripura","warning":"YELLOW","category":"Lowest band, 39-68 mm/24h observed","maxMm24h":48.8}},{"type":"Feature","geometry":{"type":"Polygon","coordinates":[[[91.5644,23.7872],[91.4742,23.7473],[91.3886,23.7721],[91.2265,23.7322],[91.2479,23.8298],[91.2188,23.8793],[91.2999,23.9975],[91.3733,24.0017],[91.4696,24.0622],[91.5506,23.9096],[91.5644,23.7872]]]},"properties":{"name":"West Tripura","state":"Tripura","warning":"YELLOW","category":"Lowest band, 39-68 mm/24h observed","maxMm24h":48.8}},{"type":"Feature","geometry":{"type":"Polygon","coordinates":[[[92.7526,26.0542],[92.7037,26.1257],[92.8015,26.2013],[92.9391,26.2027],[92.9315,26.1518],[93.1089,26.0775],[93.1823,25.903],[93.2404,25.8466],[93.2266,25.727],[93.1425,25.7187],[93.0645,25.7751],[92.982,25.8755],[92.8688,25.8686],[92.7633,25.9607],[92.7526,26.0542]]]},"properties":{"name":"Hojai","state":"Assam","warning":"YELLOW","category":"Lowest band, 39-68 mm/24h observed","maxMm24h":43.9}},{"type":"Feature","geometry":{"type":"Polygon","coordinates":[[[93.297,26.5752],[93.4575,26.5766],[93.4958,26.611],[93.7007,26.6068],[93.794,26.4405],[93.8934,26.3717],[93.7863,26.0542],[93.7756,25.9689],[93.6808,25.9043],[93.7022,25.8521],[93.5432,25.7311],[93.5126,25.6747],[93.427,25.6321],[93.3291,25.5428],[93.2083,25.5428],[93.1425,25.7187],[93.2266,25.727],[93.2404,25.8466],[93.1823,25.903],[93.1089,26.0775],[92.9315,26.1518],[92.9391,26.2027],[92.8015,26.2013],[92.8138,26.2631],[92.9422,26.3305],[93.0126,26.5078],[93.1915,26.567],[93.297,26.5752]]]},"properties":{"name":"Karbi Anglong","state":"Assam","warning":"YELLOW","category":"Lowest band, 39-68 mm/24h observed","maxMm24h":49.5}},{"type":"Feature","geometry":{"type":"Polygon","coordinates":[[[92.3948,26.1133],[92.5293,26.1504],[92.5951,26.0803],[92.5461,25.9717],[92.6547,26.0006],[92.7526,26.0542],[92.7633,25.9607],[92.8688,25.8686],[92.982,25.8755],[93.0645,25.7751],[93.0187,25.8012],[92.8214,25.7407],[92.7342,25.5936],[92.6608,25.5716],[92.5844,25.551],[92.5049,25.617],[92.4437,25.7201],[92.225,25.716],[92.1516,25.672],[92.1516,25.8163],[92.2021,25.9071],[92.1639,25.9703],[92.274,26.0652],[92.3948,26.1133]]]},"properties":{"name":"West Karbi Anglong","state":"Assam","warning":"YELLOW","category":"Lowest band, 39-68 mm/24h observed","maxMm24h":52.0}},{"type":"Feature","geometry":{"type":"Polygon","coordinates":[[[93.456,28.2717],[93.612,28.2717],[93.6793,28.3225],[93.8398,28.2373],[93.8918,28.1287],[93.8551,28.0819],[93.9622,27.9788],[93.8903,27.8207],[93.768,27.7891],[93.768,27.73],[93.5768,27.6173],[93.5432,27.6214],[93.5141,27.6503],[93.5095,27.7424],[93.5921,27.8331],[93.6181,27.9541],[93.5707,28.0572],[93.4606,28.1136],[93.456,28.2717]]]},"properties":{"name":"Kra Daadi","state":"Arunachal Pradesh","warning":"YELLOW","category":"Lowest band, 39-68 mm/24h observed","maxMm24h":44.5}},{"type":"Feature","geometry":{"type":"Polygon","coordinates":[[[94.1732,24.6313],[94.2818,24.6011],[94.3751,24.4938],[94.4072,24.4375],[94.291,24.2326],[94.2527,24.1144],[94.1961,24.1336],[94.2114,24.245],[94.1533,24.3014],[94.1472,24.3825],[94.0386,24.4485],[94.0233,24.52],[94.0784,24.5433],[94.1197,24.6258],[94.1732,24.6313]]]},"properties":{"name":"Tengnoupal","state":"Manipur","warning":"YELLOW","category":"Lowest band, 39-68 mm/24h observed","maxMm24h":41.2}},{"type":"Feature","geometry":{"type":"Polygon","coordinates":[[[95.3828,28.3115],[95.3415,28.2442],[95.2283,28.1562],[95.106,28.2634],[95.1106,28.4627],[95.0846,28.526],[94.9883,28.5287],[94.8201,28.5686],[94.7589,28.5342],[94.7451,28.6868],[94.6197,28.7941],[94.5249,28.8119],[94.3949,28.9315],[94.3429,28.9838],[94.187,29.0388],[94.291,29.1474],[94.3598,29.1529],[94.4332,29.2271],[94.5601,29.2285],[94.58,29.2807],[94.6794,29.3275],[94.7925,29.2257],[94.8736,29.1831],[95.2528,29.1089],[95.2696,29.0498],[95.2452,29.0017],[95.3277,28.9288],[95.3232,28.8436],[95.3935,28.7418],[95.3537,28.7061],[95.395,28.5301],[95.3384,28.4765],[95.3384,28.3651],[95.3828,28.3115]]]},"properties":{"name":"Upper Siang","state":"Arunachal Pradesh","warning":"YELLOW","category":"Lowest band, 39-68 mm/24h observed","maxMm24h":60.1}},{"type":"Feature","geometry":{"type":"Polygon","coordinates":[[[94.3185,27.7726],[94.5953,27.8702],[94.7176,27.8249],[94.7466,27.7726],[94.9011,27.8235],[94.9561,27.9802],[94.8935,28.016],[94.9286,28.0517],[95.0678,28.0228],[95.1366,27.8152],[94.8522,27.7273],[94.4622,27.5554],[94.3644,27.5747],[94.2374,27.6324],[94.213,27.6063],[94.2451,27.6489],[94.3536,27.7231],[94.3185,27.7726]]]},"properties":{"name":"Lower Siang","state":"Arunachal Pradesh","warning":"ORANGE","category":"Middle band, 69-122 mm/24h observed","maxMm24h":86.4}},{"type":"Feature","geometry":{"type":"Polygon","coordinates":[[[95.395,28.5301],[95.3537,28.7061],[95.3935,28.7418],[95.3232,28.8436],[95.3277,28.9288],[95.2452,29.0017],[95.2696,29.0498],[95.4547,29.0346],[95.5388,29.212],[95.5877,29.2161],[95.7039,29.2986],[95.8828,29.3893],[95.9578,29.3811],[96.0893,29.4594],[96.1764,29.3618],[96.2437,29.2326],[96.3936,29.2532],[96.3462,29.168],[96.2177,29.135],[96.1504,29.0498],[96.2483,28.9398],[96.3462,29.0291],[96.4364,29.0346],[96.519,28.9673],[96.5373,28.8807],[96.6077,28.7941],[96.5847,28.7171],[96.4716,28.6841],[96.493,28.6332],[96.3263,28.5109],[96.256,28.537],[96.103,28.4889],[96.0143,28.5081],[95.9486,28.482],[95.9455,28.4023],[95.8507,28.3665],[95.8324,28.2744],[95.6764,28.3624],[95.5739,28.3706],[95.5801,28.4627],[95.395,28.5301]]]},"properties":{"name":"Upper Dibang Valley","state":"Arunachal Pradesh","warning":"YELLOW","category":"Lowest band, 39-68 mm/24h observed","maxMm24h":60.1}},{"type":"Feature","geometry":{"type":"Polygon","coordinates":[[[96.3141,28.383],[96.3049,28.3693],[96.2147,28.2304],[96.0709,28.1204],[95.97,27.9596],[95.8186,27.972],[95.6061,27.9555],[95.5189,27.884],[95.5005,27.95],[95.5602,28.0517],[95.5632,28.2552],[95.4654,28.2579],[95.3828,28.3115],[95.3384,28.3651],[95.3384,28.4765],[95.395,28.5301],[95.5801,28.4627],[95.5739,28.3706],[95.6764,28.3624],[95.8324,28.2744],[95.8507,28.3665],[95.9455,28.4023],[95.9486,28.482],[96.0143,28.5081],[96.103,28.4889],[96.256,28.537],[96.3263,28.5109],[96.3722,28.482],[96.3141,28.383]]]},"properties":{"name":"Lower Dibang Valley","state":"Arunachal Pradesh","warning":"YELLOW","category":"Lowest band, 39-68 mm/24h observed","maxMm24h":60.1}},{"type":"Feature","geometry":{"type":"Polygon","coordinates":[[[95.2283,28.1562],[95.2956,28.1204],[95.2406,28.0476],[95.0678,28.0228],[94.9286,28.0517],[94.9485,28.1287],[94.895,28.2208],[94.7742,28.1864],[94.6136,28.2579],[94.4852,28.3954],[94.5586,28.4944],[94.5356,28.5892],[94.4683,28.6263],[94.4852,28.691],[94.3781,28.8917],[94.3949,28.9315],[94.5249,28.8119],[94.6197,28.7941],[94.7451,28.6868],[94.7589,28.5342],[94.8201,28.5686],[94.9883,28.5287],[95.0846,28.526],[95.1106,28.4627],[95.106,28.2634],[95.2283,28.1562]]]},"properties":{"name":"Siang","state":"Arunachal Pradesh","warning":"ORANGE","category":"Middle band, 69-122 mm/24h observed","maxMm24h":86.6}},{"type":"Feature","geometry":{"type":"Polygon","coordinates":[[[94.4011,28.339],[94.3292,28.3583],[94.242,28.4462],[94.1487,28.4394],[94.109,28.5219],[94.0019,28.5782],[94.0233,28.6511],[93.9622,28.713],[93.9973,28.8408],[94.1579,28.9549],[94.187,29.0388],[94.3429,28.9838],[94.3949,28.9315],[94.3781,28.8917],[94.4852,28.691],[94.4683,28.6263],[94.5356,28.5892],[94.5586,28.4944],[94.4852,28.3954],[94.4011,28.339]]]},"properties":{"name":"Shi Yomi","state":"Arunachal Pradesh","warning":"YELLOW","category":"Lowest band, 39-68 mm/24h observed","maxMm24h":59.7}},{"type":"Feature","geometry":{"type":"Polygon","coordinates":[[[94.4852,28.0215],[94.3919,28.0833],[94.3567,28.1988],[94.4011,28.339],[94.4852,28.3954],[94.6136,28.2579],[94.7742,28.1864],[94.895,28.2208],[94.9485,28.1287],[94.9286,28.0517],[94.8935,28.016],[94.8201,27.9857],[94.6029,28.0613],[94.4852,28.0215]]]},"properties":{"name":"West Siang","state":"Arunachal Pradesh","warning":"ORANGE","category":"Middle band, 69-122 mm/24h observed","maxMm24h":98.9}},{"type":"Feature","geometry":{"type":"Polygon","coordinates":[[[94.5953,27.8702],[94.4852,28.0215],[94.6029,28.0613],[94.8201,27.9857],[94.8935,28.016],[94.9561,27.9802],[94.9011,27.8235],[94.7466,27.7726],[94.7176,27.8249],[94.5953,27.8702]]]},"properties":{"name":"Lepa Rada","state":"Arunachal Pradesh","warning":"ORANGE","category":"Middle band, 69-122 mm/24h observed","maxMm24h":98.9}},{"type":"Feature","geometry":{"type":"Polygon","coordinates":[[[93.9622,27.9788],[94.0677,27.939],[94.0738,27.8496],[94.1487,27.8661],[94.1931,27.8111],[94.3185,27.7726],[94.3536,27.7231],[94.2451,27.6489],[94.213,27.6063],[94.2665,27.5197],[94.2191,27.5045],[94.1059,27.4935],[93.9423,27.5114],[94.0723,27.5155],[94.0524,27.6076],[93.9408,27.6379],[93.8903,27.8207],[93.9622,27.9788]]]},"properties":{"name":"Kamle","state":"Arunachal Pradesh","warning":"YELLOW","category":"Lowest band, 39-68 mm/24h observed","maxMm24h":53.9}},{"type":"Feature","geometry":{"type":"Polygon","coordinates":[[[84.5026,26.6027],[84.4185,26.6316],[84.3298,26.6838],[84.2595,26.8048],[84.0607,26.8873],[84.05,27.044],[83.9643,27.0839],[83.9934,27.1746],[83.9078,27.275],[83.8619,27.3354],[83.8313,27.4276],[84.0163,27.4372],[84.0974,27.5169],[84.258,27.4509],[84.2794,27.3946],[84.6204,27.3396],[84.6892,27.2213],[84.6418,27.0481],[84.758,27.0028],[84.6785,26.9134],[84.7442,26.8158],[84.7274,26.7429],[84.5439,26.6536],[84.5026,26.6027]]]},"properties":{"name":"West Champaran","state":"Bihar","warning":"YELLOW","category":"Lowest band, 39-68 mm/24h observed","maxMm24h":42.2}},{"type":"Feature","geometry":{"type":"Polygon","coordinates":[[[83.1478,27.1141],[83.1202,27.1004],[82.9046,27.0041],[82.793,27.0481],[82.7639,27.1114],[82.585,27.1045],[82.559,27.0825],[82.4566,27.1512],[82.5116,27.2117],[82.4933,27.3588],[82.5774,27.4221],[82.715,27.4014],[82.7318,27.4867],[82.9291,27.5004],[83.0346,27.4482],[83.189,27.4537],[83.2915,27.3354],[83.1661,27.2255],[83.1478,27.1141]]]},"properties":{"name":"Siddharthnagar","state":"Uttar Pradesh","warning":"YELLOW","category":"Lowest band, 39-68 mm/24h observed","maxMm24h":46.1}},{"type":"Feature","geometry":{"type":"Polygon","coordinates":[[[83.8619,27.3354],[83.9078,27.275],[83.8175,27.2406],[83.8007,27.11],[83.7243,26.9519],[83.6249,26.956],[83.5453,26.8887],[83.4383,26.9588],[83.3236,26.9684],[83.3894,27.0825],[83.2227,27.0907],[83.1478,27.1141],[83.1661,27.2255],[83.2915,27.3354],[83.3435,27.3354],[83.4093,27.4138],[83.3955,27.4798],[83.6142,27.4688],[83.8313,27.3698],[83.8619,27.3354]]]},"properties":{"name":"Maharajganj","state":"Uttar Pradesh","warning":"YELLOW","category":"Lowest band, 39-68 mm/24h observed","maxMm24h":46.1}},{"type":"Feature","geometry":{"type":"Polygon","coordinates":[[[88.0381,27.22],[88.0962,27.1334],[88.1543,27.11],[88.2812,27.132],[88.425,27.0715],[88.4235,26.956],[88.4785,26.8804],[88.4311,26.8199],[88.4495,26.7031],[88.4005,26.6439],[88.3332,26.4968],[88.24,26.4584],[88.11,26.5477],[88.1604,26.6371],[88.1864,26.7718],[88.1207,26.9505],[87.9922,27.1086],[88.0381,27.22]]]},"properties":{"name":"Darjeeling","state":"West Bengal","warning":"YELLOW","category":"Lowest band, 39-68 mm/24h observed","maxMm24h":39.5}},{"type":"Feature","geometry":{"type":"Polygon","coordinates":[[[88.4005,26.6439],[88.4495,26.7031],[88.4311,26.8199],[88.4785,26.8804],[88.6024,26.8804],[88.6635,26.9258],[88.7599,26.9258],[88.7889,26.9918],[88.8685,26.9656],[88.9204,26.9945],[89.0887,26.8887],[89.0902,26.8405],[89.0428,26.6316],[89.1055,26.5931],[89.1192,26.5243],[88.9617,26.5381],[88.9266,26.4529],[88.7599,26.3291],[88.7018,26.3869],[88.5305,26.479],[88.4204,26.5628],[88.4005,26.6439]]]},"properties":{"name":"Jalpaiguri","state":"West Bengal","warning":"YELLOW","category":"Lowest band, 39-68 mm/24h observed","maxMm24h":39.4}},{"type":"Feature","geometry":{"type":"Polygon","coordinates":[[[88.4464,25.595],[88.6467,25.4782],[88.8119,25.5235],[88.8394,25.3641],[88.9877,25.2733],[88.9097,25.1798],[88.8058,25.1702],[88.7339,25.1991],[88.4357,25.2005],[88.4495,25.3077],[88.269,25.3036],[88.1788,25.3448],[88.1666,25.4259],[88.3592,25.5661],[88.4464,25.595]]]},"properties":{"name":"Dakshin Dinajpur","state":"West Bengal","warning":"YELLOW","category":"Lowest band, 39-68 mm/24h observed","maxMm24h":41.6}},{"type":"Feature","geometry":{"type":"Polygon","coordinates":[[[87.7109,25.2582],[87.7628,25.2651],[87.8179,25.2417],[87.847,25.2981],[87.7843,25.3407],[87.7674,25.4163],[87.8668,25.4974],[87.9601,25.5386],[88.0672,25.4837],[88.1084,25.3269],[88.1497,25.2719],[88.269,25.3036],[88.4495,25.3077],[88.4357,25.2005],[88.4525,25.0795],[88.3944,24.9695],[88.2782,24.8898],[88.2262,24.9599],[88.1406,24.9145],[88.1742,24.8609],[88.0687,24.7702],[88.0274,24.6904],[87.8913,24.8554],[87.9601,24.9214],[87.954,24.9736],[87.795,25.0877],[87.7797,25.1441],[87.7781,25.2499],[87.7109,25.2582]]]},"properties":{"name":"Malda","state":"West Bengal","warning":"YELLOW","category":"Lowest band, 39-68 mm/24h observed","maxMm24h":48.8}},{"type":"Feature","geometry":{"type":"Polygon","coordinates":[[[87.5518,25.3311],[87.6925,25.3118],[87.7109,25.2582],[87.7781,25.2499],[87.7797,25.1441],[87.795,25.0877],[87.954,24.9736],[87.9601,24.9214],[87.8913,24.8554],[87.8393,24.7454],[87.7124,24.7413],[87.509,24.799],[87.454,24.9393],[87.5212,25.0602],[87.4723,25.1056],[87.4784,25.195],[87.5518,25.3311]]]},"properties":{"name":"Sahibganj","state":"Jharkhand","warning":"YELLOW","category":"Lowest band, 39-68 mm/24h observed","maxMm24h":58.1}},{"type":"Feature","geometry":{"type":"Polygon","coordinates":[[[87.4784,25.195],[87.4723,25.1056],[87.5212,25.0602],[87.454,24.9393],[87.509,24.799],[87.4601,24.7922],[87.4738,24.6478],[87.4203,24.5145],[87.3775,24.5048],[87.3072,24.5983],[87.2445,24.5859],[87.1221,24.6341],[87.0518,24.6272],[87.1099,24.8513],[87.1573,24.8815],[87.1451,25.019],[87.1756,25.0575],[87.2949,25.0891],[87.327,25.2238],[87.4784,25.195]]]},"properties":{"name":"Godda","state":"Jharkhand","warning":"YELLOW","category":"Lowest band, 39-68 mm/24h observed","maxMm24h":58.1}},{"type":"Feature","geometry":{"type":"Polygon","coordinates":[[[87.1756,25.0575],[87.1451,25.019],[87.1573,24.8815],[87.1099,24.8513],[87.0518,24.6272],[86.9524,24.6313],[86.9126,24.5474],[86.7536,24.6176],[86.6527,24.5708],[86.6114,24.6079],[86.5578,24.7014],[86.5043,24.9832],[86.5838,24.9475],[86.6511,24.9819],[86.6924,25.1152],[86.8132,25.0918],[87.0135,25.1097],[87.1756,25.0575]]]},"properties":{"name":"Banka","state":"Bihar","warning":"YELLOW","category":"Lowest band, 39-68 mm/24h observed","maxMm24h":44.7}},{"type":"Feature","geometry":{"type":"Polygon","coordinates":[[[87.8913,24.8554],[88.0274,24.6904],[88.1329,24.5103],[88.3348,24.443],[88.3822,24.3962],[88.5596,24.3082],[88.6834,24.3247],[88.7415,24.2546],[88.7461,24.1474],[88.7002,24.0965],[88.6314,24.0305],[88.5122,23.992],[88.4082,23.8202],[88.2384,23.8023],[88.1773,23.7611],[88.061,23.7226],[88.009,23.8449],[87.9662,23.8092],[87.8913,23.8394],[87.8439,23.9096],[87.8607,24.025],[87.8974,24.0443],[87.8989,24.1625],[87.9846,24.19],[88.0167,24.311],[87.9571,24.3412],[87.9785,24.4168],[87.9479,24.5172],[87.8898,24.5653],[87.9081,24.722],[87.8393,24.7454],[87.8913,24.8554]]]},"properties":{"name":"Murshidabad","state":"West Bengal","warning":"YELLOW","category":"Lowest band, 39-68 mm/24h observed","maxMm24h":52.8}},{"type":"Feature","geometry":{"type":"Polygon","coordinates":[[[87.509,24.799],[87.7124,24.7413],[87.8393,24.7454],[87.9081,24.722],[87.8898,24.5653],[87.7934,24.5832],[87.8011,24.3825],[87.7063,24.2601],[87.639,24.2546],[87.5824,24.2574],[87.5641,24.5241],[87.4203,24.5145],[87.4738,24.6478],[87.4601,24.7922],[87.509,24.799]]]},"properties":{"name":"Pakur","state":"Jharkhand","warning":"YELLOW","category":"Lowest band, 39-68 mm/24h observed","maxMm24h":58.1}},{"type":"Feature","geometry":{"type":"Polygon","coordinates":[[[86.0547,24.7798],[86.1281,24.6987],[86.1327,24.6038],[86.3009,24.5612],[86.2765,24.4663],[86.3499,24.4471],[86.4523,24.3729],[86.515,24.223],[86.4844,24.1529],[86.5701,24.1419],[86.4814,24.0223],[86.3789,24.0594],[86.2933,23.9164],[86.223,23.9412],[86.1098,23.8876],[86.0716,23.9219],[85.9676,23.8944],[85.9141,23.9494],[85.8361,24.0718],[85.7107,24.102],[85.6816,24.1763],[85.8468,24.2189],[85.8498,24.2739],[85.8682,24.5268],[85.7734,24.6107],[85.8177,24.7234],[85.9018,24.766],[85.9324,24.7385],[86.0547,24.7798]]]},"properties":{"name":"Giridih","state":"Jharkhand","warning":"YELLOW","category":"Lowest band, 39-68 mm/24h observed","maxMm24h":52.7}},{"type":"Feature","geometry":{"type":"Polygon","coordinates":[[[87.0518,24.6272],[87.1221,24.6341],[87.2445,24.5859],[87.3072,24.5983],[87.3775,24.5048],[87.4203,24.5145],[87.5641,24.5241],[87.5824,24.2574],[87.639,24.2546],[87.6313,24.1639],[87.4402,23.9824],[87.3362,24.0347],[87.2337,24.025],[87.1359,24.0374],[87.0961,24.1075],[87.0105,24.146],[86.9738,24.1089],[86.934,24.1364],[87.0457,24.223],[87.0212,24.3069],[86.9616,24.3137],[86.8882,24.4471],[86.9126,24.5474],[86.9524,24.6313],[87.0518,24.6272]]]},"properties":{"name":"Dumka","state":"Jharkhand","warning":"YELLOW","category":"Lowest band, 39-68 mm/24h observed","maxMm24h":59.0}},{"type":"Feature","geometry":{"type":"Polygon","coordinates":[[[87.8898,24.5653],[87.9479,24.5172],[87.9785,24.4168],[87.9571,24.3412],[88.0167,24.311],[87.9846,24.19],[87.8989,24.1625],[87.8974,24.0443],[87.8607,24.025],[87.8439,23.9096],[87.8913,23.8394],[87.9662,23.8092],[87.9097,23.7185],[87.9586,23.6305],[87.9295,23.57],[87.8454,23.5507],[87.7078,23.6195],[87.5335,23.6085],[87.4463,23.614],[87.4096,23.6869],[87.2643,23.7487],[87.1542,23.7487],[87.0854,23.812],[87.1298,23.8532],[87.2337,23.8559],[87.2949,23.9013],[87.2337,24.025],[87.3362,24.0347],[87.4402,23.9824],[87.6313,24.1639],[87.639,24.2546],[87.7063,24.2601],[87.8011,24.3825],[87.7934,24.5832],[87.8898,24.5653]]]},"properties":{"name":"Birbhum","state":"West Bengal","warning":"ORANGE","category":"Middle band, 69-122 mm/24h observed","maxMm24h":87.3}},{"type":"Feature","geometry":{"type":"Polygon","coordinates":[[[86.4523,24.3729],[86.4997,24.5103],[86.6114,24.6079],[86.6527,24.5708],[86.7536,24.6176],[86.9126,24.5474],[86.8882,24.4471],[86.9616,24.3137],[87.0212,24.3069],[87.0457,24.223],[86.934,24.1364],[86.9738,24.1089],[86.9539,24.0415],[86.6802,24.1295],[86.5701,24.1419],[86.4844,24.1529],[86.515,24.223],[86.4523,24.3729]]]},"properties":{"name":"Deoghar","state":"Jharkhand","warning":"YELLOW","category":"Lowest band, 39-68 mm/24h observed","maxMm24h":62.4}},{"type":"Feature","geometry":{"type":"Polygon","coordinates":[[[88.1773,23.7611],[88.2384,23.8023],[88.4082,23.8202],[88.5122,23.992],[88.6314,24.0305],[88.7002,24.0965],[88.7431,24.0347],[88.7324,23.9109],[88.607,23.8614],[88.5641,23.713],[88.5932,23.6167],[88.7232,23.5123],[88.7629,23.4463],[88.7094,23.2318],[88.6742,23.0943],[88.688,23.0256],[88.6544,22.9197],[88.6115,22.9074],[88.4066,22.9431],[88.4097,22.9898],[88.5014,23.1053],[88.4143,23.2098],[88.3256,23.3157],[88.3868,23.4971],[88.2568,23.6195],[88.1344,23.6649],[88.1773,23.7611]]]},"properties":{"name":"Nadia","state":"West Bengal","warning":"ORANGE","category":"Middle band, 69-122 mm/24h observed","maxMm24h":73.2}},{"type":"Feature","geometry":{"type":"Polygon","coordinates":[[[86.4814,24.0223],[86.5701,24.1419],[86.6802,24.1295],[86.9539,24.0415],[86.9738,24.1089],[87.0105,24.146],[87.0961,24.1075],[87.1359,24.0374],[87.2337,24.025],[87.2949,23.9013],[87.2337,23.8559],[87.1298,23.8532],[87.0854,23.812],[86.9157,23.8821],[86.801,23.8339],[86.5823,23.9824],[86.4814,24.0223]]]},"properties":{"name":"Jamtara","state":"Jharkhand","warning":"ORANGE","category":"Middle band, 69-122 mm/24h observed","maxMm24h":72.2}},{"type":"Feature","geometry":{"type":"Polygon","coordinates":[[[86.1098,23.8876],[86.223,23.9412],[86.2933,23.9164],[86.3789,24.0594],[86.4814,24.0223],[86.5823,23.9824],[86.801,23.8339],[86.827,23.7652],[86.801,23.6992],[86.7123,23.6992],[86.486,23.636],[86.3713,23.7116],[86.2444,23.713],[86.1908,23.7501],[86.1098,23.8876]]]},"properties":{"name":"Dhanbad","state":"Jharkhand","warning":"ORANGE","category":"Middle band, 69-122 mm/24h observed","maxMm24h":74.7}},{"type":"Feature","geometry":{"type":"Polygon","coordinates":[[[85.9141,23.9494],[85.9676,23.8944],[86.0716,23.9219],[86.1098,23.8876],[86.1908,23.7501],[86.2444,23.713],[86.3713,23.7116],[86.486,23.636],[86.3652,23.5315],[86.3101,23.4119],[86.1771,23.4696],[86.1587,23.559],[86.0823,23.5659],[86.0395,23.4985],[85.885,23.4834],[85.755,23.6635],[85.6143,23.6332],[85.6128,23.7982],[85.5822,23.8532],[85.6434,23.9549],[85.7367,23.9508],[85.8345,23.8408],[85.9141,23.9494]]]},"properties":{"name":"Bokaro","state":"Jharkhand","warning":"ORANGE","category":"Middle band, 69-122 mm/24h observed","maxMm24h":81.2}},{"type":"Feature","geometry":{"type":"Polygon","coordinates":[[[85.6434,23.9549],[85.5822,23.8532],[85.6128,23.7982],[85.6143,23.6332],[85.755,23.6635],[85.885,23.4834],[85.859,23.4298],[85.7749,23.4614],[85.7137,23.4449],[85.6006,23.4889],[85.5287,23.5617],[85.385,23.5507],[85.2672,23.5782],[85.2045,23.6277],[85.2305,23.6841],[85.336,23.7047],[85.4232,23.6841],[85.4691,23.7652],[85.4262,23.7941],[85.6434,23.9549]]]},"properties":{"name":"Ramgarh","state":"Jharkhand","warning":"YELLOW","category":"Lowest band, 39-68 mm/24h observed","maxMm24h":54.0}},{"type":"Feature","geometry":{"type":"Polygon","coordinates":[[[87.9662,23.8092],[88.009,23.8449],[88.061,23.7226],[88.1773,23.7611],[88.1344,23.6649],[88.2568,23.6195],[88.3868,23.4971],[88.3256,23.3157],[88.4143,23.2098],[88.3608,23.1177],[88.1696,23.1562],[88.1467,23.0778],[88.0503,22.9898],[87.9402,22.9431],[87.8393,22.9362],[87.743,22.9651],[87.7124,23.0105],[87.7644,23.0751],[87.6451,23.1961],[87.5564,23.3129],[87.4494,23.4023],[87.4494,23.4806],[87.5335,23.6085],[87.7078,23.6195],[87.8454,23.5507],[87.9295,23.57],[87.9586,23.6305],[87.9097,23.7185],[87.9662,23.8092]]]},"properties":{"name":"Purba Bardhaman","state":"West Bengal","warning":"ORANGE","category":"Middle band, 69-122 mm/24h observed","maxMm24h":98.8}},{"type":"Feature","geometry":{"type":"Polygon","coordinates":[[[86.6098,22.7988],[86.5594,22.7135],[86.4187,22.7905],[86.4355,22.9266],[86.5013,22.994],[86.2413,22.9967],[86.044,23.1452],[85.885,23.1672],[85.8193,23.2689],[85.8835,23.35],[85.859,23.4298],[85.885,23.4834],[86.0395,23.4985],[86.0823,23.5659],[86.1587,23.559],[86.1771,23.4696],[86.3101,23.4119],[86.3652,23.5315],[86.486,23.636],[86.7123,23.6992],[86.801,23.6992],[86.9019,23.6387],[86.8943,23.5123],[86.8515,23.3872],[86.7872,23.339],[86.7826,23.2607],[86.7169,23.1218],[86.7521,23.0888],[86.6894,22.9307],[86.7062,22.8799],[86.6098,22.7988]]]},"properties":{"name":"Purulia","state":"West Bengal","warning":"ORANGE","category":"Middle band, 69-122 mm/24h observed","maxMm24h":102.9}},{"type":"Feature","geometry":{"type":"Polygon","coordinates":[[[84.969,23.7157],[85.0531,23.7116],[85.0761,23.6676],[85.2305,23.6841],[85.2045,23.6277],[85.2672,23.5782],[85.385,23.5507],[85.5287,23.5617],[85.6006,23.4889],[85.7137,23.4449],[85.7749,23.4614],[85.859,23.4298],[85.8835,23.35],[85.8193,23.2689],[85.885,23.1672],[85.8101,23.0765],[85.8575,22.9005],[85.729,22.9445],[85.5822,22.895],[85.5486,22.9307],[85.6556,23.005],[85.6143,23.115],[85.4828,23.1246],[85.385,23.1933],[85.2213,23.2084],[85.2275,23.2676],[85.0883,23.2428],[85.047,23.1947],[85.0547,23.1205],[84.943,23.0022],[84.9033,23.0558],[84.8895,23.1672],[84.9017,23.3267],[84.8849,23.4037],[84.9446,23.4985],[84.8849,23.559],[84.9476,23.6085],[84.9231,23.669],[84.969,23.7157]]]},"properties":{"name":"Ranchi","state":"Jharkhand","warning":"ORANGE","category":"Middle band, 69-122 mm/24h observed","maxMm24h":73.2}},{"type":"Feature","geometry":{"type":"Polygon","coordinates":[[[87.5228,22.928],[87.457,22.9129],[87.3576,22.9541],[87.2705,22.9032],[87.064,22.851],[87.0762,22.7259],[87.0151,22.6503],[86.8943,22.6517],[86.6955,22.7685],[86.6098,22.7988],[86.7062,22.8799],[86.6894,22.9307],[86.7521,23.0888],[86.7169,23.1218],[86.7826,23.2607],[86.7872,23.339],[86.8515,23.3872],[86.8943,23.5123],[86.9019,23.6387],[87.0151,23.6319],[87.2093,23.5576],[87.2781,23.4999],[87.4494,23.4023],[87.5564,23.3129],[87.6451,23.1961],[87.7644,23.0751],[87.7124,23.0105],[87.642,22.9816],[87.6313,22.8991],[87.5228,22.928]]]},"properties":{"name":"Bankura","state":"West Bengal","warning":"ORANGE","category":"Middle band, 69-122 mm/24h observed","maxMm24h":113.4}},{"type":"Feature","geometry":{"type":"Polygon","coordinates":[[[89.055,22.1279],[88.8042,22.3286],[88.8226,22.3712],[88.7033,22.4344],[88.6238,22.5802],[88.5611,22.6242],[88.5213,22.5623],[88.4143,22.5568],[88.3577,22.6324],[88.3501,22.6544],[88.3531,22.796],[88.4066,22.9431],[88.6115,22.9074],[88.6544,22.9197],[88.688,23.0256],[88.6742,23.0943],[88.7094,23.2318],[88.8103,23.2552],[88.9419,23.2057],[88.8577,22.9679],[88.9694,22.8441],[88.9128,22.7575],[88.9633,22.6929],[88.9266,22.6503],[89,22.4289],[88.9954,22.2874],[89.0657,22.2076],[89.055,22.1279]]]},"properties":{"name":"North 24 Parganas","state":"West Bengal","warning":"ORANGE","category":"Middle band, 69-122 mm/24h observed","maxMm24h":88.8}},{"type":"Feature","geometry":{"type":"Polygon","coordinates":[[[87.8531,22.5953],[87.8133,22.6145],[87.7414,22.7768],[87.6298,22.8125],[87.5105,22.8977],[87.5228,22.928],[87.6313,22.8991],[87.642,22.9816],[87.7124,23.0105],[87.743,22.9651],[87.8393,22.9362],[87.9402,22.9431],[88.0503,22.9898],[88.1467,23.0778],[88.1696,23.1562],[88.3608,23.1177],[88.4143,23.2098],[88.5014,23.1053],[88.4097,22.9898],[88.4066,22.9431],[88.3531,22.796],[88.3501,22.6544],[88.1971,22.6627],[87.9922,22.7039],[87.8531,22.5953]]]},"properties":{"name":"Hooghly","state":"West Bengal","warning":"ORANGE","category":"Middle band, 69-122 mm/24h observed","maxMm24h":73.6}},{"type":"Feature","geometry":{"type":"Polygon","coordinates":[[[84.943,23.0022],[85.0547,23.1205],[85.047,23.1947],[85.0883,23.2428],[85.2275,23.2676],[85.2213,23.2084],[85.385,23.1933],[85.4828,23.1246],[85.6143,23.115],[85.6556,23.005],[85.5486,22.9307],[85.5822,22.895],[85.5165,22.807],[85.3406,22.8826],[85.2489,22.8345],[85.1571,22.8318],[85.073,22.5678],[85.0409,22.6819],[85.0485,22.7534],[84.9797,22.785],[84.9858,22.9197],[84.943,23.0022]]]},"properties":{"name":"Khunti","state":"Jharkhand","warning":"YELLOW","category":"Lowest band, 39-68 mm/24h observed","maxMm24h":64.7}},{"type":"Feature","geometry":{"type":"Polygon","coordinates":[[[86.067,22.5568],[85.963,22.4853],[85.9003,22.5252],[85.9141,22.6049],[85.8651,22.7121],[85.7244,22.6847],[85.7015,22.807],[85.6465,22.851],[85.5165,22.807],[85.5822,22.895],[85.729,22.9445],[85.8575,22.9005],[85.8101,23.0765],[85.885,23.1672],[86.044,23.1452],[86.2413,22.9967],[86.1878,22.9472],[86.1985,22.818],[86.1587,22.752],[86.1496,22.631],[86.067,22.5568]]]},"properties":{"name":"Saraikela-Kharsawan","state":"Jharkhand","warning":"ORANGE","category":"Middle band, 69-122 mm/24h observed","maxMm24h":113.7}},{"type":"Feature","geometry":{"type":"Polygon","coordinates":[[[86.7276,22.2159],[86.5548,22.2983],[86.4967,22.3465],[86.4294,22.3162],[86.3591,22.3492],[86.2826,22.4482],[86.119,22.4867],[86.067,22.5568],[86.1496,22.631],[86.1587,22.752],[86.1985,22.818],[86.1878,22.9472],[86.2413,22.9967],[86.5013,22.994],[86.4355,22.9266],[86.4187,22.7905],[86.5594,22.7135],[86.642,22.6572],[86.6588,22.576],[86.7658,22.576],[86.801,22.4881],[86.7643,22.4262],[86.8453,22.4001],[86.8331,22.3258],[86.7276,22.2159]]]},"properties":{"name":"East Singhbhum","state":"Jharkhand","warning":"ORANGE","category":"Middle band, 69-122 mm/24h observed","maxMm24h":113.7}},{"type":"Feature","geometry":{"type":"Polygon","coordinates":[[[85.963,22.4853],[86.018,22.4262],[86.0287,22.3341],[85.9737,22.2475],[86.0318,22.1897],[86.0089,22.1155],[85.8972,21.9835],[85.7841,21.9849],[85.7489,22.0743],[85.6832,22.0578],[85.3972,22.1636],[85.2749,22.0825],[85.2382,22.0096],[85.1801,22.0729],[85.0287,22.1224],[85.0776,22.2571],[85.0699,22.4908],[85.073,22.5678],[85.1571,22.8318],[85.2489,22.8345],[85.3406,22.8826],[85.5165,22.807],[85.6465,22.851],[85.7015,22.807],[85.7244,22.6847],[85.8651,22.7121],[85.9141,22.6049],[85.9003,22.5252],[85.963,22.4853]]]},"properties":{"name":"West Singhbhum","state":"Jharkhand","warning":"ORANGE","category":"Middle band, 69-122 mm/24h observed","maxMm24h":106.7}},{"type":"Feature","geometry":{"type":"Polygon","coordinates":[[[88.2384,22.5444],[88.1696,22.4826],[88.0901,22.363],[88.0824,22.2612],[87.9983,22.2447],[87.9525,22.2764],[87.9372,22.4221],[87.8928,22.5197],[87.8531,22.5953],[87.9922,22.7039],[88.1971,22.6627],[88.3501,22.6544],[88.3577,22.6324],[88.321,22.5527],[88.2384,22.5444]]]},"properties":{"name":"Howrah","state":"West Bengal","warning":"YELLOW","category":"Lowest band, 39-68 mm/24h observed","maxMm24h":62.1}},{"type":"Feature","geometry":{"type":"Polygon","coordinates":[[[85.0699,22.4908],[84.9583,22.4454],[84.81,22.4537],[84.7503,22.4193],[84.5347,22.4276],[84.4292,22.352],[84.2916,22.3423],[84.1968,22.3781],[84.1111,22.4771],[84.0118,22.5279],[84.0102,22.5733],[84.0836,22.6379],[84.1524,22.6365],[84.2381,22.6915],[84.2931,22.7726],[84.4155,22.7644],[84.4491,22.8359],[84.5561,22.7878],[84.5577,22.7328],[84.6953,22.741],[84.7335,22.8015],[84.8574,22.7204],[84.9797,22.785],[85.0485,22.7534],[85.0409,22.6819],[85.073,22.5678],[85.0699,22.4908]]]},"properties":{"name":"Simdega","state":"Jharkhand","warning":"YELLOW","category":"Lowest band, 39-68 mm/24h observed","maxMm24h":46.1}},{"type":"Feature","geometry":{"type":"Polygon","coordinates":[[[88.4143,22.5568],[88.3424,22.5046],[88.2384,22.5444],[88.321,22.5527],[88.3577,22.6324],[88.4143,22.5568]]]},"properties":{"name":"Kolkata","state":"West Bengal","warning":"YELLOW","category":"Lowest band, 39-68 mm/24h observed","maxMm24h":61.3}},{"type":"Feature","geometry":{"type":"Polygon","coordinates":[[[85.0883,24.3701],[85.2886,24.5227],[85.3314,24.5103],[85.4125,24.4072],[85.3972,24.3619],[85.5165,24.3179],[85.6419,24.3316],[85.8498,24.2739],[85.8468,24.2189],[85.6816,24.1763],[85.7107,24.102],[85.8361,24.0718],[85.9141,23.9494],[85.8345,23.8408],[85.7367,23.9508],[85.6434,23.9549],[85.4262,23.7941],[85.4691,23.7652],[85.4232,23.6841],[85.336,23.7047],[85.2305,23.6841],[85.0761,23.6676],[85.0531,23.7116],[85.021,23.8821],[85.0241,23.992],[85.2015,23.9563],[85.2489,24.0347],[85.1693,24.0993],[85.1602,24.2299],[85.2718,24.2161],[85.3223,24.3096],[85.2259,24.344],[85.1005,24.3289],[85.0883,24.3701]]]},"properties":{"name":"Hazaribagh","state":"Jharkhand","warning":"YELLOW","category":"Lowest band, 39-68 mm/24h observed","maxMm24h":39.7}},{"type":"Feature","geometry":{"type":"Polygon","coordinates":[[[87.2169,25.4562],[87.2292,25.3764],[87.3668,25.4094],[87.5518,25.3311],[87.4784,25.195],[87.327,25.2238],[87.2949,25.0891],[87.1756,25.0575],[87.0135,25.1097],[86.8132,25.0918],[86.6924,25.1152],[86.7261,25.2541],[86.8576,25.3641],[86.8224,25.4452],[86.9203,25.4933],[87.0197,25.4617],[87.1007,25.5194],[87.1038,25.4328],[87.2169,25.4562]]]},"properties":{"name":"Bhagalpur","state":"Bihar","warning":"YELLOW","category":"Lowest band, 39-68 mm/24h observed","maxMm24h":42.0}},{"type":"Feature","geometry":{"type":"Polygon","coordinates":[[[89.8517,26.6976],[89.8701,26.6137],[89.8349,26.4144],[89.7493,26.4652],[89.6973,26.4281],[89.5367,26.4419],[89.4511,26.4872],[89.3914,26.4625],[89.1192,26.5243],[89.1055,26.5931],[89.0428,26.6316],[89.0902,26.8405],[89.1284,26.8062],[89.2553,26.8075],[89.3746,26.8543],[89.4541,26.7979],[89.5474,26.813],[89.6361,26.7512],[89.763,26.6989],[89.8517,26.6976]]]},"properties":{"name":"Alipurduar","state":"West Bengal","warning":"YELLOW","category":"Lowest band, 39-68 mm/24h observed","maxMm24h":56.6}},{"type":"Feature","geometry":{"type":"Polygon","coordinates":[[[87.0854,23.812],[87.1542,23.7487],[87.2643,23.7487],[87.4096,23.6869],[87.4463,23.614],[87.5335,23.6085],[87.4494,23.4806],[87.4494,23.4023],[87.2781,23.4999],[87.2093,23.5576],[87.0151,23.6319],[86.9019,23.6387],[86.801,23.6992],[86.827,23.7652],[86.801,23.8339],[86.9157,23.8821],[87.0854,23.812]]]},"properties":{"name":"Paschim Bardhaman","state":"West Bengal","warning":"ORANGE","category":"Middle band, 69-122 mm/24h observed","maxMm24h":103.3}},{"type":"Feature","geometry":{"type":"Polygon","coordinates":[[[89.8349,26.4144],[89.8425,26.3827],[89.7814,26.3525],[89.7003,26.2178],[89.7294,26.171],[89.6346,26.2288],[89.6086,26.1532],[89.6499,26.0638],[89.5413,26.0061],[89.3486,26.0102],[89.2293,26.1243],[89.1544,26.1394],[89.0963,26.391],[88.9831,26.4474],[88.9097,26.38],[88.9862,26.3497],[88.9266,26.2838],[88.7599,26.3291],[88.9266,26.4529],[88.9617,26.5381],[89.1192,26.5243],[89.3914,26.4625],[89.4511,26.4872],[89.5367,26.4419],[89.6973,26.4281],[89.7493,26.4652],[89.8349,26.4144]]]},"properties":{"name":"Cooch Behar","state":"West Bengal","warning":"YELLOW","category":"Lowest band, 39-68 mm/24h observed","maxMm24h":53.2}},{"type":"Feature","geometry":{"type":"Polygon","coordinates":[[[88.24,26.4584],[88.3332,26.4968],[88.4846,26.4611],[88.5152,26.3649],[88.402,26.3305],[88.3516,26.2219],[88.1788,26.149],[88.0932,25.9304],[88.1008,25.8301],[88.1436,25.7943],[88.2675,25.782],[88.454,25.6637],[88.4464,25.595],[88.3592,25.5661],[88.1666,25.4259],[88.1788,25.3448],[88.269,25.3036],[88.1497,25.2719],[88.1084,25.3269],[88.0672,25.4837],[88.0213,25.5964],[88.0503,25.7009],[87.9678,25.7256],[87.8928,25.8658],[87.8271,25.8906],[87.8225,25.9359],[87.847,25.9923],[87.8408,25.9964],[87.8531,26.0294],[87.85,26.0391],[87.9754,26.1435],[88.0733,26.1752],[88.1467,26.2508],[88.2797,26.3305],[88.24,26.4584]]]},"properties":{"name":"Uttar Dinajpur","state":"West Bengal","warning":"YELLOW","category":"Lowest band, 39-68 mm/24h observed","maxMm24h":45.5}},{"type":"Feature","geometry":{"type":"Polygon","coordinates":[[[88.11,26.5477],[88.24,26.4584],[88.2797,26.3305],[88.1467,26.2508],[88.0733,26.1752],[87.9754,26.1435],[87.85,26.0391],[87.8622,26.094],[87.6849,26.1023],[87.7063,26.1614],[87.6252,26.3456],[87.6589,26.38],[87.8485,26.4364],[88.0335,26.3924],[88.0993,26.4556],[88.11,26.5477]]]},"properties":{"name":"Kishanganj","state":"Bihar","warning":"YELLOW","category":"Lowest band, 39-68 mm/24h observed","maxMm24h":39.5}}]}